<?xml version="1.0" encoding="UTF-8"?>
<gpx version="1.1" creator="Thumel-Circuit" xmlns="http://www.topografix.com/GPX/1/1">
  <trk><name>Jour 1 — Thumel → Rifugio Gian Federico Benevolo</name>
  <desc>Thumel parking (1800m) → Bénévolo (2285m) · +400m · 3.8km · Sentiero ref=13</desc>
  <trkseg>
    <trkpt lat="45.5387617" lon="7.1014612"/>
    <trkpt lat="45.5387065" lon="7.1014073"/>
    <trkpt lat="45.5385751" lon="7.1012792"/>
    <trkpt lat="45.5384234" lon="7.1011554"/>
    <trkpt lat="45.5382959" lon="7.1010686"/>
    <trkpt lat="45.5382047" lon="7.1010169"/>
    <trkpt lat="45.5381456" lon="7.1010035"/>
    <trkpt lat="45.5380538" lon="7.1009906"/>
    <trkpt lat="45.5380274" lon="7.1009754"/>
    <trkpt lat="45.5380087" lon="7.1009466"/>
    <trkpt lat="45.5378332" lon="7.1010342"/>
    <trkpt lat="45.5374808" lon="7.1011288"/>
    <trkpt lat="45.5371814" lon="7.1012702"/>
    <trkpt lat="45.5367919" lon="7.1015712"/>
    <trkpt lat="45.5366648" lon="7.1017156"/>
    <trkpt lat="45.5366052" lon="7.1017458"/>
    <trkpt lat="45.536497" lon="7.1017647"/>
    <trkpt lat="45.5362518" lon="7.101863"/>
    <trkpt lat="45.5360131" lon="7.1018968"/>
    <trkpt lat="45.5359465" lon="7.1018875"/>
    <trkpt lat="45.5358282" lon="7.1017555"/>
    <trkpt lat="45.535783" lon="7.1017156"/>
    <trkpt lat="45.5356939" lon="7.1016633"/>
    <trkpt lat="45.5355507" lon="7.1016174"/>
    <trkpt lat="45.5352733" lon="7.1015314"/>
    <trkpt lat="45.5350328" lon="7.1014426"/>
    <trkpt lat="45.534941" lon="7.1014287"/>
    <trkpt lat="45.5348988" lon="7.1014158"/>
    <trkpt lat="45.5348554" lon="7.1013532"/>
    <trkpt lat="45.534795" lon="7.1012704"/>
    <trkpt lat="45.534676" lon="7.1011305"/>
    <trkpt lat="45.5345988" lon="7.1010215"/>
    <trkpt lat="45.5345405" lon="7.1009571"/>
    <trkpt lat="45.5344616" lon="7.100933"/>
    <trkpt lat="45.5344015" lon="7.1009249"/>
    <trkpt lat="45.5342925" lon="7.1008954"/>
    <trkpt lat="45.5342108" lon="7.100902"/>
    <trkpt lat="45.5340538" lon="7.1008989"/>
    <trkpt lat="45.5339248" lon="7.1008897"/>
    <trkpt lat="45.5337743" lon="7.1008528"/>
    <trkpt lat="45.5336722" lon="7.1007728"/>
    <trkpt lat="45.5335822" lon="7.1007549"/>
    <trkpt lat="45.5334934" lon="7.1008341"/>
    <trkpt lat="45.5334325" lon="7.1008447"/>
    <trkpt lat="45.5332589" lon="7.100762"/>
    <trkpt lat="45.5332166" lon="7.1006886"/>
    <trkpt lat="45.5331519" lon="7.1006007"/>
    <trkpt lat="45.533021" lon="7.1004271"/>
    <trkpt lat="45.533014" lon="7.1002517"/>
    <trkpt lat="45.5330334" lon="7.1000539"/>
    <trkpt lat="45.5330938" lon="7.0998976"/>
    <trkpt lat="45.533137" lon="7.0998091"/>
    <trkpt lat="45.5331314" lon="7.0997555"/>
    <trkpt lat="45.533075" lon="7.0996911"/>
    <trkpt lat="45.5329829" lon="7.0995811"/>
    <trkpt lat="45.5329549" lon="7.0993757"/>
    <trkpt lat="45.5329243" lon="7.0991965"/>
    <trkpt lat="45.5329008" lon="7.099034"/>
    <trkpt lat="45.5328363" lon="7.0989573"/>
    <trkpt lat="45.5328171" lon="7.098895"/>
    <trkpt lat="45.5327934" lon="7.0987388"/>
    <trkpt lat="45.5327823" lon="7.0986655"/>
    <trkpt lat="45.5327475" lon="7.0985315"/>
    <trkpt lat="45.5326842" lon="7.0983956"/>
    <trkpt lat="45.5326211" lon="7.0982188"/>
    <trkpt lat="45.5325326" lon="7.098128"/>
    <trkpt lat="45.5324473" lon="7.0979011"/>
    <trkpt lat="45.5323601" lon="7.0977811"/>
    <trkpt lat="45.5323155" lon="7.0976517"/>
    <trkpt lat="45.5320898" lon="7.0973822"/>
    <trkpt lat="45.5319174" lon="7.0972834"/>
    <trkpt lat="45.5318835" lon="7.097125"/>
    <trkpt lat="45.5318911" lon="7.0969211"/>
    <trkpt lat="45.5319061" lon="7.0967602"/>
    <trkpt lat="45.5319512" lon="7.0965349"/>
    <trkpt lat="45.5319512" lon="7.0963096"/>
    <trkpt lat="45.5319361" lon="7.096095"/>
    <trkpt lat="45.5318835" lon="7.0959555"/>
    <trkpt lat="45.5317783" lon="7.0957195"/>
    <trkpt lat="45.5316581" lon="7.09558"/>
    <trkpt lat="45.5316355" lon="7.0954298"/>
    <trkpt lat="45.5316355" lon="7.0952796"/>
    <trkpt lat="45.5315234" lon="7.095102"/>
    <trkpt lat="45.5314572" lon="7.0948828"/>
    <trkpt lat="45.5314401" lon="7.0947432"/>
    <trkpt lat="45.5314298" lon="7.0946136"/>
    <trkpt lat="45.5313842" lon="7.0944334"/>
    <trkpt lat="45.5313048" lon="7.0942067"/>
    <trkpt lat="45.5312093" lon="7.0940013"/>
    <trkpt lat="45.531118" lon="7.0938276"/>
    <trkpt lat="45.5310019" lon="7.0936749"/>
    <trkpt lat="45.5309511" lon="7.0935466"/>
    <trkpt lat="45.5309385" lon="7.0933717"/>
    <trkpt lat="45.5307195" lon="7.0931708"/>
    <trkpt lat="45.5306283" lon="7.0930114"/>
    <trkpt lat="45.5304856" lon="7.0928227"/>
    <trkpt lat="45.5303278" lon="7.0926618"/>
    <trkpt lat="45.5302283" lon="7.0925207"/>
    <trkpt lat="45.5301507" lon="7.092373"/>
    <trkpt lat="45.5301324" lon="7.0922755"/>
    <trkpt lat="45.5301249" lon="7.0921624"/>
    <trkpt lat="45.5301005" lon="7.0921392"/>
    <trkpt lat="45.5300884" lon="7.0921277"/>
    <trkpt lat="45.5300564" lon="7.0921147"/>
    <trkpt lat="45.529952" lon="7.0920288"/>
    <trkpt lat="45.5299226" lon="7.091967"/>
    <trkpt lat="45.5298998" lon="7.0918476"/>
    <trkpt lat="45.5298511" lon="7.0916501"/>
    <trkpt lat="45.5297827" lon="7.0915111"/>
    <trkpt lat="45.5296664" lon="7.0913528"/>
    <trkpt lat="45.5295515" lon="7.0912723"/>
    <trkpt lat="45.5294785" lon="7.0911919"/>
    <trkpt lat="45.5294108" lon="7.0910524"/>
    <trkpt lat="45.5293883" lon="7.0909237"/>
    <trkpt lat="45.5293131" lon="7.0908271"/>
    <trkpt lat="45.5292455" lon="7.0907306"/>
    <trkpt lat="45.5291402" lon="7.0905911"/>
    <trkpt lat="45.5290891" lon="7.0904976"/>
    <trkpt lat="45.5290061" lon="7.0903412"/>
    <trkpt lat="45.5289827" lon="7.0902237"/>
    <trkpt lat="45.528946" lon="7.0900093"/>
    <trkpt lat="45.528833" lon="7.0898415"/>
    <trkpt lat="45.5286128" lon="7.0896892"/>
    <trkpt lat="45.5285232" lon="7.0896585"/>
    <trkpt lat="45.5284713" lon="7.0895933"/>
    <trkpt lat="45.5284077" lon="7.089467"/>
    <trkpt lat="45.5283736" lon="7.0893036"/>
    <trkpt lat="45.5283287" lon="7.089279"/>
    <trkpt lat="45.5282653" lon="7.0892276"/>
    <trkpt lat="45.5282156" lon="7.0893461"/>
    <trkpt lat="45.5281659" lon="7.089446"/>
    <trkpt lat="45.5280006" lon="7.0895699"/>
    <trkpt lat="45.5279143" lon="7.0896521"/>
    <trkpt lat="45.5277876" lon="7.0896283"/>
    <trkpt lat="45.5276732" lon="7.0895529"/>
    <trkpt lat="45.5276001" lon="7.0894281"/>
    <trkpt lat="45.5275455" lon="7.0892595"/>
    <trkpt lat="45.5275531" lon="7.0891318"/>
    <trkpt lat="45.5275374" lon="7.0890843"/>
    <trkpt lat="45.5274853" lon="7.088892"/>
    <trkpt lat="45.5274737" lon="7.0887263"/>
    <trkpt lat="45.5274708" lon="7.0885398"/>
    <trkpt lat="45.5274911" lon="7.0882663"/>
    <trkpt lat="45.5275854" lon="7.0881281"/>
    <trkpt lat="45.5274743" lon="7.0878635"/>
    <trkpt lat="45.5273762" lon="7.0876327"/>
    <trkpt lat="45.5271944" lon="7.0872989"/>
    <trkpt lat="45.5271044" lon="7.0872052"/>
    <trkpt lat="45.5270838" lon="7.0871411"/>
    <trkpt lat="45.5270613" lon="7.0870956"/>
    <trkpt lat="45.5269789" lon="7.0870956"/>
    <trkpt lat="45.5268421" lon="7.0871945"/>
    <trkpt lat="45.5267859" lon="7.0871758"/>
    <trkpt lat="45.5266509" lon="7.0871598"/>
    <trkpt lat="45.5265891" lon="7.0871598"/>
    <trkpt lat="45.5265516" lon="7.0871357"/>
    <trkpt lat="45.5264992" lon="7.0871143"/>
    <trkpt lat="45.5264017" lon="7.0871384"/>
    <trkpt lat="45.5263249" lon="7.0871732"/>
    <trkpt lat="45.5261092" lon="7.08719"/>
    <trkpt lat="45.5259535" lon="7.087111"/>
    <trkpt lat="45.5258361" lon="7.0869774"/>
    <trkpt lat="45.5257128" lon="7.086836"/>
    <trkpt lat="45.5256002" lon="7.0867095"/>
    <trkpt lat="45.5255174" lon="7.0866107"/>
    <trkpt lat="45.5253308" lon="7.0863253"/>
    <trkpt lat="45.5251267" lon="7.0861704"/>
    <trkpt lat="45.5250943" lon="7.086065"/>
    <trkpt lat="45.5250468" lon="7.085941"/>
    <trkpt lat="45.5249957" lon="7.0858845"/>
    <trkpt lat="45.5248739" lon="7.0856481"/>
    <trkpt lat="45.5246784" lon="7.0854443"/>
    <trkpt lat="45.5245356" lon="7.0852619"/>
    <trkpt lat="45.5243004" lon="7.0850966"/>
    <trkpt lat="45.5242454" lon="7.0850203"/>
    <trkpt lat="45.5241864" lon="7.085"/>
    <trkpt lat="45.5241256" lon="7.0849594"/>
    <trkpt lat="45.5240202" lon="7.0849016"/>
    <trkpt lat="45.5239477" lon="7.0848333"/>
    <trkpt lat="45.5238358" lon="7.0847334"/>
    <trkpt lat="45.5237839" lon="7.0847252"/>
    <trkpt lat="45.5237063" lon="7.0847228"/>
    <trkpt lat="45.5236159" lon="7.0847176"/>
    <trkpt lat="45.5235426" lon="7.0847019"/>
    <trkpt lat="45.5234795" lon="7.0846869"/>
    <trkpt lat="45.5234332" lon="7.084613"/>
    <trkpt lat="45.5233453" lon="7.084538"/>
    <trkpt lat="45.5233137" lon="7.0844737"/>
    <trkpt lat="45.5233117" lon="7.0843942"/>
    <trkpt lat="45.523319" lon="7.0842633"/>
    <trkpt lat="45.5232957" lon="7.084178"/>
    <trkpt lat="45.5232081" lon="7.0839792"/>
    <trkpt lat="45.5231401" lon="7.083885"/>
    <trkpt lat="45.5230971" lon="7.0837716"/>
    <trkpt lat="45.5230966" lon="7.0837224"/>
    <trkpt lat="45.5230454" lon="7.0836817"/>
    <trkpt lat="45.5229488" lon="7.0836359"/>
    <trkpt lat="45.5229047" lon="7.0836582"/>
    <trkpt lat="45.5227266" lon="7.0838065"/>
    <trkpt lat="45.5225353" lon="7.083879"/>
    <trkpt lat="45.5223752" lon="7.0839068"/>
    <trkpt lat="45.5219517" lon="7.0841408"/>
    <trkpt lat="45.5217292" lon="7.08423"/>
    <trkpt lat="45.5216212" lon="7.084279"/>
    <trkpt lat="45.5215776" lon="7.0843699"/>
    <trkpt lat="45.5215926" lon="7.0845197"/>
    <trkpt lat="45.5216277" lon="7.0846701"/>
    <trkpt lat="45.5214944" lon="7.0847118"/>
    <trkpt lat="45.5213537" lon="7.0847118"/>
    <trkpt lat="45.5212985" lon="7.084787"/>
    <trkpt lat="45.5211679" lon="7.0848695"/>
    <trkpt lat="45.5210347" lon="7.0849233"/>
    <trkpt lat="45.520982" lon="7.0850057"/>
    <trkpt lat="45.5208715" lon="7.0851169"/>
    <trkpt lat="45.5207059" lon="7.0851646"/>
    <trkpt lat="45.5207741" lon="7.0853633"/>
    <trkpt lat="45.5207792" lon="7.08547"/>
    <trkpt lat="45.5206984" lon="7.0854834"/>
    <trkpt lat="45.5206053" lon="7.0855373"/>
    <trkpt lat="45.5205324" lon="7.0856976"/>
    <trkpt lat="45.5203993" lon="7.0857407"/>
    <trkpt lat="45.5203113" lon="7.085927"/>
    <trkpt lat="45.520288" lon="7.0859711"/>
    <trkpt lat="45.5202023" lon="7.0859984"/>
    <trkpt lat="45.5201308" lon="7.0860896"/>
    <trkpt lat="45.5200651" lon="7.0862425"/>
    <trkpt lat="45.5200825" lon="7.0863227"/>
    <trkpt lat="45.5200435" lon="7.0863713"/>
    <trkpt lat="45.52002" lon="7.0863847"/>
    <trkpt lat="45.5199871" lon="7.086378"/>
    <trkpt lat="45.51991" lon="7.0863458"/>
    <trkpt lat="45.5198818" lon="7.0863431"/>
    <trkpt lat="45.519785" lon="7.0863833"/>
    <trkpt lat="45.5197381" lon="7.0863914"/>
    <trkpt lat="45.5196883" lon="7.0863874"/>
    <trkpt lat="45.519646" lon="7.0863739"/>
    <trkpt lat="45.5195454" lon="7.0862881"/>
    <trkpt lat="45.5194806" lon="7.0862197"/>
    <trkpt lat="45.519428" lon="7.0861822"/>
    <trkpt lat="45.5193857" lon="7.0861688"/>
    <trkpt lat="45.519303" lon="7.0861862"/>
    <trkpt lat="45.5189985" lon="7.0861111"/>
    <trkpt lat="45.5187796" lon="7.0860078"/>
    <trkpt lat="45.5186161" lon="7.0859247"/>
    <trkpt lat="45.5184695" lon="7.0858576"/>
    <trkpt lat="45.5182928" lon="7.0856243"/>
    <trkpt lat="45.5181876" lon="7.0855626"/>
    <trkpt lat="45.5180034" lon="7.0855143"/>
    <trkpt lat="45.5179001" lon="7.0854392"/>
    <trkpt lat="45.5177975" lon="7.0852903"/>
    <trkpt lat="45.5177159" lon="7.085171"/>
    <trkpt lat="45.5176031" lon="7.08512"/>
    <trkpt lat="45.517511" lon="7.0851495"/>
    <trkpt lat="45.5174321" lon="7.0852675"/>
    <trkpt lat="45.5174176" lon="7.0850811"/>
    <trkpt lat="45.5173816" lon="7.0849959"/>
    <trkpt lat="45.5173456" lon="7.0849768"/>
    <trkpt lat="45.5172809" lon="7.0849843"/>
    <trkpt lat="45.5172331" lon="7.0850309"/>
    <trkpt lat="45.5172006" lon="7.0850394"/>
    <trkpt lat="45.5170825" lon="7.0850111"/>
    <trkpt lat="45.5170383" lon="7.084952"/>
    <trkpt lat="45.516901" lon="7.0848659"/>
    <trkpt lat="45.5168692" lon="7.0848125"/>
    <trkpt lat="45.5168313" lon="7.0847838"/>
    <trkpt lat="45.5167645" lon="7.084807"/>
    <trkpt lat="45.5166609" lon="7.0848698"/>
    <trkpt lat="45.5166097" lon="7.0849095"/>
    <trkpt lat="45.5165882" lon="7.08495"/>
    <trkpt lat="45.5165598" lon="7.0849451"/>
    <trkpt lat="45.5165655" lon="7.0849031"/>
    <trkpt lat="45.5164952" lon="7.0849176"/>
    <trkpt lat="45.5164646" lon="7.0849629"/>
    <trkpt lat="45.5164204" lon="7.084937"/>
    <trkpt lat="45.5162652" lon="7.084937"/>
    <trkpt lat="45.5161461" lon="7.0849273"/>
    <trkpt lat="45.5160419" lon="7.0849257"/>
    <trkpt lat="45.5159387" lon="7.0849548"/>
    <trkpt lat="45.5158832" lon="7.084992"/>
    <trkpt lat="45.5158231" lon="7.085081"/>
    <trkpt lat="45.5157846" lon="7.0851117"/>
    <trkpt lat="45.5156837" lon="7.0851603"/>
    <trkpt lat="45.5155534" lon="7.0851522"/>
    <trkpt lat="45.5154638" lon="7.0851619"/>
    <trkpt lat="45.5153902" lon="7.085101"/>
    <trkpt lat="45.5153933" lon="7.0850338"/>
    <trkpt lat="45.5154048" lon="7.0847821"/>
    <trkpt lat="45.5154161" lon="7.0847082"/>
    <trkpt lat="45.5154389" lon="7.0846524"/>
    <trkpt lat="45.515489" lon="7.0845775"/>
    <trkpt lat="45.5155837" lon="7.084446"/>
  </trkseg></trk></gpx>