<?xml version="1.0" encoding="UTF-8"?>
<gpx version="1.1" creator="Thumel-Circuit" xmlns="http://www.topografix.com/GPX/1/1">
  <trk><name>Jour 2 — Rifugio Benevolo → Rifugio Mario Bezzi</name>
  <desc>Benevolo (2285m) → traverse haute montagne → Bezzi (2283m) · 10.3km · HRG</desc>
  <trkseg>
    <trkpt lat="45.5155837" lon="7.084446"/>
    <trkpt lat="45.5155929" lon="7.0843944"/>
    <trkpt lat="45.5156012" lon="7.0843399"/>
    <trkpt lat="45.5154944" lon="7.0840701"/>
    <trkpt lat="45.5154124" lon="7.0839288"/>
    <trkpt lat="45.515104" lon="7.0836357"/>
    <trkpt lat="45.5150603" lon="7.0834772"/>
    <trkpt lat="45.5149961" lon="7.0830766"/>
    <trkpt lat="45.5150116" lon="7.0827955"/>
    <trkpt lat="45.5150048" lon="7.082692"/>
    <trkpt lat="45.5149753" lon="7.0825755"/>
    <trkpt lat="45.5149082" lon="7.0825031"/>
    <trkpt lat="45.5147954" lon="7.0824267"/>
    <trkpt lat="45.5147429" lon="7.0823559"/>
    <trkpt lat="45.5147337" lon="7.0822904"/>
    <trkpt lat="45.5149278" lon="7.0819234"/>
    <trkpt lat="45.5149357" lon="7.0818916"/>
    <trkpt lat="45.5149292" lon="7.0818347"/>
    <trkpt lat="45.5148965" lon="7.0817563"/>
    <trkpt lat="45.5148948" lon="7.0816628"/>
    <trkpt lat="45.5149579" lon="7.0816083"/>
    <trkpt lat="45.5149678" lon="7.0815785"/>
    <trkpt lat="45.5150029" lon="7.0815488"/>
    <trkpt lat="45.5150216" lon="7.0814986"/>
    <trkpt lat="45.5150106" lon="7.0814767"/>
    <trkpt lat="45.5149854" lon="7.0814532"/>
    <trkpt lat="45.5149733" lon="7.0814062"/>
    <trkpt lat="45.5149854" lon="7.0813404"/>
    <trkpt lat="45.5149689" lon="7.081309"/>
    <trkpt lat="45.51516" lon="7.0811006"/>
    <trkpt lat="45.5153587" lon="7.0809768"/>
    <trkpt lat="45.5154004" lon="7.0809126"/>
    <trkpt lat="45.515418" lon="7.0808671"/>
    <trkpt lat="45.5154432" lon="7.0808593"/>
    <trkpt lat="45.5154893" lon="7.0808076"/>
    <trkpt lat="45.5154926" lon="7.0807778"/>
    <trkpt lat="45.5155486" lon="7.0807747"/>
    <trkpt lat="45.5156474" lon="7.0807402"/>
    <trkpt lat="45.5158407" lon="7.0806305"/>
    <trkpt lat="45.5159022" lon="7.0805804"/>
    <trkpt lat="45.5159713" lon="7.0805835"/>
    <trkpt lat="45.5160273" lon="7.0805679"/>
    <trkpt lat="45.516068" lon="7.0805397"/>
    <trkpt lat="45.5163578" lon="7.0805255"/>
    <trkpt lat="45.5164149" lon="7.0805052"/>
    <trkpt lat="45.5165313" lon="7.0804174"/>
    <trkpt lat="45.5165906" lon="7.0804394"/>
    <trkpt lat="45.5166093" lon="7.0804284"/>
    <trkpt lat="45.5166158" lon="7.0803814"/>
    <trkpt lat="45.5166367" lon="7.0803281"/>
    <trkpt lat="45.5167092" lon="7.0802999"/>
    <trkpt lat="45.5168278" lon="7.0802748"/>
    <trkpt lat="45.516887" lon="7.0802513"/>
    <trkpt lat="45.5168772" lon="7.0802169"/>
    <trkpt lat="45.5168969" lon="7.0801714"/>
    <trkpt lat="45.5170056" lon="7.0801291"/>
    <trkpt lat="45.5170704" lon="7.0801229"/>
    <trkpt lat="45.5170825" lon="7.0800774"/>
    <trkpt lat="45.5171132" lon="7.0800429"/>
    <trkpt lat="45.5171846" lon="7.0799834"/>
    <trkpt lat="45.5172483" lon="7.0799144"/>
    <trkpt lat="45.5173394" lon="7.0798518"/>
    <trkpt lat="45.5173581" lon="7.0798283"/>
    <trkpt lat="45.5173789" lon="7.0798157"/>
    <trkpt lat="45.5173635" lon="7.0797656"/>
    <trkpt lat="45.5172801" lon="7.0797045"/>
    <trkpt lat="45.517279" lon="7.0796622"/>
    <trkpt lat="45.5171681" lon="7.0795572"/>
    <trkpt lat="45.5171341" lon="7.0794961"/>
    <trkpt lat="45.517077" lon="7.0794365"/>
    <trkpt lat="45.5170045" lon="7.0793864"/>
    <trkpt lat="45.5169507" lon="7.0793237"/>
    <trkpt lat="45.5169024" lon="7.0792814"/>
    <trkpt lat="45.5168958" lon="7.0792172"/>
    <trkpt lat="45.5168497" lon="7.0791921"/>
    <trkpt lat="45.5168278" lon="7.07912"/>
    <trkpt lat="45.5167048" lon="7.0790197"/>
    <trkpt lat="45.516685" lon="7.0789915"/>
    <trkpt lat="45.5166367" lon="7.0790197"/>
    <trkpt lat="45.5166137" lon="7.0790182"/>
    <trkpt lat="45.5165752" lon="7.0789524"/>
    <trkpt lat="45.5165434" lon="7.078943"/>
    <trkpt lat="45.5165104" lon="7.0789821"/>
    <trkpt lat="45.5164852" lon="7.0789774"/>
    <trkpt lat="45.5163732" lon="7.0788395"/>
    <trkpt lat="45.5162392" lon="7.0787737"/>
    <trkpt lat="45.5162041" lon="7.0787408"/>
    <trkpt lat="45.516046" lon="7.0787189"/>
    <trkpt lat="45.5159285" lon="7.0786734"/>
    <trkpt lat="45.5158023" lon="7.0786421"/>
    <trkpt lat="45.5157342" lon="7.0786014"/>
    <trkpt lat="45.5156277" lon="7.0784995"/>
    <trkpt lat="45.5154202" lon="7.0785262"/>
    <trkpt lat="45.51534" lon="7.0785074"/>
    <trkpt lat="45.5152555" lon="7.0785293"/>
    <trkpt lat="45.5152116" lon="7.0785528"/>
    <trkpt lat="45.5151786" lon="7.078545"/>
    <trkpt lat="45.515093" lon="7.0784964"/>
    <trkpt lat="45.5150545" lon="7.0784995"/>
    <trkpt lat="45.5150304" lon="7.0784478"/>
    <trkpt lat="45.514981" lon="7.0784494"/>
    <trkpt lat="45.5149458" lon="7.0784885"/>
    <trkpt lat="45.5149085" lon="7.0784791"/>
    <trkpt lat="45.5148492" lon="7.0784274"/>
    <trkpt lat="45.514791" lon="7.0784494"/>
    <trkpt lat="45.5147416" lon="7.0784854"/>
    <trkpt lat="45.5147175" lon="7.0784697"/>
    <trkpt lat="45.5146648" lon="7.0784964"/>
    <trkpt lat="45.514645" lon="7.0784854"/>
    <trkpt lat="45.5145835" lon="7.0785058"/>
    <trkpt lat="45.5145506" lon="7.0785042"/>
    <trkpt lat="45.514533" lon="7.0784901"/>
    <trkpt lat="45.5144858" lon="7.0785183"/>
    <trkpt lat="45.5143914" lon="7.0784165"/>
    <trkpt lat="45.5143463" lon="7.0784274"/>
    <trkpt lat="45.5142882" lon="7.0784086"/>
    <trkpt lat="45.5142673" lon="7.0783742"/>
    <trkpt lat="45.514197" lon="7.0783789"/>
    <trkpt lat="45.5141531" lon="7.0782896"/>
    <trkpt lat="45.5141103" lon="7.0782504"/>
    <trkpt lat="45.5141169" lon="7.0781767"/>
    <trkpt lat="45.5141224" lon="7.0780874"/>
    <trkpt lat="45.5141191" lon="7.0780044"/>
    <trkpt lat="45.5140598" lon="7.0778398"/>
    <trkpt lat="45.5140191" lon="7.0777787"/>
    <trkpt lat="45.5140169" lon="7.0777537"/>
    <trkpt lat="45.5140817" lon="7.0777286"/>
    <trkpt lat="45.5140894" lon="7.0777051"/>
    <trkpt lat="45.5141235" lon="7.0777255"/>
    <trkpt lat="45.5142245" lon="7.0776675"/>
    <trkpt lat="45.5142794" lon="7.0776832"/>
    <trkpt lat="45.5143057" lon="7.0776408"/>
    <trkpt lat="45.514331" lon="7.0776565"/>
    <trkpt lat="45.5143452" lon="7.0776252"/>
    <trkpt lat="45.5143771" lon="7.0776455"/>
    <trkpt lat="45.5143881" lon="7.0776064"/>
    <trkpt lat="45.5144309" lon="7.0775923"/>
    <trkpt lat="45.514455" lon="7.0775954"/>
    <trkpt lat="45.5144056" lon="7.0774559"/>
    <trkpt lat="45.5144715" lon="7.0774669"/>
    <trkpt lat="45.5145088" lon="7.0774199"/>
    <trkpt lat="45.5145132" lon="7.0773886"/>
    <trkpt lat="45.5144737" lon="7.0773839"/>
    <trkpt lat="45.514477" lon="7.0773275"/>
    <trkpt lat="45.5145407" lon="7.0772381"/>
    <trkpt lat="45.514544" lon="7.077177"/>
    <trkpt lat="45.5145374" lon="7.077141"/>
    <trkpt lat="45.5145198" lon="7.0771629"/>
    <trkpt lat="45.5144847" lon="7.0771692"/>
    <trkpt lat="45.5144968" lon="7.0771159"/>
    <trkpt lat="45.5145637" lon="7.0770548"/>
    <trkpt lat="45.514589" lon="7.0770579"/>
    <trkpt lat="45.5146274" lon="7.0770188"/>
    <trkpt lat="45.514757" lon="7.0769326"/>
    <trkpt lat="45.5147374" lon="7.0769079"/>
    <trkpt lat="45.5147005" lon="7.0769029"/>
    <trkpt lat="45.514675" lon="7.0768878"/>
    <trkpt lat="45.5146399" lon="7.0768803"/>
    <trkpt lat="45.5145889" lon="7.0768239"/>
    <trkpt lat="45.5145546" lon="7.0768314"/>
    <trkpt lat="45.5145274" lon="7.0768038"/>
    <trkpt lat="45.5144879" lon="7.0768189"/>
    <trkpt lat="45.5144475" lon="7.0768001"/>
    <trkpt lat="45.514429" lon="7.07677"/>
    <trkpt lat="45.5144001" lon="7.0767888"/>
    <trkpt lat="45.514379" lon="7.0767788"/>
    <trkpt lat="45.5143825" lon="7.0767286"/>
    <trkpt lat="45.5144273" lon="7.0766308"/>
    <trkpt lat="45.5144071" lon="7.0766133"/>
    <trkpt lat="45.5144194" lon="7.0765757"/>
    <trkpt lat="45.5144914" lon="7.0764842"/>
    <trkpt lat="45.5145186" lon="7.076424"/>
    <trkpt lat="45.5145503" lon="7.0764027"/>
    <trkpt lat="45.5148674" lon="7.0764441"/>
    <trkpt lat="45.5148981" lon="7.0764203"/>
    <trkpt lat="45.5149403" lon="7.0764403"/>
    <trkpt lat="45.5150193" lon="7.0765393"/>
    <trkpt lat="45.5150949" lon="7.0765431"/>
    <trkpt lat="45.5151783" lon="7.0765318"/>
    <trkpt lat="45.515238" lon="7.0765331"/>
    <trkpt lat="45.5152591" lon="7.076523"/>
    <trkpt lat="45.515318" lon="7.0765343"/>
    <trkpt lat="45.5153645" lon="7.0765205"/>
    <trkpt lat="45.5154216" lon="7.0765168"/>
    <trkpt lat="45.5154831" lon="7.0764716"/>
    <trkpt lat="45.5155349" lon="7.0764579"/>
    <trkpt lat="45.5155718" lon="7.0764152"/>
    <trkpt lat="45.5155982" lon="7.0764152"/>
    <trkpt lat="45.5156315" lon="7.0763977"/>
    <trkpt lat="45.5157185" lon="7.0763363"/>
    <trkpt lat="45.5157607" lon="7.0763513"/>
    <trkpt lat="45.5157896" lon="7.076345"/>
    <trkpt lat="45.5158134" lon="7.0762786"/>
    <trkpt lat="45.5158459" lon="7.0762673"/>
    <trkpt lat="45.5159548" lon="7.0762974"/>
    <trkpt lat="45.5159688" lon="7.0762974"/>
    <trkpt lat="45.5159846" lon="7.0762799"/>
    <trkpt lat="45.516011" lon="7.0762799"/>
    <trkpt lat="45.516011" lon="7.0762109"/>
    <trkpt lat="45.5159908" lon="7.0761984"/>
    <trkpt lat="45.5159724" lon="7.076167"/>
    <trkpt lat="45.515989" lon="7.0761507"/>
    <trkpt lat="45.516011" lon="7.0761482"/>
    <trkpt lat="45.5160163" lon="7.0761131"/>
    <trkpt lat="45.5159961" lon="7.076078"/>
    <trkpt lat="45.5160119" lon="7.076048"/>
    <trkpt lat="45.5160347" lon="7.0760655"/>
    <trkpt lat="45.516076" lon="7.076053"/>
    <trkpt lat="45.5160751" lon="7.0760241"/>
    <trkpt lat="45.5160505" lon="7.0760166"/>
    <trkpt lat="45.5160215" lon="7.0759539"/>
    <trkpt lat="45.5160391" lon="7.0759326"/>
    <trkpt lat="45.5160848" lon="7.0759527"/>
    <trkpt lat="45.5161138" lon="7.0759489"/>
    <trkpt lat="45.5161208" lon="7.075885"/>
    <trkpt lat="45.5161594" lon="7.0758775"/>
    <trkpt lat="45.5162253" lon="7.0758875"/>
    <trkpt lat="45.516307" lon="7.0759276"/>
    <trkpt lat="45.5163369" lon="7.0759477"/>
    <trkpt lat="45.5163439" lon="7.0760129"/>
    <trkpt lat="45.5164027" lon="7.0760179"/>
    <trkpt lat="45.516437" lon="7.0760617"/>
    <trkpt lat="45.516466" lon="7.076063"/>
    <trkpt lat="45.5165248" lon="7.0761144"/>
    <trkpt lat="45.5165679" lon="7.076167"/>
    <trkpt lat="45.5165916" lon="7.0761633"/>
    <trkpt lat="45.5166145" lon="7.0760351"/>
    <trkpt lat="45.5166368" lon="7.0760204"/>
    <trkpt lat="45.5166454" lon="7.0759886"/>
    <trkpt lat="45.5167106" lon="7.0759911"/>
    <trkpt lat="45.5167981" lon="7.0760131"/>
    <trkpt lat="45.5168718" lon="7.075996"/>
    <trkpt lat="45.5169679" lon="7.075947"/>
    <trkpt lat="45.5169748" lon="7.0759225"/>
    <trkpt lat="45.5170417" lon="7.0759298"/>
    <trkpt lat="45.5170897" lon="7.0759568"/>
    <trkpt lat="45.5171648" lon="7.0759278"/>
    <trkpt lat="45.5172043" lon="7.0759278"/>
    <trkpt lat="45.5172658" lon="7.075898"/>
    <trkpt lat="45.517347" lon="7.0759106"/>
    <trkpt lat="45.5173854" lon="7.0758855"/>
    <trkpt lat="45.5174195" lon="7.0757382"/>
    <trkpt lat="45.5173549" lon="7.075614"/>
    <trkpt lat="45.5173097" lon="7.0755376"/>
    <trkpt lat="45.5172658" lon="7.0755032"/>
    <trkpt lat="45.5172043" lon="7.0755235"/>
    <trkpt lat="45.5171143" lon="7.0755"/>
    <trkpt lat="45.5170407" lon="7.0754311"/>
    <trkpt lat="45.5169836" lon="7.0753512"/>
    <trkpt lat="45.5169419" lon="7.0752493"/>
    <trkpt lat="45.5168562" lon="7.075149"/>
    <trkpt lat="45.5167827" lon="7.0751067"/>
    <trkpt lat="45.5167278" lon="7.0750628"/>
    <trkpt lat="45.5166916" lon="7.075008"/>
    <trkpt lat="45.5166663" lon="7.075019"/>
    <trkpt lat="45.5166279" lon="7.0749861"/>
    <trkpt lat="45.5165708" lon="7.0748936"/>
    <trkpt lat="45.5164972" lon="7.0748607"/>
    <trkpt lat="45.5164302" lon="7.0747824"/>
    <trkpt lat="45.5164127" lon="7.0747902"/>
    <trkpt lat="45.5163775" lon="7.0747275"/>
    <trkpt lat="45.5163325" lon="7.0746727"/>
    <trkpt lat="45.5163117" lon="7.0746821"/>
    <trkpt lat="45.5162809" lon="7.0746445"/>
    <trkpt lat="45.5162458" lon="7.0747134"/>
    <trkpt lat="45.5161909" lon="7.0746978"/>
    <trkpt lat="45.515946" lon="7.0744737"/>
    <trkpt lat="45.5159289" lon="7.0744328"/>
    <trkpt lat="45.5159481" lon="7.0744073"/>
    <trkpt lat="45.5158795" lon="7.0742545"/>
    <trkpt lat="45.5157999" lon="7.0741586"/>
    <trkpt lat="45.5157532" lon="7.0740587"/>
    <trkpt lat="45.5157148" lon="7.0739235"/>
    <trkpt lat="45.5156736" lon="7.0737375"/>
    <trkpt lat="45.5156046" lon="7.0729873"/>
    <trkpt lat="45.5155906" lon="7.0729276"/>
    <trkpt lat="45.5155634" lon="7.0728853"/>
    <trkpt lat="45.5155316" lon="7.0728629"/>
    <trkpt lat="45.5154885" lon="7.0727836"/>
    <trkpt lat="45.5153959" lon="7.072613"/>
    <trkpt lat="45.515402" lon="7.0725346"/>
    <trkpt lat="45.5153715" lon="7.0724667"/>
    <trkpt lat="45.5153147" lon="7.0724192"/>
    <trkpt lat="45.5152142" lon="7.0721602"/>
    <trkpt lat="45.515147" lon="7.0720528"/>
    <trkpt lat="45.5151368" lon="7.0719034"/>
    <trkpt lat="45.5151567" lon="7.0718557"/>
    <trkpt lat="45.5151732" lon="7.0717958"/>
    <trkpt lat="45.5151519" lon="7.0717322"/>
    <trkpt lat="45.5151232" lon="7.0717021"/>
    <trkpt lat="45.5150912" lon="7.0715787"/>
    <trkpt lat="45.5150577" lon="7.0713898"/>
    <trkpt lat="45.5150505" lon="7.0712931"/>
    <trkpt lat="45.5150192" lon="7.0712474"/>
    <trkpt lat="45.5149596" lon="7.0711875"/>
    <trkpt lat="45.5148869" lon="7.0711172"/>
    <trkpt lat="45.514841" lon="7.0710772"/>
    <trkpt lat="45.5147447" lon="7.0707989"/>
    <trkpt lat="45.5147141" lon="7.0707076"/>
    <trkpt lat="45.514706" lon="7.0705889"/>
    <trkpt lat="45.5147458" lon="7.0704882"/>
    <trkpt lat="45.5147712" lon="7.0702497"/>
    <trkpt lat="45.5147385" lon="7.0700683"/>
    <trkpt lat="45.5145024" lon="7.0697676"/>
    <trkpt lat="45.514452" lon="7.0696481"/>
    <trkpt lat="45.5144056" lon="7.069603"/>
    <trkpt lat="45.5143453" lon="7.0695005"/>
    <trkpt lat="45.5142669" lon="7.0694105"/>
    <trkpt lat="45.5141496" lon="7.069158"/>
    <trkpt lat="45.5141157" lon="7.0690452"/>
    <trkpt lat="45.5141052" lon="7.0688036"/>
    <trkpt lat="45.5140374" lon="7.0685181"/>
    <trkpt lat="45.5140123" lon="7.0681377"/>
    <trkpt lat="45.5140112" lon="7.0679469"/>
    <trkpt lat="45.5139724" lon="7.0679135"/>
    <trkpt lat="45.5139447" lon="7.0678347"/>
    <trkpt lat="45.5139197" lon="7.0676002"/>
    <trkpt lat="45.5138477" lon="7.0674347"/>
    <trkpt lat="45.5137656" lon="7.0673206"/>
    <trkpt lat="45.5137245" lon="7.0671097"/>
    <trkpt lat="45.5136816" lon="7.0669794"/>
    <trkpt lat="45.5136032" lon="7.0665875"/>
    <trkpt lat="45.5133669" lon="7.0661899"/>
    <trkpt lat="45.5133162" lon="7.0659714"/>
    <trkpt lat="45.5132622" lon="7.0658872"/>
    <trkpt lat="45.5130728" lon="7.0656642"/>
    <trkpt lat="45.5129818" lon="7.0655168"/>
    <trkpt lat="45.51287" lon="7.065396"/>
    <trkpt lat="45.5128021" lon="7.0653818"/>
    <trkpt lat="45.512595" lon="7.0651443"/>
    <trkpt lat="45.5124096" lon="7.0649341"/>
    <trkpt lat="45.5123382" lon="7.0647974"/>
    <trkpt lat="45.5120186" lon="7.0644165"/>
    <trkpt lat="45.5120041" lon="7.0643517"/>
    <trkpt lat="45.5118246" lon="7.0640743"/>
    <trkpt lat="45.5117298" lon="7.0639729"/>
    <trkpt lat="45.5116643" lon="7.0639588"/>
    <trkpt lat="45.5116068" lon="7.0639068"/>
    <trkpt lat="45.5116192" lon="7.0638545"/>
    <trkpt lat="45.5116877" lon="7.0637274"/>
    <trkpt lat="45.5115952" lon="7.0629634"/>
    <trkpt lat="45.5116066" lon="7.0628277"/>
    <trkpt lat="45.5116417" lon="7.0627171"/>
    <trkpt lat="45.5116529" lon="7.0626443"/>
    <trkpt lat="45.5116994" lon="7.062539"/>
    <trkpt lat="45.5118874" lon="7.0624443"/>
    <trkpt lat="45.5119312" lon="7.0623695"/>
    <trkpt lat="45.5120332" lon="7.0621362"/>
    <trkpt lat="45.512038" lon="7.0620393"/>
    <trkpt lat="45.5119878" lon="7.0619598"/>
    <trkpt lat="45.5119377" lon="7.0617665"/>
    <trkpt lat="45.5119202" lon="7.0616671"/>
    <trkpt lat="45.5118018" lon="7.0614489"/>
    <trkpt lat="45.5117769" lon="7.0613567"/>
    <trkpt lat="45.5116468" lon="7.0611835"/>
    <trkpt lat="45.5115295" lon="7.0609626"/>
    <trkpt lat="45.5114258" lon="7.0607281"/>
    <trkpt lat="45.5114212" lon="7.0605941"/>
    <trkpt lat="45.5114567" lon="7.060423"/>
    <trkpt lat="45.5114431" lon="7.0603215"/>
    <trkpt lat="45.5114036" lon="7.0601946"/>
    <trkpt lat="45.5112503" lon="7.0599569"/>
    <trkpt lat="45.5111978" lon="7.0598474"/>
    <trkpt lat="45.5111158" lon="7.0597691"/>
    <trkpt lat="45.5110295" lon="7.0596407"/>
    <trkpt lat="45.5108595" lon="7.059493"/>
    <trkpt lat="45.5108044" lon="7.0593728"/>
    <trkpt lat="45.5107473" lon="7.0592919"/>
    <trkpt lat="45.5106068" lon="7.0592539"/>
    <trkpt lat="45.5105093" lon="7.0591666"/>
    <trkpt lat="45.5104375" lon="7.0590715"/>
    <trkpt lat="45.5104233" lon="7.0589894"/>
    <trkpt lat="45.5102906" lon="7.0587981"/>
    <trkpt lat="45.5095968" lon="7.0580565"/>
    <trkpt lat="45.5094569" lon="7.0578274"/>
    <trkpt lat="45.5094272" lon="7.0577781"/>
    <trkpt lat="45.5093814" lon="7.0575232"/>
    <trkpt lat="45.5093304" lon="7.057414"/>
    <trkpt lat="45.509276" lon="7.0573179"/>
    <trkpt lat="45.5092348" lon="7.057166"/>
    <trkpt lat="45.5091952" lon="7.0571197"/>
    <trkpt lat="45.5091441" lon="7.0569778"/>
    <trkpt lat="45.5091238" lon="7.0567111"/>
    <trkpt lat="45.5089672" lon="7.0565457"/>
    <trkpt lat="45.5088701" lon="7.0560675"/>
    <trkpt lat="45.5087949" lon="7.0557501"/>
    <trkpt lat="45.5088763" lon="7.0556786"/>
    <trkpt lat="45.508845" lon="7.0554953"/>
    <trkpt lat="45.5089018" lon="7.0553322"/>
    <trkpt lat="45.5087923" lon="7.0549591"/>
    <trkpt lat="45.5084305" lon="7.0540565"/>
    <trkpt lat="45.5082097" lon="7.0530511"/>
    <trkpt lat="45.5082608" lon="7.0524515"/>
    <trkpt lat="45.5080609" lon="7.0518471"/>
    <trkpt lat="45.5079369" lon="7.0510299"/>
    <trkpt lat="45.5078634" lon="7.0501973"/>
    <trkpt lat="45.5077401" lon="7.049772"/>
    <trkpt lat="45.5076312" lon="7.0494367"/>
    <trkpt lat="45.5077029" lon="7.0490483"/>
    <trkpt lat="45.5076599" lon="7.0487416"/>
    <trkpt lat="45.5074851" lon="7.0484022"/>
    <trkpt lat="45.5072397" lon="7.0478271"/>
    <trkpt lat="45.5070171" lon="7.0475651"/>
    <trkpt lat="45.5068085" lon="7.0471245"/>
    <trkpt lat="45.5066193" lon="7.0466799"/>
    <trkpt lat="45.5063745" lon="7.0462155"/>
    <trkpt lat="45.5061831" lon="7.0460996"/>
    <trkpt lat="45.5059832" lon="7.046088"/>
    <trkpt lat="45.5057753" lon="7.0460302"/>
    <trkpt lat="45.5056997" lon="7.0458645"/>
    <trkpt lat="45.5057024" lon="7.0457759"/>
    <trkpt lat="45.505408" lon="7.0456102"/>
    <trkpt lat="45.5053216" lon="7.0453674"/>
    <trkpt lat="45.5052433" lon="7.0451169"/>
    <trkpt lat="45.5048723" lon="7.0447008"/>
    <trkpt lat="45.5047669" lon="7.0443258"/>
    <trkpt lat="45.504734" lon="7.0442158"/>
    <trkpt lat="45.5047181" lon="7.0440871"/>
    <trkpt lat="45.504719" lon="7.0439838"/>
    <trkpt lat="45.504703" lon="7.0439409"/>
    <trkpt lat="45.5046476" lon="7.043906"/>
    <trkpt lat="45.5046466" lon="7.0438202"/>
    <trkpt lat="45.5046485" lon="7.0437357"/>
    <trkpt lat="45.5046316" lon="7.0436606"/>
    <trkpt lat="45.5045771" lon="7.0435882"/>
    <trkpt lat="45.5045607" lon="7.0435279"/>
    <trkpt lat="45.5045423" lon="7.0434313"/>
    <trkpt lat="45.5045395" lon="7.0432998"/>
    <trkpt lat="45.504516" lon="7.0431979"/>
    <trkpt lat="45.5045376" lon="7.043159"/>
    <trkpt lat="45.5044953" lon="7.0431215"/>
    <trkpt lat="45.5044972" lon="7.0430544"/>
    <trkpt lat="45.5045216" lon="7.0430343"/>
    <trkpt lat="45.5045122" lon="7.0430142"/>
    <trkpt lat="45.5045282" lon="7.0429873"/>
    <trkpt lat="45.5045047" lon="7.0429592"/>
    <trkpt lat="45.504531" lon="7.0429149"/>
    <trkpt lat="45.5045122" lon="7.042876"/>
    <trkpt lat="45.504531" lon="7.0428573"/>
    <trkpt lat="45.5045103" lon="7.0428237"/>
    <trkpt lat="45.5045395" lon="7.0427594"/>
    <trkpt lat="45.5045714" lon="7.0427366"/>
    <trkpt lat="45.5045414" lon="7.0426641"/>
    <trkpt lat="45.5045498" lon="7.042636"/>
    <trkpt lat="45.5045301" lon="7.042581"/>
    <trkpt lat="45.5045075" lon="7.0425045"/>
    <trkpt lat="45.5044633" lon="7.0424482"/>
    <trkpt lat="45.5044107" lon="7.0423812"/>
    <trkpt lat="45.504343" lon="7.042345"/>
    <trkpt lat="45.5042885" lon="7.0423597"/>
    <trkpt lat="45.5042754" lon="7.0423476"/>
    <trkpt lat="45.5042782" lon="7.0423168"/>
    <trkpt lat="45.5043017" lon="7.0422927"/>
    <trkpt lat="45.5042866" lon="7.0422497"/>
    <trkpt lat="45.5042747" lon="7.0420597"/>
    <trkpt lat="45.5044931" lon="7.0418148"/>
    <trkpt lat="45.5046846" lon="7.0417837"/>
    <trkpt lat="45.5051623" lon="7.0410434"/>
    <trkpt lat="45.5053817" lon="7.0404247"/>
    <trkpt lat="45.505537" lon="7.0398212"/>
    <trkpt lat="45.5058472" lon="7.0392605"/>
    <trkpt lat="45.5061486" lon="7.0389491"/>
    <trkpt lat="45.5064913" lon="7.038638"/>
    <trkpt lat="45.5066209" lon="7.0385856"/>
    <trkpt lat="45.5066862" lon="7.0385338"/>
    <trkpt lat="45.5066858" lon="7.0384775"/>
    <trkpt lat="45.5067028" lon="7.038449"/>
    <trkpt lat="45.506741" lon="7.0383559"/>
    <trkpt lat="45.5067973" lon="7.0383036"/>
    <trkpt lat="45.5069266" lon="7.0379074"/>
    <trkpt lat="45.5069372" lon="7.0378238"/>
    <trkpt lat="45.5069324" lon="7.0376769"/>
    <trkpt lat="45.5069748" lon="7.0373252"/>
    <trkpt lat="45.5071723" lon="7.036821"/>
    <trkpt lat="45.5073698" lon="7.0365837"/>
    <trkpt lat="45.5074886" lon="7.0365207"/>
    <trkpt lat="45.5075272" lon="7.0364386"/>
    <trkpt lat="45.507568" lon="7.0363812"/>
    <trkpt lat="45.5076555" lon="7.0363344"/>
    <trkpt lat="45.5077347" lon="7.036242"/>
    <trkpt lat="45.5078292" lon="7.0360844"/>
    <trkpt lat="45.5078944" lon="7.0360046"/>
    <trkpt lat="45.5079677" lon="7.035866"/>
    <trkpt lat="45.5080042" lon="7.0357667"/>
    <trkpt lat="45.5080401" lon="7.0356267"/>
    <trkpt lat="45.5080436" lon="7.0355514"/>
    <trkpt lat="45.5081503" lon="7.035563"/>
    <trkpt lat="45.5082043" lon="7.0355732"/>
    <trkpt lat="45.5084345" lon="7.0356141"/>
    <trkpt lat="45.5081818" lon="7.0358064"/>
    <trkpt lat="45.5082384" lon="7.0357905"/>
    <trkpt lat="45.5083059" lon="7.0357064"/>
    <trkpt lat="45.5083539" lon="7.0356618"/>
    <trkpt lat="45.5084345" lon="7.0356141"/>
    <trkpt lat="45.5084875" lon="7.0355439"/>
    <trkpt lat="45.5084877" lon="7.0354609"/>
    <trkpt lat="45.5085233" lon="7.0354605"/>
    <trkpt lat="45.5085335" lon="7.0354391"/>
    <trkpt lat="45.5085676" lon="7.0354359"/>
    <trkpt lat="45.5087799" lon="7.0352587"/>
    <trkpt lat="45.5088858" lon="7.0351928"/>
    <trkpt lat="45.5089238" lon="7.0351195"/>
    <trkpt lat="45.5089782" lon="7.0350374"/>
    <trkpt lat="45.5090045" lon="7.0350095"/>
    <trkpt lat="45.5091078" lon="7.0348832"/>
    <trkpt lat="45.5091271" lon="7.0348037"/>
    <trkpt lat="45.5091736" lon="7.0347531"/>
    <trkpt lat="45.5092171" lon="7.0347358"/>
    <trkpt lat="45.5095342" lon="7.0343616"/>
    <trkpt lat="45.5099075" lon="7.0340881"/>
    <trkpt lat="45.5102656" lon="7.0339297"/>
    <trkpt lat="45.5104407" lon="7.0338612"/>
    <trkpt lat="45.5106281" lon="7.0337878"/>
    <trkpt lat="45.5107946" lon="7.0335992"/>
    <trkpt lat="45.5109709" lon="7.0336201"/>
    <trkpt lat="45.5110786" lon="7.0334384"/>
    <trkpt lat="45.511206" lon="7.0333057"/>
    <trkpt lat="45.51149" lon="7.0332707"/>
    <trkpt lat="45.5117054" lon="7.0332917"/>
    <trkpt lat="45.5119894" lon="7.0332568"/>
    <trkpt lat="45.5122343" lon="7.0332987"/>
    <trkpt lat="45.5125623" lon="7.0334384"/>
    <trkpt lat="45.5127848" lon="7.0334222"/>
    <trkpt lat="45.513013" lon="7.0335918"/>
    <trkpt lat="45.5133885" lon="7.0336935"/>
    <trkpt lat="45.513688" lon="7.0338767"/>
    <trkpt lat="45.5139019" lon="7.0340123"/>
    <trkpt lat="45.5141395" lon="7.0342837"/>
    <trkpt lat="45.5143677" lon="7.0344193"/>
    <trkpt lat="45.5145055" lon="7.0341751"/>
    <trkpt lat="45.5147765" lon="7.0339784"/>
    <trkpt lat="45.5150494" lon="7.0339933"/>
    <trkpt lat="45.5153032" lon="7.0341711"/>
    <trkpt lat="45.5154877" lon="7.034013"/>
    <trkpt lat="45.5159676" lon="7.0336443"/>
    <trkpt lat="45.5160968" lon="7.0334665"/>
    <trkpt lat="45.5164706" lon="7.0331965"/>
    <trkpt lat="45.5166967" lon="7.0331636"/>
    <trkpt lat="45.5167705" lon="7.0330648"/>
    <trkpt lat="45.5168812" lon="7.0330516"/>
    <trkpt lat="45.5171442" lon="7.0328211"/>
    <trkpt lat="45.5175481" lon="7.0325839"/>
    <trkpt lat="45.5181707" lon="7.0323857"/>
    <trkpt lat="45.5185693" lon="7.0318999"/>
    <trkpt lat="45.5190352" lon="7.0309922"/>
    <trkpt lat="45.5192994" lon="7.0307301"/>
    <trkpt lat="45.5195785" lon="7.0304827"/>
    <trkpt lat="45.5198611" lon="7.0305695"/>
    <trkpt lat="45.5201481" lon="7.0305137"/>
    <trkpt lat="45.5201742" lon="7.0301972"/>
    <trkpt lat="45.5205133" lon="7.0303027"/>
    <trkpt lat="45.5206133" lon="7.0299738"/>
    <trkpt lat="45.5207351" lon="7.030011"/>
    <trkpt lat="45.5209742" lon="7.0299552"/>
    <trkpt lat="45.5210308" lon="7.0296449"/>
    <trkpt lat="45.5209351" lon="7.0293967"/>
    <trkpt lat="45.5209177" lon="7.0288071"/>
    <trkpt lat="45.5213916" lon="7.029074"/>
    <trkpt lat="45.521781" lon="7.0291141"/>
    <trkpt lat="45.5221947" lon="7.0292165"/>
    <trkpt lat="45.522469" lon="7.0291744"/>
    <trkpt lat="45.5227392" lon="7.0290659"/>
    <trkpt lat="45.5225788" lon="7.0287888"/>
    <trkpt lat="45.5227856" lon="7.0286442"/>
    <trkpt lat="45.5227518" lon="7.0285719"/>
    <trkpt lat="45.5228953" lon="7.0284454"/>
    <trkpt lat="45.5228405" lon="7.0283249"/>
    <trkpt lat="45.5229502" lon="7.0282044"/>
    <trkpt lat="45.5228278" lon="7.028102"/>
    <trkpt lat="45.5229502" lon="7.0280418"/>
    <trkpt lat="45.5232372" lon="7.0280117"/>
    <trkpt lat="45.5235453" lon="7.0280056"/>
    <trkpt lat="45.5239951" lon="7.028236"/>
    <trkpt lat="45.5240484" lon="7.0281541"/>
    <trkpt lat="45.5242655" lon="7.0281482"/>
    <trkpt lat="45.5244663" lon="7.0279319"/>
    <trkpt lat="45.5246603" lon="7.0280729"/>
    <trkpt lat="45.5247648" lon="7.0277134"/>
    <trkpt lat="45.5248504" lon="7.0278084"/>
    <trkpt lat="45.525088" lon="7.027537"/>
    <trkpt lat="45.5252591" lon="7.0275099"/>
    <trkpt lat="45.5255085" lon="7.0272578"/>
    <trkpt lat="45.5261082" lon="7.0269663"/>
    <trkpt lat="45.5265856" lon="7.0269399"/>
    <trkpt lat="45.5267263" lon="7.0270297"/>
    <trkpt lat="45.5272" lon="7.0270139"/>
    <trkpt lat="45.527374" lon="7.0269452"/>
    <trkpt lat="45.5277663" lon="7.0269452"/>
    <trkpt lat="45.5283561" lon="7.0267363"/>
    <trkpt lat="45.5288519" lon="7.0264286"/>
    <trkpt lat="45.5292004" lon="7.0261312"/>
    <trkpt lat="45.529967" lon="7.0254805"/>
    <trkpt lat="45.5302774" lon="7.0254157"/>
    <trkpt lat="45.5303855" lon="7.0254605"/>
    <trkpt lat="45.5305041" lon="7.0254008"/>
    <trkpt lat="45.5306436" lon="7.025361"/>
    <trkpt lat="45.5308005" lon="7.0254755"/>
    <trkpt lat="45.5310063" lon="7.0256248"/>
    <trkpt lat="45.5311841" lon="7.0257095"/>
    <trkpt lat="45.5314338" lon="7.02572"/>
    <trkpt lat="45.5317757" lon="7.0256476"/>
    <trkpt lat="45.5323716" lon="7.0251981"/>
    <trkpt lat="45.5325003" lon="7.0249467"/>
    <trkpt lat="45.5326289" lon="7.0248694"/>
    <trkpt lat="45.5327982" lon="7.0248163"/>
    <trkpt lat="45.5329336" lon="7.0248984"/>
    <trkpt lat="45.5332248" lon="7.0247196"/>
    <trkpt lat="45.5334652" lon="7.0246664"/>
    <trkpt lat="45.5335193" lon="7.0245456"/>
    <trkpt lat="45.5336615" lon="7.0245069"/>
    <trkpt lat="45.5337326" lon="7.0242894"/>
    <trkpt lat="45.5338206" lon="7.0242991"/>
    <trkpt lat="45.5339983" lon="7.0239866"/>
    <trkpt lat="45.534147" lon="7.0238593"/>
    <trkpt lat="45.5342362" lon="7.0238593"/>
    <trkpt lat="45.5343007" lon="7.0239017"/>
    <trkpt lat="45.5343948" lon="7.0238239"/>
    <trkpt lat="45.5344345" lon="7.0233285"/>
    <trkpt lat="45.5343007" lon="7.0232436"/>
    <trkpt lat="45.53438" lon="7.0231516"/>
    <trkpt lat="45.5343254" lon="7.0231092"/>
    <trkpt lat="45.5345138" lon="7.0227978"/>
    <trkpt lat="45.5345931" lon="7.0228049"/>
    <trkpt lat="45.5346575" lon="7.0224511"/>
    <trkpt lat="45.5347616" lon="7.0223874"/>
    <trkpt lat="45.5347071" lon="7.02226"/>
    <trkpt lat="45.5348508" lon="7.0222671"/>
    <trkpt lat="45.5349995" lon="7.0221539"/>
    <trkpt lat="45.5353663" lon="7.0217152"/>
    <trkpt lat="45.5357282" lon="7.0214109"/>
    <trkpt lat="45.5360057" lon="7.0211845"/>
    <trkpt lat="45.5361197" lon="7.0212482"/>
    <trkpt lat="45.536204" lon="7.0214038"/>
    <trkpt lat="45.5364964" lon="7.0210925"/>
    <trkpt lat="45.5367889" lon="7.0209368"/>
    <trkpt lat="45.5369078" lon="7.0207599"/>
    <trkpt lat="45.5370863" lon="7.0204769"/>
    <trkpt lat="45.5372548" lon="7.0203636"/>
    <trkpt lat="45.5374332" lon="7.0202433"/>
    <trkpt lat="45.5377752" lon="7.0201372"/>
    <trkpt lat="45.5379982" lon="7.0202929"/>
    <trkpt lat="45.5380875" lon="7.0201372"/>
    <trkpt lat="45.5382411" lon="7.0200169"/>
    <trkpt lat="45.5385187" lon="7.0199178"/>
    <trkpt lat="45.5387268" lon="7.019748"/>
    <trkpt lat="45.5388706" lon="7.0194933"/>
    <trkpt lat="45.5389846" lon="7.0195853"/>
    <trkpt lat="45.5392324" lon="7.019465"/>
    <trkpt lat="45.5396437" lon="7.0192173"/>
    <trkpt lat="45.5400148" lon="7.0188323"/>
    <trkpt lat="45.5402553" lon="7.0186329"/>
    <trkpt lat="45.5404686" lon="7.0183568"/>
    <trkpt lat="45.5406582" lon="7.0181395"/>
    <trkpt lat="45.540723" lon="7.0180515"/>
    <trkpt lat="45.5407287" lon="7.0181072"/>
    <trkpt lat="45.5407485" lon="7.0181447"/>
  </trkseg></trk></gpx>