<?xml version="1.0" encoding="UTF-8"?>
<gpx version="1.1" creator="Thumel-Circuit" xmlns="http://www.topografix.com/GPX/1/1">
  <trk><name>Jour 3 — Rifugio Mario Bezzi → Rifugio Chalet de L'Épée</name>
  <desc>Bezzi (2283m) → traverse Valgrisenche → Épée (2370m) · 9.7km · ref=11</desc>
  <trkseg>
    <trkpt lat="45.540723" lon="7.0180515"/>
    <trkpt lat="45.5407287" lon="7.0181072"/>
    <trkpt lat="45.5407485" lon="7.0181447"/>
    <trkpt lat="45.5407524" lon="7.018175"/>
    <trkpt lat="45.5407122" lon="7.0184365"/>
    <trkpt lat="45.5406889" lon="7.0186344"/>
    <trkpt lat="45.5406705" lon="7.0187894"/>
    <trkpt lat="45.5406104" lon="7.0190683"/>
    <trkpt lat="45.5405135" lon="7.0193305"/>
    <trkpt lat="45.5404551" lon="7.0194617"/>
    <trkpt lat="45.5403783" lon="7.0195117"/>
    <trkpt lat="45.5403449" lon="7.0195761"/>
    <trkpt lat="45.540248" lon="7.0196071"/>
    <trkpt lat="45.5402263" lon="7.0196333"/>
    <trkpt lat="45.5401512" lon="7.0196667"/>
    <trkpt lat="45.5400944" lon="7.0197406"/>
    <trkpt lat="45.5400009" lon="7.0199027"/>
    <trkpt lat="45.5399458" lon="7.0201483"/>
    <trkpt lat="45.5399141" lon="7.0202841"/>
    <trkpt lat="45.5398206" lon="7.0204796"/>
    <trkpt lat="45.5397655" lon="7.0206084"/>
    <trkpt lat="45.5398306" lon="7.0206179"/>
    <trkpt lat="45.539864" lon="7.0206513"/>
    <trkpt lat="45.5398022" lon="7.0208277"/>
    <trkpt lat="45.5397922" lon="7.0208825"/>
    <trkpt lat="45.5398339" lon="7.0208849"/>
    <trkpt lat="45.5397955" lon="7.021016"/>
    <trkpt lat="45.5397772" lon="7.0210899"/>
    <trkpt lat="45.5398273" lon="7.0211472"/>
    <trkpt lat="45.5398824" lon="7.0212306"/>
    <trkpt lat="45.5398289" lon="7.0213188"/>
    <trkpt lat="45.5398005" lon="7.0214571"/>
    <trkpt lat="45.5397621" lon="7.0215095"/>
    <trkpt lat="45.53945" lon="7.021517"/>
    <trkpt lat="45.5392544" lon="7.0216857"/>
    <trkpt lat="45.5389975" lon="7.0218895"/>
    <trkpt lat="45.5389935" lon="7.0220117"/>
    <trkpt lat="45.5388385" lon="7.0222561"/>
    <trkpt lat="45.5389038" lon="7.0223085"/>
    <trkpt lat="45.5388671" lon="7.0223958"/>
    <trkpt lat="45.5390016" lon="7.022454"/>
    <trkpt lat="45.5391239" lon="7.0226752"/>
    <trkpt lat="45.5392544" lon="7.0227625"/>
    <trkpt lat="45.5391244" lon="7.0230236"/>
    <trkpt lat="45.5391171" lon="7.0230468"/>
    <trkpt lat="45.5391291" lon="7.0230565"/>
    <trkpt lat="45.5391671" lon="7.0230538"/>
    <trkpt lat="45.5391821" lon="7.0230854"/>
    <trkpt lat="45.5391601" lon="7.0231196"/>
    <trkpt lat="45.5391452" lon="7.023154"/>
    <trkpt lat="45.5392548" lon="7.0231743"/>
    <trkpt lat="45.5392822" lon="7.0231947"/>
    <trkpt lat="45.5393047" lon="7.0231886"/>
    <trkpt lat="45.5393094" lon="7.0232027"/>
    <trkpt lat="45.5392695" lon="7.0233699"/>
    <trkpt lat="45.5392712" lon="7.0234213"/>
    <trkpt lat="45.5393108" lon="7.0234247"/>
    <trkpt lat="45.5393418" lon="7.0234079"/>
    <trkpt lat="45.5393935" lon="7.0234086"/>
    <trkpt lat="45.5394254" lon="7.0233972"/>
    <trkpt lat="45.5394827" lon="7.0233969"/>
    <trkpt lat="45.5394582" lon="7.0235017"/>
    <trkpt lat="45.5393807" lon="7.0236647"/>
    <trkpt lat="45.5394786" lon="7.0237229"/>
    <trkpt lat="45.5394663" lon="7.0241361"/>
    <trkpt lat="45.5394704" lon="7.0244446"/>
    <trkpt lat="45.5394052" lon="7.0246075"/>
    <trkpt lat="45.5392258" lon="7.0249335"/>
    <trkpt lat="45.5390587" lon="7.0251139"/>
    <trkpt lat="45.5390424" lon="7.0252885"/>
    <trkpt lat="45.5391565" lon="7.0253758"/>
    <trkpt lat="45.5391239" lon="7.0254922"/>
    <trkpt lat="45.5393277" lon="7.025597"/>
    <trkpt lat="45.5395683" lon="7.0255039"/>
    <trkpt lat="45.539662" lon="7.0255563"/>
    <trkpt lat="45.5397639" lon="7.0254748"/>
    <trkpt lat="45.5398618" lon="7.0255563"/>
    <trkpt lat="45.5399148" lon="7.0255155"/>
    <trkpt lat="45.5400411" lon="7.025597"/>
    <trkpt lat="45.5401594" lon="7.0255854"/>
    <trkpt lat="45.5404447" lon="7.0256494"/>
    <trkpt lat="45.5406445" lon="7.0256494"/>
    <trkpt lat="45.5408605" lon="7.0256668"/>
    <trkpt lat="45.5409862" lon="7.0256981"/>
    <trkpt lat="45.541111" lon="7.0256616"/>
    <trkpt lat="45.5411533" lon="7.0256053"/>
    <trkpt lat="45.5412059" lon="7.0255892"/>
    <trkpt lat="45.5412519" lon="7.0255865"/>
    <trkpt lat="45.5412867" lon="7.0255664"/>
    <trkpt lat="45.5413083" lon="7.0255034"/>
    <trkpt lat="45.54139" lon="7.0254564"/>
    <trkpt lat="45.5414285" lon="7.0253693"/>
    <trkpt lat="45.5414727" lon="7.0253304"/>
    <trkpt lat="45.5415318" lon="7.0252137"/>
    <trkpt lat="45.5415685" lon="7.0251788"/>
    <trkpt lat="45.5415957" lon="7.0251426"/>
    <trkpt lat="45.5416314" lon="7.0250903"/>
    <trkpt lat="45.5416652" lon="7.0250273"/>
    <trkpt lat="45.5417159" lon="7.0249911"/>
    <trkpt lat="45.5418211" lon="7.0248838"/>
    <trkpt lat="45.5418813" lon="7.0248409"/>
    <trkpt lat="45.541993" lon="7.0248355"/>
    <trkpt lat="45.5420604" lon="7.0248562"/>
    <trkpt lat="45.5420785" lon="7.0248811"/>
    <trkpt lat="45.5421283" lon="7.0248972"/>
    <trkpt lat="45.5421649" lon="7.0249307"/>
    <trkpt lat="45.5422297" lon="7.0249213"/>
    <trkpt lat="45.54237" lon="7.0249313"/>
    <trkpt lat="45.5424458" lon="7.0249589"/>
    <trkpt lat="45.5425265" lon="7.0249656"/>
    <trkpt lat="45.5425636" lon="7.0250028"/>
    <trkpt lat="45.5426393" lon="7.0249951"/>
    <trkpt lat="45.5427411" lon="7.0250492"/>
    <trkpt lat="45.5429145" lon="7.0251292"/>
    <trkpt lat="45.5430281" lon="7.0253146"/>
    <trkpt lat="45.5430933" lon="7.0254729"/>
    <trkpt lat="45.5432029" lon="7.0256438"/>
    <trkpt lat="45.543315" lon="7.0258035"/>
    <trkpt lat="45.5433868" lon="7.0259618"/>
    <trkpt lat="45.5434235" lon="7.0260425"/>
    <trkpt lat="45.5434739" lon="7.0260993"/>
    <trkpt lat="45.5435793" lon="7.0262243"/>
    <trkpt lat="45.5436001" lon="7.0262906"/>
    <trkpt lat="45.5436029" lon="7.0264006"/>
    <trkpt lat="45.5435824" lon="7.02646"/>
    <trkpt lat="45.5435879" lon="7.0265199"/>
    <trkpt lat="45.5435372" lon="7.0266205"/>
    <trkpt lat="45.5435042" lon="7.0268046"/>
    <trkpt lat="45.543509" lon="7.0268995"/>
    <trkpt lat="45.5434743" lon="7.026996"/>
    <trkpt lat="45.5434978" lon="7.0270765"/>
    <trkpt lat="45.5434913" lon="7.0271184"/>
    <trkpt lat="45.543502" lon="7.0271894"/>
    <trkpt lat="45.5434517" lon="7.0273326"/>
    <trkpt lat="45.5434508" lon="7.027389"/>
    <trkpt lat="45.5434134" lon="7.0275044"/>
    <trkpt lat="45.5433985" lon="7.0276259"/>
    <trkpt lat="45.5434442" lon="7.0276853"/>
    <trkpt lat="45.5434931" lon="7.027684"/>
    <trkpt lat="45.5435296" lon="7.0277814"/>
    <trkpt lat="45.5434553" lon="7.0280804"/>
    <trkpt lat="45.5435659" lon="7.028161"/>
    <trkpt lat="45.5436801" lon="7.028161"/>
    <trkpt lat="45.543782" lon="7.0281668"/>
    <trkpt lat="45.5439043" lon="7.0282832"/>
    <trkpt lat="45.5440877" lon="7.0284113"/>
    <trkpt lat="45.5442263" lon="7.028516"/>
    <trkpt lat="45.5443201" lon="7.0286907"/>
    <trkpt lat="45.5444342" lon="7.028842"/>
    <trkpt lat="45.544532" lon="7.0289991"/>
    <trkpt lat="45.5446836" lon="7.0291835"/>
    <trkpt lat="45.5447804" lon="7.0295181"/>
    <trkpt lat="45.5448364" lon="7.0295545"/>
    <trkpt lat="45.5448976" lon="7.0296782"/>
    <trkpt lat="45.5451014" lon="7.0295836"/>
    <trkpt lat="45.5452339" lon="7.0294454"/>
    <trkpt lat="45.545402" lon="7.0293435"/>
    <trkpt lat="45.5455804" lon="7.0292126"/>
    <trkpt lat="45.5458096" lon="7.0290234"/>
    <trkpt lat="45.5460848" lon="7.0287397"/>
    <trkpt lat="45.5462733" lon="7.0285287"/>
    <trkpt lat="45.5463497" lon="7.0285214"/>
    <trkpt lat="45.5463497" lon="7.0287033"/>
    <trkpt lat="45.5464516" lon="7.0290307"/>
    <trkpt lat="45.5465535" lon="7.0292708"/>
    <trkpt lat="45.5465892" lon="7.0294963"/>
    <trkpt lat="45.5466198" lon="7.0297364"/>
    <trkpt lat="45.546686" lon="7.0295109"/>
    <trkpt lat="45.5468608" lon="7.0297095"/>
    <trkpt lat="45.5469332" lon="7.0296218"/>
    <trkpt lat="45.5470259" lon="7.0295173"/>
    <trkpt lat="45.5471478" lon="7.029385"/>
    <trkpt lat="45.5472648" lon="7.0292388"/>
    <trkpt lat="45.5473721" lon="7.0292318"/>
    <trkpt lat="45.5474502" lon="7.0293014"/>
    <trkpt lat="45.5475575" lon="7.0293223"/>
    <trkpt lat="45.5477233" lon="7.0292039"/>
    <trkpt lat="45.5478794" lon="7.0290716"/>
    <trkpt lat="45.5480598" lon="7.0288975"/>
    <trkpt lat="45.5482451" lon="7.0287443"/>
    <trkpt lat="45.5483524" lon="7.0286398"/>
    <trkpt lat="45.5484646" lon="7.0285215"/>
    <trkpt lat="45.5485524" lon="7.0283822"/>
    <trkpt lat="45.5487231" lon="7.0283056"/>
    <trkpt lat="45.5489279" lon="7.0283125"/>
    <trkpt lat="45.5490352" lon="7.0284936"/>
    <trkpt lat="45.5491815" lon="7.0285563"/>
    <trkpt lat="45.5493034" lon="7.0287095"/>
    <trkpt lat="45.5493863" lon="7.0288557"/>
    <trkpt lat="45.5494351" lon="7.0289393"/>
    <trkpt lat="45.5495278" lon="7.0290995"/>
    <trkpt lat="45.5496936" lon="7.0290438"/>
    <trkpt lat="45.549835" lon="7.0289045"/>
    <trkpt lat="45.5499569" lon="7.0287373"/>
    <trkpt lat="45.550074" lon="7.0286607"/>
    <trkpt lat="45.550191" lon="7.0286816"/>
    <trkpt lat="45.5502495" lon="7.0287652"/>
    <trkpt lat="45.5502983" lon="7.0289393"/>
    <trkpt lat="45.5503178" lon="7.0291482"/>
    <trkpt lat="45.5504105" lon="7.0292318"/>
    <trkpt lat="45.5505275" lon="7.0292666"/>
    <trkpt lat="45.5506787" lon="7.0292039"/>
    <trkpt lat="45.5508396" lon="7.0291343"/>
    <trkpt lat="45.5509469" lon="7.0290647"/>
    <trkpt lat="45.5510249" lon="7.0288905"/>
    <trkpt lat="45.551103" lon="7.0288488"/>
    <trkpt lat="45.5512054" lon="7.0288905"/>
    <trkpt lat="45.5513078" lon="7.0289741"/>
    <trkpt lat="45.551359" lon="7.0290403"/>
    <trkpt lat="45.5514297" lon="7.0290612"/>
    <trkpt lat="45.5515004" lon="7.0290542"/>
    <trkpt lat="45.5515736" lon="7.029096"/>
    <trkpt lat="45.5516248" lon="7.0291621"/>
    <trkpt lat="45.551676" lon="7.0292179"/>
    <trkpt lat="45.5517613" lon="7.0292492"/>
    <trkpt lat="45.551832" lon="7.0292701"/>
    <trkpt lat="45.5519003" lon="7.0293049"/>
    <trkpt lat="45.5519417" lon="7.0293537"/>
    <trkpt lat="45.551971" lon="7.0294303"/>
    <trkpt lat="45.5519783" lon="7.0295069"/>
    <trkpt lat="45.5519808" lon="7.029667"/>
    <trkpt lat="45.5520526" lon="7.029743"/>
    <trkpt lat="45.5520918" lon="7.0297789"/>
    <trkpt lat="45.5521884" lon="7.0299867"/>
    <trkpt lat="45.5521913" lon="7.0301245"/>
    <trkpt lat="45.5524662" lon="7.0309264"/>
    <trkpt lat="45.5524633" lon="7.0310225"/>
    <trkpt lat="45.5525071" lon="7.0311227"/>
    <trkpt lat="45.5524925" lon="7.0313398"/>
    <trkpt lat="45.5525101" lon="7.0314985"/>
    <trkpt lat="45.5525803" lon="7.0316113"/>
    <trkpt lat="45.5526943" lon="7.0316572"/>
    <trkpt lat="45.5529224" lon="7.0314693"/>
    <trkpt lat="45.5531271" lon="7.0314735"/>
    <trkpt lat="45.5532119" lon="7.0315487"/>
    <trkpt lat="45.5534781" lon="7.0320916"/>
    <trkpt lat="45.553636" lon="7.032338"/>
    <trkpt lat="45.5537939" lon="7.0328057"/>
    <trkpt lat="45.5540425" lon="7.0331023"/>
    <trkpt lat="45.5542764" lon="7.0333403"/>
    <trkpt lat="45.5544694" lon="7.0336577"/>
    <trkpt lat="45.5546741" lon="7.0340962"/>
    <trkpt lat="45.5547531" lon="7.0340795"/>
    <trkpt lat="45.5549256" lon="7.0342006"/>
    <trkpt lat="45.5551274" lon="7.0341964"/>
    <trkpt lat="45.5553175" lon="7.0343468"/>
    <trkpt lat="45.5554959" lon="7.0343844"/>
    <trkpt lat="45.5556392" lon="7.0344053"/>
    <trkpt lat="45.5557444" lon="7.0345097"/>
    <trkpt lat="45.5562825" lon="7.0347227"/>
    <trkpt lat="45.5564258" lon="7.0348145"/>
    <trkpt lat="45.5565779" lon="7.0348479"/>
    <trkpt lat="45.5566598" lon="7.0349064"/>
    <trkpt lat="45.556958" lon="7.0350693"/>
    <trkpt lat="45.5572826" lon="7.0351737"/>
    <trkpt lat="45.5573703" lon="7.0352572"/>
    <trkpt lat="45.5576715" lon="7.0353073"/>
    <trkpt lat="45.5579376" lon="7.0353616"/>
    <trkpt lat="45.5581599" lon="7.0355162"/>
    <trkpt lat="45.5582827" lon="7.0355746"/>
    <trkpt lat="45.5585283" lon="7.0357417"/>
    <trkpt lat="45.5586541" lon="7.0358168"/>
    <trkpt lat="45.558774" lon="7.0360048"/>
    <trkpt lat="45.5589845" lon="7.0362052"/>
    <trkpt lat="45.559119" lon="7.0364391"/>
    <trkpt lat="45.5591687" lon="7.0364767"/>
    <trkpt lat="45.5593003" lon="7.0364767"/>
    <trkpt lat="45.55935" lon="7.0364934"/>
    <trkpt lat="45.5594377" lon="7.0365393"/>
    <trkpt lat="45.5595605" lon="7.0366271"/>
    <trkpt lat="45.5596483" lon="7.0366229"/>
    <trkpt lat="45.5597214" lon="7.0367106"/>
    <trkpt lat="45.5597155" lon="7.0367649"/>
    <trkpt lat="45.5597272" lon="7.0368275"/>
    <trkpt lat="45.5598938" lon="7.0369005"/>
    <trkpt lat="45.559929" lon="7.0370363"/>
    <trkpt lat="45.5599992" lon="7.0370948"/>
    <trkpt lat="45.5600781" lon="7.0373621"/>
    <trkpt lat="45.5601366" lon="7.037383"/>
    <trkpt lat="45.5601629" lon="7.0374665"/>
    <trkpt lat="45.56016" lon="7.0376419"/>
    <trkpt lat="45.560236" lon="7.0377171"/>
    <trkpt lat="45.5604173" lon="7.0379969"/>
    <trkpt lat="45.5605664" lon="7.0383895"/>
    <trkpt lat="45.5607214" lon="7.0384897"/>
    <trkpt lat="45.5608647" lon="7.0384772"/>
    <trkpt lat="45.5609115" lon="7.0385231"/>
    <trkpt lat="45.5609583" lon="7.0384813"/>
    <trkpt lat="45.5610021" lon="7.0385314"/>
    <trkpt lat="45.5611103" lon="7.0385231"/>
    <trkpt lat="45.5612653" lon="7.0385147"/>
    <trkpt lat="45.5613998" lon="7.0386484"/>
    <trkpt lat="45.5614553" lon="7.0386567"/>
    <trkpt lat="45.5614495" lon="7.0385565"/>
    <trkpt lat="45.5614963" lon="7.038498"/>
    <trkpt lat="45.5616337" lon="7.03864"/>
    <trkpt lat="45.5617828" lon="7.0386066"/>
    <trkpt lat="45.5619963" lon="7.0387236"/>
    <trkpt lat="45.562239" lon="7.0388029"/>
    <trkpt lat="45.562429" lon="7.0391161"/>
    <trkpt lat="45.5625869" lon="7.0393542"/>
    <trkpt lat="45.5627799" lon="7.0395087"/>
    <trkpt lat="45.5630138" lon="7.039705"/>
    <trkpt lat="45.5630986" lon="7.0398052"/>
    <trkpt lat="45.5631893" lon="7.0398386"/>
    <trkpt lat="45.5633296" lon="7.0400307"/>
    <trkpt lat="45.5633325" lon="7.0401184"/>
    <trkpt lat="45.5633618" lon="7.040202"/>
    <trkpt lat="45.5633618" lon="7.0403106"/>
    <trkpt lat="45.5634232" lon="7.0404108"/>
    <trkpt lat="45.5634495" lon="7.0406655"/>
    <trkpt lat="45.563505" lon="7.0407365"/>
    <trkpt lat="45.5635752" lon="7.0408368"/>
    <trkpt lat="45.5636103" lon="7.0409913"/>
    <trkpt lat="45.5637009" lon="7.0412252"/>
    <trkpt lat="45.5637214" lon="7.0413797"/>
    <trkpt lat="45.5637799" lon="7.0415551"/>
    <trkpt lat="45.5638086" lon="7.0416831"/>
    <trkpt lat="45.5638325" lon="7.0419143"/>
    <trkpt lat="45.5638881" lon="7.0422191"/>
    <trkpt lat="45.5639875" lon="7.0424572"/>
    <trkpt lat="45.5640167" lon="7.042595"/>
    <trkpt lat="45.5643383" lon="7.0430648"/>
    <trkpt lat="45.5643997" lon="7.0431045"/>
    <trkpt lat="45.5644416" lon="7.0431376"/>
    <trkpt lat="45.5644864" lon="7.0431697"/>
    <trkpt lat="45.5646089" lon="7.0432588"/>
    <trkpt lat="45.5646603" lon="7.0433178"/>
    <trkpt lat="45.564779" lon="7.0433507"/>
    <trkpt lat="45.5648512" lon="7.0434082"/>
    <trkpt lat="45.5648958" lon="7.0434574"/>
    <trkpt lat="45.564921" lon="7.0434709"/>
    <trkpt lat="45.5649234" lon="7.0434958"/>
    <trkpt lat="45.564882" lon="7.04352"/>
    <trkpt lat="45.5648845" lon="7.0435532"/>
    <trkpt lat="45.5649063" lon="7.0435988"/>
    <trkpt lat="45.5649777" lon="7.0436617"/>
    <trkpt lat="45.5651133" lon="7.043674"/>
    <trkpt lat="45.5652771" lon="7.0437397"/>
    <trkpt lat="45.5654766" lon="7.0438352"/>
    <trkpt lat="45.5656125" lon="7.0439221"/>
    <trkpt lat="45.5656947" lon="7.0439621"/>
    <trkpt lat="45.5657451" lon="7.0439407"/>
    <trkpt lat="45.5657906" lon="7.0439002"/>
    <trkpt lat="45.5658412" lon="7.043839"/>
    <trkpt lat="45.5658931" lon="7.0437689"/>
    <trkpt lat="45.565953" lon="7.0437078"/>
    <trkpt lat="45.5660414" lon="7.0436408"/>
    <trkpt lat="45.566096" lon="7.0434474"/>
    <trkpt lat="45.566107" lon="7.0433034"/>
    <trkpt lat="45.5661067" lon="7.0432275"/>
    <trkpt lat="45.5661248" lon="7.0431627"/>
    <trkpt lat="45.5661554" lon="7.0430818"/>
    <trkpt lat="45.5661887" lon="7.0430187"/>
    <trkpt lat="45.5662244" lon="7.0430056"/>
    <trkpt lat="45.5663129" lon="7.0430039"/>
    <trkpt lat="45.5663643" lon="7.0430687"/>
    <trkpt lat="45.566381" lon="7.0432082"/>
    <trkpt lat="45.5664511" lon="7.0433549"/>
    <trkpt lat="45.5664797" lon="7.0434771"/>
    <trkpt lat="45.5664775" lon="7.0435773"/>
    <trkpt lat="45.5664366" lon="7.0436959"/>
    <trkpt lat="45.5664695" lon="7.0437805"/>
    <trkpt lat="45.5665206" lon="7.043887"/>
    <trkpt lat="45.5665565" lon="7.0440331"/>
    <trkpt lat="45.5665331" lon="7.0441721"/>
    <trkpt lat="45.5665107" lon="7.0443482"/>
    <trkpt lat="45.5664222" lon="7.0445228"/>
    <trkpt lat="45.5663749" lon="7.0446363"/>
    <trkpt lat="45.566411" lon="7.0447995"/>
    <trkpt lat="45.5664181" lon="7.0448774"/>
    <trkpt lat="45.5664869" lon="7.045013"/>
    <trkpt lat="45.566551" lon="7.0450232"/>
    <trkpt lat="45.5666174" lon="7.0450266"/>
    <trkpt lat="45.5665391" lon="7.0451486"/>
    <trkpt lat="45.5665842" lon="7.0451621"/>
    <trkpt lat="45.5666649" lon="7.0451418"/>
    <trkpt lat="45.5667503" lon="7.0450977"/>
    <trkpt lat="45.5668238" lon="7.0450333"/>
    <trkpt lat="45.5669259" lon="7.0449961"/>
    <trkpt lat="45.5670184" lon="7.0449757"/>
    <trkpt lat="45.5671157" lon="7.0449961"/>
    <trkpt lat="45.5672106" lon="7.0449859"/>
    <trkpt lat="45.5672912" lon="7.045013"/>
    <trkpt lat="45.5673814" lon="7.045074"/>
    <trkpt lat="45.5674549" lon="7.045074"/>
    <trkpt lat="45.567519" lon="7.0450977"/>
    <trkpt lat="45.5675641" lon="7.0452367"/>
    <trkpt lat="45.5675949" lon="7.0453417"/>
    <trkpt lat="45.5676352" lon="7.0454061"/>
    <trkpt lat="45.5677254" lon="7.0453858"/>
    <trkpt lat="45.5678393" lon="7.045379"/>
    <trkpt lat="45.5678511" lon="7.0453485"/>
    <trkpt lat="45.5679484" lon="7.0453892"/>
    <trkpt lat="45.5680215" lon="7.0454016"/>
    <trkpt lat="45.568088" lon="7.0454775"/>
    <trkpt lat="45.5681848" lon="7.0455344"/>
    <trkpt lat="45.5682948" lon="7.0455697"/>
    <trkpt lat="45.5682645" lon="7.0456293"/>
    <trkpt lat="45.5681905" lon="7.0456836"/>
    <trkpt lat="45.5682664" lon="7.0456727"/>
    <trkpt lat="45.5683518" lon="7.0456158"/>
    <trkpt lat="45.5684277" lon="7.0456429"/>
    <trkpt lat="45.5684922" lon="7.0456022"/>
    <trkpt lat="45.5685568" lon="7.0455995"/>
    <trkpt lat="45.5686555" lon="7.045586"/>
    <trkpt lat="45.56857" lon="7.0456808"/>
    <trkpt lat="45.5686232" lon="7.0456944"/>
    <trkpt lat="45.5685719" lon="7.0457568"/>
    <trkpt lat="45.5686668" lon="7.0457134"/>
    <trkpt lat="45.5687238" lon="7.0457649"/>
    <trkpt lat="45.5686403" lon="7.0458544"/>
    <trkpt lat="45.5686725" lon="7.0458571"/>
    <trkpt lat="45.5687997" lon="7.0458272"/>
    <trkpt lat="45.5687579" lon="7.0459032"/>
    <trkpt lat="45.5686593" lon="7.0459926"/>
    <trkpt lat="45.5687352" lon="7.0460143"/>
    <trkpt lat="45.5688453" lon="7.0459709"/>
    <trkpt lat="45.5689136" lon="7.0459845"/>
    <trkpt lat="45.5688927" lon="7.0460197"/>
    <trkpt lat="45.5688263" lon="7.0461282"/>
    <trkpt lat="45.5688927" lon="7.0461255"/>
    <trkpt lat="45.5690044" lon="7.0461026"/>
    <trkpt lat="45.5689162" lon="7.0461704"/>
    <trkpt lat="45.5688116" lon="7.0462509"/>
    <trkpt lat="45.5690131" lon="7.0462509"/>
    <trkpt lat="45.5691156" lon="7.0462932"/>
    <trkpt lat="45.5693048" lon="7.0462767"/>
    <trkpt lat="45.5694344" lon="7.0463144"/>
    <trkpt lat="45.5695604" lon="7.0462615"/>
    <trkpt lat="45.5697346" lon="7.046145"/>
    <trkpt lat="45.5698532" lon="7.0460338"/>
    <trkpt lat="45.5699941" lon="7.0458378"/>
    <trkpt lat="45.5702128" lon="7.0457055"/>
    <trkpt lat="45.5703759" lon="7.0455307"/>
    <trkpt lat="45.5705427" lon="7.0454407"/>
    <trkpt lat="45.5706836" lon="7.0454195"/>
    <trkpt lat="45.5707985" lon="7.0453242"/>
    <trkpt lat="45.5709245" lon="7.0453348"/>
    <trkpt lat="45.5710468" lon="7.0452712"/>
    <trkpt lat="45.571158" lon="7.045213"/>
    <trkpt lat="45.5712767" lon="7.0450647"/>
    <trkpt lat="45.5714064" lon="7.0448"/>
    <trkpt lat="45.5714583" lon="7.0447523"/>
    <trkpt lat="45.5715584" lon="7.0447099"/>
    <trkpt lat="45.5715324" lon="7.0447947"/>
    <trkpt lat="45.571613" lon="7.0447278"/>
    <trkpt lat="45.5716473" lon="7.0446994"/>
    <trkpt lat="45.5716325" lon="7.0448159"/>
    <trkpt lat="45.5717029" lon="7.044837"/>
    <trkpt lat="45.5718883" lon="7.0448"/>
    <trkpt lat="45.5719698" lon="7.0448582"/>
    <trkpt lat="45.5719179" lon="7.0451177"/>
    <trkpt lat="45.5720884" lon="7.0451283"/>
    <trkpt lat="45.5720514" lon="7.0452024"/>
    <trkpt lat="45.5721663" lon="7.0451971"/>
    <trkpt lat="45.5721255" lon="7.0453719"/>
    <trkpt lat="45.5722256" lon="7.0452236"/>
    <trkpt lat="45.5722071" lon="7.0453613"/>
    <trkpt lat="45.5722923" lon="7.0453083"/>
    <trkpt lat="45.5722627" lon="7.0454619"/>
    <trkpt lat="45.5723479" lon="7.0453824"/>
    <trkpt lat="45.572322" lon="7.0454989"/>
    <trkpt lat="45.572385" lon="7.0454354"/>
    <trkpt lat="45.572359" lon="7.0456048"/>
    <trkpt lat="45.5723702" lon="7.045949"/>
    <trkpt lat="45.5723368" lon="7.0461661"/>
    <trkpt lat="45.572233" lon="7.0463303"/>
    <trkpt lat="45.5721033" lon="7.046468"/>
    <trkpt lat="45.5721774" lon="7.0464574"/>
    <trkpt lat="45.5721144" lon="7.0465368"/>
    <trkpt lat="45.5721959" lon="7.0465262"/>
    <trkpt lat="45.5721329" lon="7.0466056"/>
    <trkpt lat="45.5722219" lon="7.0466268"/>
    <trkpt lat="45.5721959" lon="7.0467221"/>
    <trkpt lat="45.5722775" lon="7.0466904"/>
    <trkpt lat="45.5722256" lon="7.0468016"/>
    <trkpt lat="45.5721774" lon="7.0470769"/>
    <trkpt lat="45.5721255" lon="7.0475005"/>
    <trkpt lat="45.5720996" lon="7.0478394"/>
    <trkpt lat="45.5720736" lon="7.0481413"/>
    <trkpt lat="45.572044" lon="7.0483478"/>
    <trkpt lat="45.5719587" lon="7.0485278"/>
    <trkpt lat="45.5718623" lon="7.0486973"/>
    <trkpt lat="45.5717363" lon="7.0490203"/>
    <trkpt lat="45.5716844" lon="7.0492109"/>
    <trkpt lat="45.571588" lon="7.0493168"/>
    <trkpt lat="45.5715732" lon="7.0494333"/>
    <trkpt lat="45.571525" lon="7.0496769"/>
    <trkpt lat="45.5715213" lon="7.0498199"/>
    <trkpt lat="45.5714249" lon="7.0499999"/>
    <trkpt lat="45.5714805" lon="7.0500793"/>
    <trkpt lat="45.5713693" lon="7.0501852"/>
    <trkpt lat="45.5714472" lon="7.0503123"/>
    <trkpt lat="45.5713619" lon="7.0504394"/>
    <trkpt lat="45.5714361" lon="7.0505188"/>
    <trkpt lat="45.5714805" lon="7.0508419"/>
    <trkpt lat="45.5715658" lon="7.0508577"/>
    <trkpt lat="45.5716548" lon="7.050916"/>
    <trkpt lat="45.5717066" lon="7.0510007"/>
    <trkpt lat="45.57174" lon="7.0511172"/>
    <trkpt lat="45.5717845" lon="7.0512496"/>
    <trkpt lat="45.5719341" lon="7.0515744"/>
    <trkpt lat="45.5720326" lon="7.0519715"/>
    <trkpt lat="45.5720905" lon="7.0524349"/>
    <trkpt lat="45.5721195" lon="7.0527079"/>
    <trkpt lat="45.5721079" lon="7.052923"/>
    <trkpt lat="45.5721832" lon="7.0530388"/>
    <trkpt lat="45.5722006" lon="7.0533119"/>
    <trkpt lat="45.5722469" lon="7.0535353"/>
    <trkpt lat="45.5722932" lon="7.0536677"/>
    <trkpt lat="45.5724438" lon="7.0538"/>
    <trkpt lat="45.5724684" lon="7.054092"/>
    <trkpt lat="45.572587" lon="7.0540708"/>
    <trkpt lat="45.5726552" lon="7.0542064"/>
    <trkpt lat="45.5727264" lon="7.0542996"/>
    <trkpt lat="45.5728361" lon="7.0544055"/>
    <trkpt lat="45.5729666" lon="7.0544351"/>
    <trkpt lat="45.5730882" lon="7.0545114"/>
    <trkpt lat="45.5731475" lon="7.0546512"/>
    <trkpt lat="45.5732572" lon="7.0547698"/>
    <trkpt lat="45.5733847" lon="7.0548206"/>
    <trkpt lat="45.5735537" lon="7.0549138"/>
    <trkpt lat="45.5738265" lon="7.0550409"/>
    <trkpt lat="45.5739985" lon="7.0550579"/>
    <trkpt lat="45.5741142" lon="7.0550875"/>
    <trkpt lat="45.5742061" lon="7.0551256"/>
    <trkpt lat="45.5742713" lon="7.0551045"/>
    <trkpt lat="45.5745115" lon="7.0551383"/>
    <trkpt lat="45.5746361" lon="7.0551383"/>
    <trkpt lat="45.5748021" lon="7.0552104"/>
    <trkpt lat="45.5748847" lon="7.0552295"/>
    <trkpt lat="45.5750216" lon="7.0552612"/>
    <trkpt lat="45.5751224" lon="7.0552443"/>
    <trkpt lat="45.5751817" lon="7.0551977"/>
    <trkpt lat="45.575152" lon="7.0551045"/>
    <trkpt lat="45.5751935" lon="7.055024"/>
    <trkpt lat="45.5752706" lon="7.0550324"/>
    <trkpt lat="45.5754456" lon="7.0549901"/>
    <trkpt lat="45.575576" lon="7.054952"/>
    <trkpt lat="45.575668" lon="7.054863"/>
    <trkpt lat="45.5757095" lon="7.054791"/>
    <trkpt lat="45.5758133" lon="7.0547571"/>
    <trkpt lat="45.5759497" lon="7.0546808"/>
    <trkpt lat="45.5760238" lon="7.0545453"/>
    <trkpt lat="45.5760712" lon="7.0544436"/>
    <trkpt lat="45.576092" lon="7.0543208"/>
    <trkpt lat="45.5761507" lon="7.0542678"/>
    <trkpt lat="45.5762077" lon="7.0541492"/>
    <trkpt lat="45.5762693" lon="7.0540746"/>
    <trkpt lat="45.5763618" lon="7.0540577"/>
    <trkpt lat="45.5764283" lon="7.054017"/>
    <trkpt lat="45.5765397" lon="7.053895"/>
    <trkpt lat="45.5766512" lon="7.0538306"/>
    <trkpt lat="45.5768102" lon="7.053712"/>
    <trkpt lat="45.5769217" lon="7.0536747"/>
    <trkpt lat="45.5770592" lon="7.0535731"/>
    <trkpt lat="45.5771612" lon="7.053529"/>
    <trkpt lat="45.5772466" lon="7.0534544"/>
    <trkpt lat="45.5773676" lon="7.0534172"/>
    <trkpt lat="45.5774981" lon="7.0533901"/>
    <trkpt lat="45.5776428" lon="7.0533426"/>
    <trkpt lat="45.5777519" lon="7.0533189"/>
    <trkpt lat="45.5778468" lon="7.0533223"/>
    <trkpt lat="45.5779132" lon="7.0533053"/>
    <trkpt lat="45.5780057" lon="7.0532647"/>
    <trkpt lat="45.5781575" lon="7.0532206"/>
    <trkpt lat="45.578231" lon="7.0531698"/>
    <trkpt lat="45.5783046" lon="7.0531901"/>
    <trkpt lat="45.5783686" lon="7.0531223"/>
    <trkpt lat="45.5785086" lon="7.0529698"/>
    <trkpt lat="45.5786248" lon="7.0528512"/>
    <trkpt lat="45.5786794" lon="7.0528241"/>
    <trkpt lat="45.5787837" lon="7.0526919"/>
    <trkpt lat="45.578881" lon="7.0526208"/>
    <trkpt lat="45.5789498" lon="7.0526106"/>
    <trkpt lat="45.5789854" lon="7.0525326"/>
    <trkpt lat="45.579066" lon="7.0524784"/>
    <trkpt lat="45.5791988" lon="7.0523869"/>
    <trkpt lat="45.5793008" lon="7.0522819"/>
    <trkpt lat="45.5793767" lon="7.0522683"/>
    <trkpt lat="45.5794645" lon="7.0520921"/>
    <trkpt lat="45.5795096" lon="7.0520412"/>
    <trkpt lat="45.5795546" lon="7.0520277"/>
    <trkpt lat="45.5796685" lon="7.0518921"/>
    <trkpt lat="45.579742" lon="7.0518582"/>
    <trkpt lat="45.5798416" lon="7.0518684"/>
    <trkpt lat="45.5800148" lon="7.0517837"/>
    <trkpt lat="45.5801737" lon="7.0516888"/>
    <trkpt lat="45.5802757" lon="7.0516515"/>
    <trkpt lat="45.5803137" lon="7.0515058"/>
    <trkpt lat="45.580354" lon="7.0513906"/>
    <trkpt lat="45.5803943" lon="7.0513601"/>
    <trkpt lat="45.5804252" lon="7.0513465"/>
    <trkpt lat="45.5804892" lon="7.0514007"/>
    <trkpt lat="45.5805841" lon="7.0514109"/>
    <trkpt lat="45.5806457" lon="7.0514922"/>
    <trkpt lat="45.5807145" lon="7.0516041"/>
    <trkpt lat="45.5808735" lon="7.0515634"/>
    <trkpt lat="45.5809588" lon="7.0515973"/>
    <trkpt lat="45.581068" lon="7.0516176"/>
    <trkpt lat="45.5811439" lon="7.0517362"/>
    <trkpt lat="45.5812364" lon="7.0518176"/>
    <trkpt lat="45.5813455" lon="7.0518786"/>
    <trkpt lat="45.581438" lon="7.0518582"/>
    <trkpt lat="45.5815755" lon="7.0518108"/>
    <trkpt lat="45.581668" lon="7.0517871"/>
    <trkpt lat="45.58177" lon="7.0517566"/>
    <trkpt lat="45.5818459" lon="7.0517532"/>
    <trkpt lat="45.581974" lon="7.0517091"/>
    <trkpt lat="45.5821638" lon="7.051621"/>
    <trkpt lat="45.5822871" lon="7.0515295"/>
    <trkpt lat="45.5823654" lon="7.0514414"/>
    <trkpt lat="45.5824223" lon="7.0513702"/>
    <trkpt lat="45.5825172" lon="7.0512889"/>
    <trkpt lat="45.5825694" lon="7.0512381"/>
    <trkpt lat="45.5826548" lon="7.0510991"/>
    <trkpt lat="45.5826998" lon="7.0511161"/>
    <trkpt lat="45.5827662" lon="7.0510991"/>
    <trkpt lat="45.582854" lon="7.0511533"/>
    <trkpt lat="45.5829323" lon="7.051211"/>
    <trkpt lat="45.5830485" lon="7.0511466"/>
    <trkpt lat="45.583122" lon="7.0512143"/>
    <trkpt lat="45.5831818" lon="7.0512126"/>
    <trkpt lat="45.5832542" lon="7.0512617"/>
    <trkpt lat="45.5833448" lon="7.051325"/>
    <trkpt lat="45.5834352" lon="7.0512264"/>
    <trkpt lat="45.5835515" lon="7.0511671"/>
    <trkpt lat="45.5836341" lon="7.0513634"/>
    <trkpt lat="45.5837515" lon="7.0514727"/>
    <trkpt lat="45.5839697" lon="7.0514991"/>
    <trkpt lat="45.5841563" lon="7.0514924"/>
    <trkpt lat="45.5843501" lon="7.0514915"/>
    <trkpt lat="45.5844589" lon="7.0514615"/>
    <trkpt lat="45.5845732" lon="7.0515224"/>
    <trkpt lat="45.5846845" lon="7.0515202"/>
    <trkpt lat="45.5847363" lon="7.0514789"/>
    <trkpt lat="45.5848429" lon="7.0514941"/>
    <trkpt lat="45.584974" lon="7.0514527"/>
    <trkpt lat="45.5850898" lon="7.0514854"/>
    <trkpt lat="45.5852315" lon="7.0514658"/>
    <trkpt lat="45.585393" lon="7.0514811"/>
    <trkpt lat="45.5856841" lon="7.0514723"/>
    <trkpt lat="45.5857801" lon="7.0516182"/>
    <trkpt lat="45.5858654" lon="7.0518033"/>
    <trkpt lat="45.5859782" lon="7.0518817"/>
    <trkpt lat="45.5860437" lon="7.0519035"/>
    <trkpt lat="45.5861306" lon="7.0518882"/>
    <trkpt lat="45.5861443" lon="7.0519514"/>
    <trkpt lat="45.5862129" lon="7.0519231"/>
    <trkpt lat="45.5862464" lon="7.0520624"/>
    <trkpt lat="45.5863653" lon="7.0521125"/>
    <trkpt lat="45.5863912" lon="7.0522344"/>
    <trkpt lat="45.5865192" lon="7.0522823"/>
    <trkpt lat="45.5865618" lon="7.0523651"/>
    <trkpt lat="45.5866213" lon="7.0523564"/>
    <trkpt lat="45.58667" lon="7.0523977"/>
    <trkpt lat="45.5867569" lon="7.0524086"/>
    <trkpt lat="45.5868392" lon="7.0524609"/>
    <trkpt lat="45.5868803" lon="7.0524086"/>
    <trkpt lat="45.5869154" lon="7.052413"/>
    <trkpt lat="45.5869474" lon="7.0524413"/>
    <trkpt lat="45.5870083" lon="7.0524217"/>
    <trkpt lat="45.5870906" lon="7.052487"/>
    <trkpt lat="45.5871317" lon="7.0526068"/>
    <trkpt lat="45.5871851" lon="7.0526786"/>
    <trkpt lat="45.5871835" lon="7.0527897"/>
    <trkpt lat="45.5872338" lon="7.052966"/>
    <trkpt lat="45.5872628" lon="7.0531119"/>
    <trkpt lat="45.5873115" lon="7.0531729"/>
    <trkpt lat="45.587371" lon="7.0533101"/>
    <trkpt lat="45.5874075" lon="7.0534886"/>
    <trkpt lat="45.5874578" lon="7.0536367"/>
    <trkpt lat="45.5875294" lon="7.0537325"/>
    <trkpt lat="45.5875904" lon="7.0538523"/>
    <trkpt lat="45.5876026" lon="7.054033"/>
    <trkpt lat="45.587598" lon="7.0542093"/>
    <trkpt lat="45.5876102" lon="7.0543269"/>
    <trkpt lat="45.5876376" lon="7.0543531"/>
    <trkpt lat="45.5876757" lon="7.0543095"/>
    <trkpt lat="45.5877153" lon="7.0542986"/>
    <trkpt lat="45.5877519" lon="7.0543574"/>
    <trkpt lat="45.5877961" lon="7.0543966"/>
    <trkpt lat="45.5878632" lon="7.0544053"/>
    <trkpt lat="45.5879104" lon="7.0545098"/>
    <trkpt lat="45.5879272" lon="7.0546252"/>
    <trkpt lat="45.5879272" lon="7.0547493"/>
    <trkpt lat="45.5880018" lon="7.0548103"/>
    <trkpt lat="45.5880612" lon="7.0548996"/>
    <trkpt lat="45.5881421" lon="7.0550236"/>
    <trkpt lat="45.5881411" lon="7.0550797"/>
    <trkpt lat="45.5882458" lon="7.0554123"/>
    <trkpt lat="45.5883265" lon="7.0557107"/>
    <trkpt lat="45.5883435" lon="7.0559119"/>
    <trkpt lat="45.588311" lon="7.0563742"/>
    <trkpt lat="45.5883192" lon="7.0564699"/>
    <trkpt lat="45.5883599" lon="7.0565942"/>
    <trkpt lat="45.5884011" lon="7.056672"/>
    <trkpt lat="45.58842" lon="7.0567607"/>
    <trkpt lat="45.588388" lon="7.0569295"/>
    <trkpt lat="45.5883411" lon="7.0570099"/>
    <trkpt lat="45.588314" lon="7.0571466"/>
    <trkpt lat="45.5883167" lon="7.0572835"/>
    <trkpt lat="45.5883355" lon="7.057431"/>
    <trkpt lat="45.5883224" lon="7.0575792"/>
    <trkpt lat="45.5882359" lon="7.0578774"/>
    <trkpt lat="45.5881646" lon="7.0579889"/>
    <trkpt lat="45.5881288" lon="7.05811"/>
    <trkpt lat="45.5881138" lon="7.0585237"/>
    <trkpt lat="45.5881553" lon="7.0587721"/>
    <trkpt lat="45.588167" lon="7.0590038"/>
    <trkpt lat="45.5881417" lon="7.0594871"/>
    <trkpt lat="45.5881536" lon="7.0595692"/>
    <trkpt lat="45.5881953" lon="7.0596723"/>
    <trkpt lat="45.5882677" lon="7.0597999"/>
    <trkpt lat="45.5883174" lon="7.0598789"/>
    <trkpt lat="45.5883516" lon="7.0599003"/>
    <trkpt lat="45.5884834" lon="7.0598778"/>
    <trkpt lat="45.5885551" lon="7.0598718"/>
    <trkpt lat="45.5886271" lon="7.0599123"/>
    <trkpt lat="45.588724" lon="7.0600489"/>
    <trkpt lat="45.5888074" lon="7.060179"/>
  </trkseg></trk></gpx>