<?xml version="1.0" encoding="UTF-8"?>
<gpx version="1.1" creator="Thumel-Circuit" xmlns="http://www.topografix.com/GPX/1/1">
  <trk><name>Jour 4 — Rifugio Chalet de L'Épée → Col Fenêtre → Thumel</name>
  <desc>Épée (2370m) → Col Fenêtre (2840m, +470m) → Val di Rhêmes → Thumel · 12km · AV2 Tappa 6 + ref=11A</desc>
  <trkseg>
    <trkpt lat="45.5874446" lon="7.0619312"/>
    <trkpt lat="45.5875184" lon="7.0618394"/>
    <trkpt lat="45.5876053" lon="7.0616841"/>
    <trkpt lat="45.587715" lon="7.061552"/>
    <trkpt lat="45.5879213" lon="7.0614181"/>
    <trkpt lat="45.5879924" lon="7.0612756"/>
    <trkpt lat="45.588106" lon="7.0610725"/>
    <trkpt lat="45.5882558" lon="7.0607892"/>
    <trkpt lat="45.5883291" lon="7.0606008"/>
    <trkpt lat="45.5883922" lon="7.0604872"/>
    <trkpt lat="45.5884471" lon="7.0604492"/>
    <trkpt lat="45.5884929" lon="7.0604715"/>
    <trkpt lat="45.5885771" lon="7.0605587"/>
    <trkpt lat="45.5885881" lon="7.0605629"/>
    <trkpt lat="45.5886006" lon="7.0605619"/>
    <trkpt lat="45.58861" lon="7.0605501"/>
    <trkpt lat="45.5886139" lon="7.060515"/>
    <trkpt lat="45.5886089" lon="7.0603134"/>
    <trkpt lat="45.5886195" lon="7.0602299"/>
    <trkpt lat="45.5886604" lon="7.0601837"/>
    <trkpt lat="45.5888074" lon="7.060179"/>
    <trkpt lat="45.587368" lon="7.061981"/>
    <trkpt lat="45.5872583" lon="7.0619998"/>
    <trkpt lat="45.5871337" lon="7.0619875"/>
    <trkpt lat="45.5870223" lon="7.0620066"/>
    <trkpt lat="45.5868959" lon="7.0620034"/>
    <trkpt lat="45.586808" lon="7.0620644"/>
    <trkpt lat="45.5867993" lon="7.0621356"/>
    <trkpt lat="45.5868718" lon="7.0622418"/>
    <trkpt lat="45.586904" lon="7.0623626"/>
    <trkpt lat="45.5869949" lon="7.0624273"/>
    <trkpt lat="45.5870642" lon="7.0625095"/>
    <trkpt lat="45.5870809" lon="7.0626233"/>
    <trkpt lat="45.5870899" lon="7.0627687"/>
    <trkpt lat="45.587129" lon="7.0628382"/>
    <trkpt lat="45.5872518" lon="7.0628565"/>
    <trkpt lat="45.5873964" lon="7.0629245"/>
    <trkpt lat="45.5874779" lon="7.0629508"/>
    <trkpt lat="45.587565" lon="7.0629789"/>
    <trkpt lat="45.5877994" lon="7.0633406"/>
    <trkpt lat="45.5878322" lon="7.0635684"/>
    <trkpt lat="45.5878561" lon="7.0637318"/>
    <trkpt lat="45.5879166" lon="7.0639034"/>
    <trkpt lat="45.5879808" lon="7.0640333"/>
    <trkpt lat="45.5880854" lon="7.064245"/>
    <trkpt lat="45.5882383" lon="7.0646139"/>
    <trkpt lat="45.5882993" lon="7.0647348"/>
    <trkpt lat="45.5883448" lon="7.0648366"/>
    <trkpt lat="45.5883794" lon="7.0650105"/>
    <trkpt lat="45.5885296" lon="7.0654202"/>
    <trkpt lat="45.5888662" lon="7.0660591"/>
    <trkpt lat="45.5889766" lon="7.0664947"/>
    <trkpt lat="45.5889576" lon="7.0668002"/>
    <trkpt lat="45.5889464" lon="7.0669805"/>
    <trkpt lat="45.5889633" lon="7.0670739"/>
    <trkpt lat="45.5889999" lon="7.0671984"/>
    <trkpt lat="45.589065" lon="7.0672396"/>
    <trkpt lat="45.589202" lon="7.0674795"/>
    <trkpt lat="45.5892398" lon="7.0676586"/>
    <trkpt lat="45.5892751" lon="7.0679322"/>
    <trkpt lat="45.5893091" lon="7.0682499"/>
    <trkpt lat="45.5893301" lon="7.0684012"/>
    <trkpt lat="45.5892881" lon="7.0688046"/>
    <trkpt lat="45.5892572" lon="7.0691669"/>
    <trkpt lat="45.5892399" lon="7.0694095"/>
    <trkpt lat="45.5892685" lon="7.0696034"/>
    <trkpt lat="45.5892879" lon="7.069906"/>
    <trkpt lat="45.5892405" lon="7.070323"/>
    <trkpt lat="45.5891847" lon="7.0706478"/>
    <trkpt lat="45.589173" lon="7.07097"/>
    <trkpt lat="45.5891118" lon="7.0713097"/>
    <trkpt lat="45.5890132" lon="7.0717386"/>
    <trkpt lat="45.5890158" lon="7.0721566"/>
    <trkpt lat="45.5889832" lon="7.0724985"/>
    <trkpt lat="45.5888316" lon="7.0733166"/>
    <trkpt lat="45.5887317" lon="7.0737092"/>
    <trkpt lat="45.588713" lon="7.0739275"/>
    <trkpt lat="45.5886651" lon="7.074084"/>
    <trkpt lat="45.5886776" lon="7.0745064"/>
    <trkpt lat="45.5887609" lon="7.0746492"/>
    <trkpt lat="45.5886193" lon="7.0750775"/>
    <trkpt lat="45.5884903" lon="7.0757914"/>
    <trkpt lat="45.5883487" lon="7.0762138"/>
    <trkpt lat="45.5882555" lon="7.076586"/>
    <trkpt lat="45.5881989" lon="7.07688"/>
    <trkpt lat="45.5881311" lon="7.0771827"/>
    <trkpt lat="45.5880301" lon="7.0774483"/>
    <trkpt lat="45.5878159" lon="7.0778641"/>
    <trkpt lat="45.5876866" lon="7.0782684"/>
    <trkpt lat="45.5874764" lon="7.0788574"/>
    <trkpt lat="45.5872986" lon="7.0792905"/>
    <trkpt lat="45.5871248" lon="7.0794234"/>
    <trkpt lat="45.5870336" lon="7.0798495"/>
    <trkpt lat="45.5868924" lon="7.0802363"/>
    <trkpt lat="45.5867865" lon="7.0807745"/>
    <trkpt lat="45.5868963" lon="7.0814864"/>
    <trkpt lat="45.5871658" lon="7.0814452"/>
    <trkpt lat="45.5870731" lon="7.0820146"/>
    <trkpt lat="45.5871358" lon="7.0820146"/>
    <trkpt lat="45.5870043" lon="7.0836861"/>
    <trkpt lat="45.5868067" lon="7.0843553"/>
    <trkpt lat="45.5863878" lon="7.08509"/>
    <trkpt lat="45.5858584" lon="7.0865101"/>
    <trkpt lat="45.5856403" lon="7.0870278"/>
    <trkpt lat="45.5852299" lon="7.0873448"/>
    <trkpt lat="45.5847508" lon="7.0878924"/>
    <trkpt lat="45.5841155" lon="7.0885488"/>
    <trkpt lat="45.5842986" lon="7.0885847"/>
    <trkpt lat="45.5839899" lon="7.0889232"/>
    <trkpt lat="45.5843596" lon="7.0890925"/>
    <trkpt lat="45.5839935" lon="7.0894258"/>
    <trkpt lat="45.5837961" lon="7.0895438"/>
    <trkpt lat="45.5835556" lon="7.0895386"/>
    <trkpt lat="45.5834946" lon="7.0894361"/>
    <trkpt lat="45.5833385" lon="7.0893444"/>
    <trkpt lat="45.5831858" lon="7.0892754"/>
    <trkpt lat="45.5830476" lon="7.0892796"/>
    <trkpt lat="45.58298" lon="7.0894834"/>
    <trkpt lat="45.5827501" lon="7.0892928"/>
    <trkpt lat="45.5826417" lon="7.0893701"/>
    <trkpt lat="45.5826183" lon="7.0896672"/>
    <trkpt lat="45.5825389" lon="7.0899233"/>
    <trkpt lat="45.5824091" lon="7.0899258"/>
    <trkpt lat="45.5824772" lon="7.0901846"/>
    <trkpt lat="45.5823774" lon="7.0901486"/>
    <trkpt lat="45.5824169" lon="7.0903686"/>
    <trkpt lat="45.5823461" lon="7.0903385"/>
    <trkpt lat="45.5823324" lon="7.0905107"/>
    <trkpt lat="45.5822573" lon="7.0905134"/>
    <trkpt lat="45.5823469" lon="7.0906793"/>
    <trkpt lat="45.5822012" lon="7.0906326"/>
    <trkpt lat="45.5823108" lon="7.0908576"/>
    <trkpt lat="45.5821775" lon="7.0907789"/>
    <trkpt lat="45.5825597" lon="7.0913299"/>
    <trkpt lat="45.5822441" lon="7.0913261"/>
    <trkpt lat="45.5820865" lon="7.0912081"/>
    <trkpt lat="45.5820158" lon="7.0913849"/>
    <trkpt lat="45.5816949" lon="7.09141"/>
    <trkpt lat="45.581895" lon="7.0916238"/>
    <trkpt lat="45.5820409" lon="7.0916926"/>
    <trkpt lat="45.5821701" lon="7.0918414"/>
    <trkpt lat="45.5819942" lon="7.0918875"/>
    <trkpt lat="45.5818856" lon="7.0920047"/>
    <trkpt lat="45.5817107" lon="7.0920106"/>
    <trkpt lat="45.5819727" lon="7.0921696"/>
    <trkpt lat="45.5817107" lon="7.0923901"/>
    <trkpt lat="45.5819153" lon="7.0926517"/>
    <trkpt lat="45.5815061" lon="7.0927645"/>
    <trkpt lat="45.5817035" lon="7.0930261"/>
    <trkpt lat="45.5810727" lon="7.0931151"/>
    <trkpt lat="45.5812473" lon="7.0936221"/>
    <trkpt lat="45.5810765" lon="7.0938072"/>
    <trkpt lat="45.5809976" lon="7.0938206"/>
    <trkpt lat="45.5809432" lon="7.0938957"/>
    <trkpt lat="45.5808807" lon="7.0938873"/>
    <trkpt lat="45.5808287" lon="7.0941478"/>
    <trkpt lat="45.5807415" lon="7.0943287"/>
    <trkpt lat="45.5806935" lon="7.0944214"/>
    <trkpt lat="45.5806535" lon="7.0946623"/>
    <trkpt lat="45.5805828" lon="7.0948505"/>
    <trkpt lat="45.5805106" lon="7.0950322"/>
    <trkpt lat="45.580641" lon="7.0950724"/>
    <trkpt lat="45.5805082" lon="7.0954108"/>
    <trkpt lat="45.5803682" lon="7.0955801"/>
    <trkpt lat="45.5805513" lon="7.0955955"/>
    <trkpt lat="45.5803897" lon="7.0958211"/>
    <trkpt lat="45.5803826" lon="7.0960314"/>
    <trkpt lat="45.5801815" lon="7.0962058"/>
    <trkpt lat="45.5803215" lon="7.0963494"/>
    <trkpt lat="45.5801636" lon="7.0963801"/>
    <trkpt lat="45.5802174" lon="7.0964981"/>
    <trkpt lat="45.5800797" lon="7.0965886"/>
    <trkpt lat="45.5800815" lon="7.0968032"/>
    <trkpt lat="45.5800202" lon="7.0970286"/>
    <trkpt lat="45.5799633" lon="7.0970875"/>
    <trkpt lat="45.5799163" lon="7.0972672"/>
    <trkpt lat="45.5799182" lon="7.0974013"/>
    <trkpt lat="45.57983" lon="7.0976695"/>
    <trkpt lat="45.5796854" lon="7.0979217"/>
    <trkpt lat="45.5794001" lon="7.0983079"/>
    <trkpt lat="45.5793212" lon="7.0984206"/>
    <trkpt lat="45.5792016" lon="7.0984436"/>
    <trkpt lat="45.5791335" lon="7.0985091"/>
    <trkpt lat="45.5790377" lon="7.0984876"/>
    <trkpt lat="45.5788594" lon="7.0987505"/>
    <trkpt lat="45.578743" lon="7.0990428"/>
    <trkpt lat="45.5788707" lon="7.0990536"/>
    <trkpt lat="45.5787862" lon="7.0991421"/>
    <trkpt lat="45.5786923" lon="7.0991421"/>
    <trkpt lat="45.5785158" lon="7.0993647"/>
    <trkpt lat="45.5785083" lon="7.0995498"/>
    <trkpt lat="45.5784727" lon="7.0995766"/>
    <trkpt lat="45.5784351" lon="7.0998099"/>
    <trkpt lat="45.5783903" lon="7.0998624"/>
    <trkpt lat="45.5781462" lon="7.1001291"/>
    <trkpt lat="45.578035" lon="7.1004009"/>
    <trkpt lat="45.5778878" lon="7.1005753"/>
    <trkpt lat="45.5776114" lon="7.1011138"/>
    <trkpt lat="45.5775611" lon="7.1015036"/>
    <trkpt lat="45.5775539" lon="7.101919"/>
    <trkpt lat="45.5775001" lon="7.1023805"/>
    <trkpt lat="45.5774463" lon="7.1027344"/>
    <trkpt lat="45.5774786" lon="7.1030216"/>
    <trkpt lat="45.5774247" lon="7.1032678"/>
    <trkpt lat="45.5775898" lon="7.1036537"/>
    <trkpt lat="45.5776222" lon="7.1037294"/>
    <trkpt lat="45.5775611" lon="7.1040319"/>
    <trkpt lat="45.5775145" lon="7.1042884"/>
    <trkpt lat="45.577396" lon="7.1047499"/>
    <trkpt lat="45.5773063" lon="7.1048217"/>
    <trkpt lat="45.5772775" lon="7.1049756"/>
    <trkpt lat="45.5772093" lon="7.1051294"/>
    <trkpt lat="45.5772022" lon="7.1054525"/>
    <trkpt lat="45.577259" lon="7.1056455"/>
    <trkpt lat="45.5772654" lon="7.1058957"/>
    <trkpt lat="45.5771036" lon="7.1060612"/>
    <trkpt lat="45.5770083" lon="7.1061808"/>
    <trkpt lat="45.5769006" lon="7.1064116"/>
    <trkpt lat="45.576994" lon="7.1063911"/>
    <trkpt lat="45.5769724" lon="7.1064629"/>
    <trkpt lat="45.5770155" lon="7.106468"/>
    <trkpt lat="45.5769724" lon="7.1066167"/>
    <trkpt lat="45.5770478" lon="7.1068629"/>
    <trkpt lat="45.5770083" lon="7.1073347"/>
    <trkpt lat="45.5770298" lon="7.1076373"/>
    <trkpt lat="45.5771842" lon="7.1079245"/>
    <trkpt lat="45.5772524" lon="7.1085143"/>
    <trkpt lat="45.5772416" lon="7.1088938"/>
    <trkpt lat="45.5772955" lon="7.1093605"/>
    <trkpt lat="45.5772488" lon="7.109581"/>
    <trkpt lat="45.5772704" lon="7.1097554"/>
    <trkpt lat="45.577256" lon="7.1100016"/>
    <trkpt lat="45.5773134" lon="7.1101965"/>
    <trkpt lat="45.5773206" lon="7.1104785"/>
    <trkpt lat="45.5773493" lon="7.1107555"/>
    <trkpt lat="45.5774857" lon="7.1110427"/>
    <trkpt lat="45.5775037" lon="7.1112529"/>
    <trkpt lat="45.5773745" lon="7.1113555"/>
    <trkpt lat="45.5773745" lon="7.1114991"/>
    <trkpt lat="45.5774714" lon="7.1117094"/>
    <trkpt lat="45.5774355" lon="7.1119402"/>
    <trkpt lat="45.5773781" lon="7.1123556"/>
    <trkpt lat="45.5774068" lon="7.1125966"/>
    <trkpt lat="45.5773839" lon="7.1127249"/>
    <trkpt lat="45.5773758" lon="7.1127729"/>
    <trkpt lat="45.5773413" lon="7.1128689"/>
    <trkpt lat="45.5773267" lon="7.1130038"/>
    <trkpt lat="45.5773222" lon="7.1130596"/>
    <trkpt lat="45.5773231" lon="7.1130998"/>
    <trkpt lat="45.5773401" lon="7.1131574"/>
    <trkpt lat="45.5773457" lon="7.1131761"/>
    <trkpt lat="45.5772977" lon="7.1132945"/>
    <trkpt lat="45.5772668" lon="7.1133556"/>
    <trkpt lat="45.5772096" lon="7.1134346"/>
    <trkpt lat="45.5771705" lon="7.1135072"/>
    <trkpt lat="45.5770952" lon="7.1135889"/>
    <trkpt lat="45.5770362" lon="7.1136707"/>
    <trkpt lat="45.5769998" lon="7.1137667"/>
    <trkpt lat="45.5769553" lon="7.113864"/>
    <trkpt lat="45.5769326" lon="7.1139263"/>
    <trkpt lat="45.5769254" lon="7.1139483"/>
    <trkpt lat="45.5769281" lon="7.1139872"/>
    <trkpt lat="45.5769199" lon="7.1140171"/>
    <trkpt lat="45.5769272" lon="7.1140742"/>
    <trkpt lat="45.5769272" lon="7.1140999"/>
    <trkpt lat="45.5769272" lon="7.1141247"/>
    <trkpt lat="45.5769217" lon="7.1141416"/>
    <trkpt lat="45.576899" lon="7.1141286"/>
    <trkpt lat="45.5768872" lon="7.1140962"/>
    <trkpt lat="45.5768727" lon="7.1140832"/>
    <trkpt lat="45.5768418" lon="7.1141118"/>
    <trkpt lat="45.57682" lon="7.1141286"/>
    <trkpt lat="45.5768109" lon="7.114089"/>
    <trkpt lat="45.5767892" lon="7.1139872"/>
    <trkpt lat="45.5767728" lon="7.1139587"/>
    <trkpt lat="45.5767583" lon="7.1139587"/>
    <trkpt lat="45.5767256" lon="7.1140093"/>
    <trkpt lat="45.5766884" lon="7.1140625"/>
    <trkpt lat="45.5766847" lon="7.1141014"/>
    <trkpt lat="45.5766838" lon="7.1141494"/>
    <trkpt lat="45.576672" lon="7.1141805"/>
    <trkpt lat="45.5766493" lon="7.114165"/>
    <trkpt lat="45.5766348" lon="7.1141611"/>
    <trkpt lat="45.5766366" lon="7.1141922"/>
    <trkpt lat="45.5766484" lon="7.1142337"/>
    <trkpt lat="45.5766539" lon="7.1142584"/>
    <trkpt lat="45.5766475" lon="7.1142791"/>
    <trkpt lat="45.5766357" lon="7.1142765"/>
    <trkpt lat="45.5766242" lon="7.114248"/>
    <trkpt lat="45.5765803" lon="7.1142"/>
    <trkpt lat="45.5765558" lon="7.1141507"/>
    <trkpt lat="45.5765416" lon="7.1141201"/>
    <trkpt lat="45.5765195" lon="7.1140858"/>
    <trkpt lat="45.5764993" lon="7.1140254"/>
    <trkpt lat="45.5764907" lon="7.1140209"/>
    <trkpt lat="45.5764821" lon="7.1140345"/>
    <trkpt lat="45.5764467" lon="7.1141623"/>
    <trkpt lat="45.5764421" lon="7.1142168"/>
    <trkpt lat="45.5764498" lon="7.1143115"/>
    <trkpt lat="45.5764485" lon="7.1143906"/>
    <trkpt lat="45.5764498" lon="7.1144302"/>
    <trkpt lat="45.5764471" lon="7.114449"/>
    <trkpt lat="45.576443" lon="7.1144704"/>
    <trkpt lat="45.576359" lon="7.1144205"/>
    <trkpt lat="45.5763359" lon="7.1144107"/>
    <trkpt lat="45.5763277" lon="7.1144211"/>
    <trkpt lat="45.5763245" lon="7.1144464"/>
    <trkpt lat="45.5763381" lon="7.1145113"/>
    <trkpt lat="45.5763477" lon="7.1145664"/>
    <trkpt lat="45.5763686" lon="7.114619"/>
    <trkpt lat="45.5763935" lon="7.1146469"/>
    <trkpt lat="45.5764117" lon="7.1146644"/>
    <trkpt lat="45.5764135" lon="7.114678"/>
    <trkpt lat="45.576409" lon="7.1146936"/>
    <trkpt lat="45.5763907" lon="7.1146917"/>
    <trkpt lat="45.576372" lon="7.1146715"/>
    <trkpt lat="45.5763663" lon="7.1146724"/>
    <trkpt lat="45.5763643" lon="7.1146917"/>
    <trkpt lat="45.5763823" lon="7.1147109"/>
    <trkpt lat="45.5764022" lon="7.1147421"/>
    <trkpt lat="45.5764151" lon="7.114765"/>
    <trkpt lat="45.5763874" lon="7.1148137"/>
    <trkpt lat="45.5763085" lon="7.1148449"/>
    <trkpt lat="45.5762057" lon="7.1148182"/>
    <trkpt lat="45.5761499" lon="7.1147678"/>
    <trkpt lat="45.5760548" lon="7.114594"/>
    <trkpt lat="45.5760458" lon="7.1145977"/>
    <trkpt lat="45.5760394" lon="7.1146115"/>
    <trkpt lat="45.5760458" lon="7.1146582"/>
    <trkpt lat="45.5760388" lon="7.1146876"/>
    <trkpt lat="45.5760471" lon="7.1147793"/>
    <trkpt lat="45.5760407" lon="7.1148307"/>
    <trkpt lat="45.5760458" lon="7.114861"/>
    <trkpt lat="45.5760491" lon="7.1149702"/>
    <trkpt lat="45.5760529" lon="7.1150023"/>
    <trkpt lat="45.5760632" lon="7.1150435"/>
    <trkpt lat="45.5760822" lon="7.1150942"/>
    <trkpt lat="45.5761075" lon="7.1151907"/>
    <trkpt lat="45.5761293" lon="7.1152311"/>
    <trkpt lat="45.5763117" lon="7.1152934"/>
    <trkpt lat="45.5764311" lon="7.1153301"/>
    <trkpt lat="45.5766045" lon="7.1153705"/>
    <trkpt lat="45.576634" lon="7.1153962"/>
    <trkpt lat="45.5766713" lon="7.1155375"/>
    <trkpt lat="45.5766918" lon="7.1156219"/>
    <trkpt lat="45.5766918" lon="7.1156916"/>
    <trkpt lat="45.5767175" lon="7.1157393"/>
    <trkpt lat="45.5767637" lon="7.1157833"/>
    <trkpt lat="45.5767933" lon="7.1158273"/>
    <trkpt lat="45.5768819" lon="7.1160659"/>
    <trkpt lat="45.5769037" lon="7.1161301"/>
    <trkpt lat="45.5769307" lon="7.1161521"/>
    <trkpt lat="45.5769692" lon="7.1161888"/>
    <trkpt lat="45.5770026" lon="7.116209"/>
    <trkpt lat="45.5770296" lon="7.1162365"/>
    <trkpt lat="45.5770373" lon="7.1162769"/>
    <trkpt lat="45.5770308" lon="7.1163135"/>
    <trkpt lat="45.5770156" lon="7.1163159"/>
    <trkpt lat="45.5769835" lon="7.1162893"/>
    <trkpt lat="45.5769398" lon="7.1162737"/>
    <trkpt lat="45.5769231" lon="7.1162737"/>
    <trkpt lat="45.576878" lon="7.1162558"/>
    <trkpt lat="45.5768575" lon="7.1162438"/>
    <trkpt lat="45.5768504" lon="7.1162585"/>
    <trkpt lat="45.5768568" lon="7.1162833"/>
    <trkpt lat="45.5768896" lon="7.1163062"/>
    <trkpt lat="45.5769088" lon="7.1163337"/>
    <trkpt lat="45.5769268" lon="7.1164034"/>
    <trkpt lat="45.5769397" lon="7.1164842"/>
    <trkpt lat="45.5770191" lon="7.1167148"/>
    <trkpt lat="45.5767511" lon="7.1165403"/>
    <trkpt lat="45.5765698" lon="7.1164457"/>
    <trkpt lat="45.5763503" lon="7.1162715"/>
    <trkpt lat="45.5761795" lon="7.1162018"/>
    <trkpt lat="45.576298" lon="7.116386"/>
    <trkpt lat="45.5763642" lon="7.116625"/>
    <trkpt lat="45.576535" lon="7.1170631"/>
    <trkpt lat="45.5761782" lon="7.1169345"/>
    <trkpt lat="45.5759559" lon="7.116714"/>
    <trkpt lat="45.5755697" lon="7.116615"/>
    <trkpt lat="45.5755383" lon="7.1167594"/>
    <trkpt lat="45.5754407" lon="7.1166399"/>
    <trkpt lat="45.5753675" lon="7.1165503"/>
    <trkpt lat="45.5753397" lon="7.116625"/>
    <trkpt lat="45.5752874" lon="7.11661"/>
    <trkpt lat="45.575256" lon="7.1166698"/>
    <trkpt lat="45.5751271" lon="7.1164806"/>
    <trkpt lat="45.5750078" lon="7.1163385"/>
    <trkpt lat="45.5749402" lon="7.1163482"/>
    <trkpt lat="45.5749706" lon="7.1164932"/>
    <trkpt lat="45.5747068" lon="7.1164787"/>
    <trkpt lat="45.5745579" lon="7.1164062"/>
    <trkpt lat="45.5743651" lon="7.1165802"/>
    <trkpt lat="45.5742061" lon="7.1165705"/>
    <trkpt lat="45.5740673" lon="7.1166189"/>
    <trkpt lat="45.5739117" lon="7.1165802"/>
    <trkpt lat="45.5738644" lon="7.1166624"/>
    <trkpt lat="45.573861" lon="7.1167397"/>
    <trkpt lat="45.5737662" lon="7.1168992"/>
    <trkpt lat="45.5736648" lon="7.1171215"/>
    <trkpt lat="45.5736174" lon="7.1172907"/>
    <trkpt lat="45.57357" lon="7.1173825"/>
    <trkpt lat="45.5734854" lon="7.1175903"/>
    <trkpt lat="45.5734347" lon="7.1177981"/>
    <trkpt lat="45.5733332" lon="7.1180108"/>
    <trkpt lat="45.5732622" lon="7.1180324"/>
    <trkpt lat="45.5731594" lon="7.118042"/>
    <trkpt lat="45.5730871" lon="7.1180635"/>
    <trkpt lat="45.572978" lon="7.1181461"/>
    <trkpt lat="45.5728359" lon="7.1182331"/>
    <trkpt lat="45.572643" lon="7.1183105"/>
    <trkpt lat="45.5724806" lon="7.1183781"/>
    <trkpt lat="45.5723089" lon="7.1184811"/>
    <trkpt lat="45.5722714" lon="7.1185036"/>
    <trkpt lat="45.5721601" lon="7.1186068"/>
    <trkpt lat="45.5721288" lon="7.1187019"/>
    <trkpt lat="45.5720171" lon="7.1188759"/>
    <trkpt lat="45.5718094" lon="7.1192107"/>
    <trkpt lat="45.5717552" lon="7.1191714"/>
    <trkpt lat="45.5717286" lon="7.1192358"/>
    <trkpt lat="45.5716908" lon="7.1192077"/>
    <trkpt lat="45.5716416" lon="7.1192305"/>
    <trkpt lat="45.5715661" lon="7.1191701"/>
    <trkpt lat="45.5715426" lon="7.119087"/>
    <trkpt lat="45.5710999" lon="7.1187145"/>
    <trkpt lat="45.5710793" lon="7.1186972"/>
    <trkpt lat="45.5709226" lon="7.1185649"/>
    <trkpt lat="45.570875" lon="7.1185894"/>
    <trkpt lat="45.570829" lon="7.1185516"/>
    <trkpt lat="45.5708067" lon="7.1184771"/>
    <trkpt lat="45.5706806" lon="7.1183903"/>
    <trkpt lat="45.5706512" lon="7.1183723"/>
    <trkpt lat="45.5704437" lon="7.1182336"/>
    <trkpt lat="45.5703234" lon="7.118158"/>
    <trkpt lat="45.5702634" lon="7.1181203"/>
    <trkpt lat="45.5701832" lon="7.1180873"/>
    <trkpt lat="45.5700695" lon="7.1180405"/>
    <trkpt lat="45.5700874" lon="7.1179659"/>
    <trkpt lat="45.5700459" lon="7.1179553"/>
    <trkpt lat="45.5700091" lon="7.117952"/>
    <trkpt lat="45.5699723" lon="7.1179504"/>
    <trkpt lat="45.5699129" lon="7.1179509"/>
    <trkpt lat="45.5697933" lon="7.1179593"/>
    <trkpt lat="45.5697056" lon="7.117959"/>
    <trkpt lat="45.5696864" lon="7.1179591"/>
    <trkpt lat="45.5696685" lon="7.1179497"/>
    <trkpt lat="45.5696561" lon="7.1179388"/>
    <trkpt lat="45.56965" lon="7.1179807"/>
    <trkpt lat="45.569646" lon="7.1180751"/>
    <trkpt lat="45.565062" lon="7.1177188"/>
    <trkpt lat="45.5648556" lon="7.1177304"/>
    <trkpt lat="45.5646334" lon="7.1176161"/>
    <trkpt lat="45.5645536" lon="7.1175369"/>
    <trkpt lat="45.5644148" lon="7.1174526"/>
    <trkpt lat="45.5642536" lon="7.1173006"/>
    <trkpt lat="45.5640207" lon="7.1171504"/>
    <trkpt lat="45.5636057" lon="7.1168017"/>
    <trkpt lat="45.5630323" lon="7.1163109"/>
    <trkpt lat="45.5624653" lon="7.1159498"/>
    <trkpt lat="45.5621842" lon="7.1158656"/>
    <trkpt lat="45.5621053" lon="7.1157664"/>
    <trkpt lat="45.5618383" lon="7.1155781"/>
    <trkpt lat="45.5617278" lon="7.1155304"/>
    <trkpt lat="45.5615382" lon="7.1155062"/>
    <trkpt lat="45.5613673" lon="7.1155893"/>
    <trkpt lat="45.5613597" lon="7.1156323"/>
    <trkpt lat="45.5614292" lon="7.115635"/>
    <trkpt lat="45.5615157" lon="7.1156001"/>
    <trkpt lat="45.5615982" lon="7.1155599"/>
    <trkpt lat="45.5616509" lon="7.115584"/>
    <trkpt lat="45.5616414" lon="7.1156538"/>
    <trkpt lat="45.5615626" lon="7.1156994"/>
    <trkpt lat="45.5614823" lon="7.1157929"/>
    <trkpt lat="45.5614115" lon="7.1158266"/>
    <trkpt lat="45.5613672" lon="7.1158597"/>
    <trkpt lat="45.5612826" lon="7.1158966"/>
    <trkpt lat="45.5611408" lon="7.1159596"/>
    <trkpt lat="45.5611095" lon="7.116007"/>
    <trkpt lat="45.5609954" lon="7.1161069"/>
    <trkpt lat="45.5607469" lon="7.1161963"/>
    <trkpt lat="45.5606034" lon="7.1162094"/>
    <trkpt lat="45.5605261" lon="7.1162409"/>
    <trkpt lat="45.5604027" lon="7.1162962"/>
    <trkpt lat="45.5603107" lon="7.1163829"/>
    <trkpt lat="45.5602408" lon="7.1163882"/>
    <trkpt lat="45.5601911" lon="7.1163619"/>
    <trkpt lat="45.5601666" lon="7.1162984"/>
    <trkpt lat="45.5601414" lon="7.1162331"/>
    <trkpt lat="45.5601248" lon="7.1161253"/>
    <trkpt lat="45.5600733" lon="7.1160333"/>
    <trkpt lat="45.5599886" lon="7.1159781"/>
    <trkpt lat="45.5599242" lon="7.1159754"/>
    <trkpt lat="45.5597977" lon="7.1160258"/>
    <trkpt lat="45.5597094" lon="7.1161094"/>
    <trkpt lat="45.559637" lon="7.1161426"/>
    <trkpt lat="45.5595921" lon="7.1161321"/>
    <trkpt lat="45.5595516" lon="7.1160472"/>
    <trkpt lat="45.55949" lon="7.1159183"/>
    <trkpt lat="45.5594671" lon="7.1158727"/>
    <trkpt lat="45.5593981" lon="7.115735"/>
    <trkpt lat="45.5593748" lon="7.1156761"/>
    <trkpt lat="45.5593674" lon="7.1156022"/>
    <trkpt lat="45.5593717" lon="7.1155644"/>
    <trkpt lat="45.5593769" lon="7.1155161"/>
    <trkpt lat="45.5593759" lon="7.1154542"/>
    <trkpt lat="45.5593695" lon="7.1154059"/>
    <trkpt lat="45.5593611" lon="7.1153561"/>
    <trkpt lat="45.5593452" lon="7.1153078"/>
    <trkpt lat="45.5593273" lon="7.1152746"/>
    <trkpt lat="45.5593125" lon="7.1152368"/>
    <trkpt lat="45.5592945" lon="7.1151719"/>
    <trkpt lat="45.5592807" lon="7.115098"/>
    <trkpt lat="45.5592744" lon="7.115018"/>
    <trkpt lat="45.5590715" lon="7.1151161"/>
    <trkpt lat="45.5590387" lon="7.1150308"/>
    <trkpt lat="45.559007" lon="7.1149855"/>
    <trkpt lat="45.5589404" lon="7.114953"/>
    <trkpt lat="45.5588706" lon="7.1149319"/>
    <trkpt lat="45.5588083" lon="7.1149274"/>
    <trkpt lat="45.5587449" lon="7.1149244"/>
    <trkpt lat="45.5587068" lon="7.1149168"/>
    <trkpt lat="45.5586476" lon="7.1148308"/>
    <trkpt lat="45.5584767" lon="7.1149856"/>
    <trkpt lat="45.5583629" lon="7.1151664"/>
    <trkpt lat="45.5583174" lon="7.1152461"/>
    <trkpt lat="45.5581972" lon="7.1152675"/>
    <trkpt lat="45.5580883" lon="7.1153748"/>
    <trkpt lat="45.5578892" lon="7.1154982"/>
    <trkpt lat="45.5577765" lon="7.1156698"/>
    <trkpt lat="45.557585" lon="7.1160078"/>
    <trkpt lat="45.5574986" lon="7.1162277"/>
    <trkpt lat="45.5574009" lon="7.116335"/>
    <trkpt lat="45.5572138" lon="7.1163841"/>
    <trkpt lat="45.5569036" lon="7.1162057"/>
    <trkpt lat="45.5567661" lon="7.1156323"/>
    <trkpt lat="45.5567361" lon="7.1152192"/>
    <trkpt lat="45.5568375" lon="7.1147525"/>
    <trkpt lat="45.5570028" lon="7.1143931"/>
    <trkpt lat="45.5571155" lon="7.1139854"/>
    <trkpt lat="45.5571831" lon="7.1137977"/>
    <trkpt lat="45.5573483" lon="7.1137923"/>
    <trkpt lat="45.5573821" lon="7.1136475"/>
    <trkpt lat="45.5573859" lon="7.1134329"/>
    <trkpt lat="45.557446" lon="7.113111"/>
    <trkpt lat="45.5574648" lon="7.1126658"/>
    <trkpt lat="45.5575549" lon="7.1122956"/>
    <trkpt lat="45.5575832" lon="7.1120488"/>
    <trkpt lat="45.5575389" lon="7.1119675"/>
    <trkpt lat="45.5575145" lon="7.1118621"/>
    <trkpt lat="45.5574853" lon="7.1116198"/>
    <trkpt lat="45.5574683" lon="7.1114159"/>
    <trkpt lat="45.5574621" lon="7.1112859"/>
    <trkpt lat="45.5574749" lon="7.1111662"/>
    <trkpt lat="45.5574923" lon="7.1110971"/>
    <trkpt lat="45.5575096" lon="7.1110163"/>
    <trkpt lat="45.5574757" lon="7.1110095"/>
    <trkpt lat="45.5574412" lon="7.1110086"/>
    <trkpt lat="45.557301" lon="7.1110183"/>
    <trkpt lat="45.5572364" lon="7.1110411"/>
    <trkpt lat="45.5572088" lon="7.1110666"/>
    <trkpt lat="45.5571632" lon="7.1110815"/>
    <trkpt lat="45.5571305" lon="7.1111208"/>
    <trkpt lat="45.5570835" lon="7.1111879"/>
    <trkpt lat="45.5570122" lon="7.1112898"/>
    <trkpt lat="45.5568863" lon="7.1113756"/>
    <trkpt lat="45.5568281" lon="7.1115231"/>
    <trkpt lat="45.5568112" lon="7.1117806"/>
    <trkpt lat="45.5565295" lon="7.1122366"/>
    <trkpt lat="45.5562515" lon="7.1126282"/>
    <trkpt lat="45.5558346" lon="7.1127409"/>
    <trkpt lat="45.5552186" lon="7.1126711"/>
    <trkpt lat="45.5548166" lon="7.1124726"/>
    <trkpt lat="45.5546251" lon="7.1124297"/>
    <trkpt lat="45.5543434" lon="7.1123064"/>
    <trkpt lat="45.5541292" lon="7.1120435"/>
    <trkpt lat="45.5540504" lon="7.1115446"/>
    <trkpt lat="45.5540466" lon="7.1114051"/>
    <trkpt lat="45.5539903" lon="7.1112227"/>
    <trkpt lat="45.5540015" lon="7.1110243"/>
    <trkpt lat="45.5539865" lon="7.1107131"/>
    <trkpt lat="45.5539527" lon="7.1103108"/>
    <trkpt lat="45.5538588" lon="7.1101445"/>
    <trkpt lat="45.5536935" lon="7.1098977"/>
    <trkpt lat="45.5533554" lon="7.1095705"/>
    <trkpt lat="45.5531263" lon="7.1094203"/>
    <trkpt lat="45.5528971" lon="7.1092486"/>
    <trkpt lat="45.5526718" lon="7.1091735"/>
    <trkpt lat="45.5525666" lon="7.1091172"/>
    <trkpt lat="45.5525027" lon="7.1090662"/>
    <trkpt lat="45.5520707" lon="7.1091682"/>
    <trkpt lat="45.5518716" lon="7.109254"/>
    <trkpt lat="45.5515523" lon="7.1091896"/>
    <trkpt lat="45.5513269" lon="7.1089482"/>
    <trkpt lat="45.5509362" lon="7.1086854"/>
    <trkpt lat="45.5502901" lon="7.1084869"/>
    <trkpt lat="45.5495238" lon="7.1082723"/>
    <trkpt lat="45.5489227" lon="7.1082616"/>
    <trkpt lat="45.5485395" lon="7.1082723"/>
    <trkpt lat="45.5481375" lon="7.1077681"/>
    <trkpt lat="45.5478971" lon="7.1073389"/>
    <trkpt lat="45.5475327" lon="7.1069205"/>
    <trkpt lat="45.5471871" lon="7.1066844"/>
    <trkpt lat="45.5466874" lon="7.1064591"/>
    <trkpt lat="45.5464019" lon="7.1062767"/>
    <trkpt lat="45.5460563" lon="7.1060997"/>
    <trkpt lat="45.5456205" lon="7.1062016"/>
    <trkpt lat="45.5452372" lon="7.106325"/>
    <trkpt lat="45.5446887" lon="7.1064699"/>
    <trkpt lat="45.5443807" lon="7.1065611"/>
    <trkpt lat="45.5440876" lon="7.1065235"/>
    <trkpt lat="45.5438284" lon="7.1064913"/>
    <trkpt lat="45.5435729" lon="7.1065772"/>
    <trkpt lat="45.543355" lon="7.1064645"/>
    <trkpt lat="45.542859" lon="7.1063143"/>
    <trkpt lat="45.5424608" lon="7.1062821"/>
    <trkpt lat="45.5421828" lon="7.1060836"/>
    <trkpt lat="45.5418709" lon="7.1058637"/>
    <trkpt lat="45.5416229" lon="7.1056706"/>
    <trkpt lat="45.54139" lon="7.1053755"/>
    <trkpt lat="45.5410669" lon="7.1052843"/>
    <trkpt lat="45.5407625" lon="7.1054077"/>
    <trkpt lat="45.5402553" lon="7.1055525"/>
    <trkpt lat="45.5399021" lon="7.1055955"/>
    <trkpt lat="45.5394625" lon="7.105574"/>
    <trkpt lat="45.5390229" lon="7.1055204"/>
    <trkpt lat="45.5388012" lon="7.1055686"/>
    <trkpt lat="45.5385157" lon="7.1055686"/>
    <trkpt lat="45.5381399" lon="7.1055579"/>
    <trkpt lat="45.5379295" lon="7.1054774"/>
    <trkpt lat="45.5377116" lon="7.1052843"/>
    <trkpt lat="45.5374861" lon="7.1051556"/>
    <trkpt lat="45.5373175" lon="7.1049298"/>
    <trkpt lat="45.537152" lon="7.1048053"/>
    <trkpt lat="45.5370213" lon="7.104769"/>
    <trkpt lat="45.5368236" lon="7.1045797"/>
    <trkpt lat="45.5367431" lon="7.1045495"/>
    <trkpt lat="45.5367048" lon="7.1044106"/>
    <trkpt lat="45.5366421" lon="7.1042694"/>
    <trkpt lat="45.536594" lon="7.1041185"/>
    <trkpt lat="45.5365538" lon="7.104061"/>
    <trkpt lat="45.536589" lon="7.1038965"/>
  </trkseg></trk></gpx>