<?xml version="1.0" encoding="UTF-8"?>
<gpx version="1.1" creator="GranParadiso" xmlns="http://www.topografix.com/GPX/1/1">
  <trk><name>A Day3: Nivolet → VE2 → Rifugio Chabod</name><trkseg>
    <trkpt lat="45.479833" lon="7.1429754"/>
    <trkpt lat="45.4798105" lon="7.1431331"/>
    <trkpt lat="45.4798124" lon="7.1432107"/>
    <trkpt lat="45.4798705" lon="7.1432374"/>
    <trkpt lat="45.4799061" lon="7.1432107"/>
    <trkpt lat="45.4799118" lon="7.1431091"/>
    <trkpt lat="45.4799436" lon="7.1430342"/>
    <trkpt lat="45.4799886" lon="7.1430101"/>
    <trkpt lat="45.4800318" lon="7.1430502"/>
    <trkpt lat="45.4801068" lon="7.1430957"/>
    <trkpt lat="45.4801461" lon="7.1430422"/>
    <trkpt lat="45.4801687" lon="7.1430485"/>
    <trkpt lat="45.4801885" lon="7.1430753"/>
    <trkpt lat="45.480212" lon="7.1430914"/>
    <trkpt lat="45.4802393" lon="7.1430954"/>
    <trkpt lat="45.4802665" lon="7.143086"/>
    <trkpt lat="45.4803577" lon="7.1429989"/>
    <trkpt lat="45.480433" lon="7.1429493"/>
    <trkpt lat="45.4804807" lon="7.1429059"/>
    <trkpt lat="45.480511" lon="7.142913"/>
    <trkpt lat="45.4806314" lon="7.1428138"/>
    <trkpt lat="45.4806887" lon="7.1427856"/>
    <trkpt lat="45.4807404" lon="7.1427414"/>
    <trkpt lat="45.4809323" lon="7.1426649"/>
    <trkpt lat="45.4810254" lon="7.1425724"/>
    <trkpt lat="45.4811326" lon="7.1425255"/>
    <trkpt lat="45.481204" lon="7.1424718"/>
    <trkpt lat="45.4813122" lon="7.1424115"/>
    <trkpt lat="45.4813698" lon="7.1423411"/>
    <trkpt lat="45.4812359" lon="7.1420983"/>
    <trkpt lat="45.481467" lon="7.1420276"/>
    <trkpt lat="45.4815892" lon="7.1419259"/>
    <trkpt lat="45.481721" lon="7.1418163"/>
    <trkpt lat="45.4818354" lon="7.1417975"/>
    <trkpt lat="45.481988" lon="7.1418276"/>
    <trkpt lat="45.4820773" lon="7.141805"/>
    <trkpt lat="45.4821282" lon="7.1418066"/>
    <trkpt lat="45.4822515" lon="7.1418857"/>
    <trkpt lat="45.4822889" lon="7.1419163"/>
    <trkpt lat="45.4823081" lon="7.1419179"/>
    <trkpt lat="45.4823913" lon="7.1418807"/>
    <trkpt lat="45.4824585" lon="7.1418663"/>
    <trkpt lat="45.4825897" lon="7.1418679"/>
    <trkpt lat="45.4826565" lon="7.1418582"/>
    <trkpt lat="45.4827412" lon="7.1418542"/>
    <trkpt lat="45.4828367" lon="7.1418648"/>
    <trkpt lat="45.482936" lon="7.1419886"/>
    <trkpt lat="45.4829781" lon="7.1419621"/>
    <trkpt lat="45.4830116" lon="7.1418807"/>
    <trkpt lat="45.4830203" lon="7.1417958"/>
    <trkpt lat="45.4830414" lon="7.1417267"/>
    <trkpt lat="45.4831159" lon="7.1416984"/>
    <trkpt lat="45.4833007" lon="7.141548"/>
    <trkpt lat="45.4833665" lon="7.1414436"/>
    <trkpt lat="45.4834472" lon="7.141371"/>
    <trkpt lat="45.4834992" lon="7.1412684"/>
    <trkpt lat="45.4835388" lon="7.1412403"/>
    <trkpt lat="45.483694" lon="7.1411782"/>
    <trkpt lat="45.4837709" lon="7.1411269"/>
    <trkpt lat="45.4838392" lon="7.1410224"/>
    <trkpt lat="45.483894" lon="7.1409515"/>
    <trkpt lat="45.4840389" lon="7.1408366"/>
    <trkpt lat="45.4841605" lon="7.1406137"/>
    <trkpt lat="45.484176" lon="7.1409754"/>
    <trkpt lat="45.4842381" lon="7.1411496"/>
    <trkpt lat="45.4843388" lon="7.1412902"/>
    <trkpt lat="45.4843817" lon="7.1413971"/>
    <trkpt lat="45.4844288" lon="7.1416386"/>
    <trkpt lat="45.4844339" lon="7.1418107"/>
    <trkpt lat="45.4844941" lon="7.1420708"/>
    <trkpt lat="45.484472" lon="7.1421853"/>
    <trkpt lat="45.4844613" lon="7.1424613"/>
    <trkpt lat="45.4844219" lon="7.1426013"/>
    <trkpt lat="45.4844544" lon="7.142678"/>
    <trkpt lat="45.4847715" lon="7.1426693"/>
    <trkpt lat="45.4849698" lon="7.1426824"/>
    <trkpt lat="45.4850601" lon="7.1427414"/>
    <trkpt lat="45.4852111" lon="7.1428468"/>
    <trkpt lat="45.485266" lon="7.142938"/>
    <trkpt lat="45.4852319" lon="7.1430724"/>
    <trkpt lat="45.4853021" lon="7.143094"/>
    <trkpt lat="45.4853614" lon="7.1431424"/>
    <trkpt lat="45.4854141" lon="7.143212"/>
    <trkpt lat="45.485481" lon="7.1432854"/>
    <trkpt lat="45.4855196" lon="7.1433551"/>
    <trkpt lat="45.4855299" lon="7.1434322"/>
    <trkpt lat="45.4855144" lon="7.1435277"/>
    <trkpt lat="45.4856806" lon="7.1435277"/>
    <trkpt lat="45.4857435" lon="7.1435277"/>
    <trkpt lat="45.4858799" lon="7.1436194"/>
    <trkpt lat="45.4859545" lon="7.1437259"/>
    <trkpt lat="45.4860422" lon="7.1439199"/>
    <trkpt lat="45.4861143" lon="7.1439501"/>
    <trkpt lat="45.486288" lon="7.1440087"/>
    <trkpt lat="45.4864353" lon="7.1440843"/>
    <trkpt lat="45.4872618" lon="7.1447198"/>
    <trkpt lat="45.4879094" lon="7.1454715"/>
    <trkpt lat="45.4884832" lon="7.1460995"/>
    <trkpt lat="45.4892106" lon="7.1469199"/>
    <trkpt lat="45.4896978" lon="7.1474343"/>
    <trkpt lat="45.4902831" lon="7.147833"/>
    <trkpt lat="45.4907003" lon="7.1481284"/>
    <trkpt lat="45.4907158" lon="7.1482288"/>
    <trkpt lat="45.490802" lon="7.14834"/>
    <trkpt lat="45.490924" lon="7.148419"/>
    <trkpt lat="45.491064" lon="7.1486128"/>
    <trkpt lat="45.4911716" lon="7.1486487"/>
    <trkpt lat="45.4912146" lon="7.1486744"/>
    <trkpt lat="45.4912729" lon="7.1486717"/>
    <trkpt lat="45.4913295" lon="7.148742"/>
    <trkpt lat="45.4913726" lon="7.1488209"/>
    <trkpt lat="45.4915557" lon="7.148986"/>
    <trkpt lat="45.4915855" lon="7.1490371"/>
    <trkpt lat="45.4916203" lon="7.1491332"/>
    <trkpt lat="45.4917674" lon="7.1492911"/>
    <trkpt lat="45.4920079" lon="7.1495352"/>
    <trkpt lat="45.4921909" lon="7.1496321"/>
    <trkpt lat="45.492338" lon="7.149772"/>
    <trkpt lat="45.4925078" lon="7.1499803"/>
    <trkpt lat="45.4926072" lon="7.1501273"/>
    <trkpt lat="45.4927306" lon="7.1502825"/>
    <trkpt lat="45.4927561" lon="7.1503983"/>
    <trkpt lat="45.4928907" lon="7.1508021"/>
    <trkpt lat="45.493027" lon="7.1512256"/>
    <trkpt lat="45.4930713" lon="7.1513365"/>
    <trkpt lat="45.4931052" lon="7.1513955"/>
    <trkpt lat="45.4931141" lon="7.151415"/>
    <trkpt lat="45.4931602" lon="7.1515779"/>
    <trkpt lat="45.493307" lon="7.1519793"/>
    <trkpt lat="45.4934534" lon="7.1523004"/>
    <trkpt lat="45.4938543" lon="7.1532157"/>
    <trkpt lat="45.4939849" lon="7.1536086"/>
    <trkpt lat="45.494187" lon="7.153969"/>
    <trkpt lat="45.4944447" lon="7.1543893"/>
    <trkpt lat="45.4947474" lon="7.154775"/>
    <trkpt lat="45.4949579" lon="7.1549761"/>
    <trkpt lat="45.495053" lon="7.1550694"/>
    <trkpt lat="45.4952711" lon="7.1554828"/>
    <trkpt lat="45.4955447" lon="7.1558554"/>
    <trkpt lat="45.4958408" lon="7.1563686"/>
    <trkpt lat="45.4960436" lon="7.1565929"/>
    <trkpt lat="45.4962661" lon="7.1568298"/>
    <trkpt lat="45.496415" lon="7.1569303"/>
    <trkpt lat="45.4968457" lon="7.1570648"/>
    <trkpt lat="45.4969552" lon="7.1571151"/>
    <trkpt lat="45.4976373" lon="7.1576471"/>
    <trkpt lat="45.4978183" lon="7.1578024"/>
    <trkpt lat="45.4980929" lon="7.1581846"/>
    <trkpt lat="45.4982329" lon="7.1582959"/>
    <trkpt lat="45.4984214" lon="7.1583888"/>
    <trkpt lat="45.4985864" lon="7.1585148"/>
    <trkpt lat="45.4987945" lon="7.1586673"/>
    <trkpt lat="45.4990495" lon="7.1589018"/>
    <trkpt lat="45.4993441" lon="7.159149"/>
    <trkpt lat="45.4995607" lon="7.1594086"/>
    <trkpt lat="45.4998003" lon="7.1597257"/>
    <trkpt lat="45.499928" lon="7.1598639"/>
    <trkpt lat="45.5001703" lon="7.1602497"/>
    <trkpt lat="45.5002964" lon="7.1605529"/>
    <trkpt lat="45.5004128" lon="7.1608099"/>
    <trkpt lat="45.5005563" lon="7.1611403"/>
    <trkpt lat="45.5006318" lon="7.1613411"/>
    <trkpt lat="45.5007303" lon="7.1619116"/>
    <trkpt lat="45.5007882" lon="7.1620786"/>
    <trkpt lat="45.5010448" lon="7.1624645"/>
    <trkpt lat="45.5011461" lon="7.1625358"/>
    <trkpt lat="45.5012328" lon="7.1625633"/>
    <trkpt lat="45.5014809" lon="7.1626906"/>
    <trkpt lat="45.5016083" lon="7.1627623"/>
    <trkpt lat="45.5017931" lon="7.1629597"/>
    <trkpt lat="45.5019277" lon="7.163141"/>
    <trkpt lat="45.5020168" lon="7.1632837"/>
    <trkpt lat="45.5021646" lon="7.1634478"/>
    <trkpt lat="45.502434" lon="7.16368"/>
    <trkpt lat="45.5025572" lon="7.163786"/>
    <trkpt lat="45.5026972" lon="7.1639577"/>
    <trkpt lat="45.502748" lon="7.1641132"/>
    <trkpt lat="45.5027574" lon="7.1641883"/>
    <trkpt lat="45.5027498" lon="7.1642996"/>
    <trkpt lat="45.5027662" lon="7.1643467"/>
    <trkpt lat="45.5028937" lon="7.1644123"/>
    <trkpt lat="45.5029352" lon="7.1644827"/>
    <trkpt lat="45.502951" lon="7.1645732"/>
    <trkpt lat="45.5029525" lon="7.1646928"/>
    <trkpt lat="45.5029265" lon="7.1648782"/>
    <trkpt lat="45.5029294" lon="7.1650118"/>
    <trkpt lat="45.5029463" lon="7.1651539"/>
    <trkpt lat="45.5029745" lon="7.165217"/>
    <trkpt lat="45.5030102" lon="7.1652639"/>
    <trkpt lat="45.5030957" lon="7.1652961"/>
    <trkpt lat="45.5031352" lon="7.1653524"/>
    <trkpt lat="45.5031437" lon="7.1653752"/>
    <trkpt lat="45.5031991" lon="7.1653779"/>
    <trkpt lat="45.5032226" lon="7.1654034"/>
    <trkpt lat="45.5032734" lon="7.1654651"/>
    <trkpt lat="45.5033457" lon="7.1655106"/>
    <trkpt lat="45.5034388" lon="7.165563"/>
    <trkpt lat="45.5034915" lon="7.1656005"/>
    <trkpt lat="45.5035563" lon="7.1656072"/>
    <trkpt lat="45.5036165" lon="7.1656354"/>
    <trkpt lat="45.5037076" lon="7.1656984"/>
    <trkpt lat="45.5037866" lon="7.1657789"/>
    <trkpt lat="45.5038317" lon="7.1658956"/>
    <trkpt lat="45.5038975" lon="7.1660256"/>
    <trkpt lat="45.5039464" lon="7.1661061"/>
    <trkpt lat="45.5038961" lon="7.1661899"/>
    <trkpt lat="45.5038956" lon="7.1662114"/>
    <trkpt lat="45.5039111" lon="7.1662315"/>
    <trkpt lat="45.5039328" lon="7.1662442"/>
    <trkpt lat="45.5039544" lon="7.1662496"/>
    <trkpt lat="45.5039656" lon="7.166257"/>
    <trkpt lat="45.5039802" lon="7.1662711"/>
    <trkpt lat="45.5039915" lon="7.1662959"/>
    <trkpt lat="45.5040075" lon="7.1663549"/>
    <trkpt lat="45.504023" lon="7.1664045"/>
    <trkpt lat="45.5040451" lon="7.1664347"/>
    <trkpt lat="45.5040789" lon="7.1664548"/>
    <trkpt lat="45.5040827" lon="7.1664897"/>
    <trkpt lat="45.5041015" lon="7.1665728"/>
    <trkpt lat="45.5041701" lon="7.1666412"/>
    <trkpt lat="45.5042237" lon="7.1666452"/>
    <trkpt lat="45.5042697" lon="7.1666774"/>
    <trkpt lat="45.5043148" lon="7.1667056"/>
    <trkpt lat="45.5043599" lon="7.1667793"/>
    <trkpt lat="45.504406" lon="7.1668893"/>
    <trkpt lat="45.5044436" lon="7.1669349"/>
    <trkpt lat="45.5044699" lon="7.1669859"/>
    <trkpt lat="45.504485" lon="7.1670435"/>
    <trkpt lat="45.5045075" lon="7.1671133"/>
    <trkpt lat="45.5045479" lon="7.167187"/>
    <trkpt lat="45.5045855" lon="7.1672447"/>
    <trkpt lat="45.5046175" lon="7.1673533"/>
    <trkpt lat="45.5048299" lon="7.1679609"/>
    <trkpt lat="45.505016" lon="7.1685872"/>
    <trkpt lat="45.5050698" lon="7.1686716"/>
    <trkpt lat="45.5050887" lon="7.1687351"/>
    <trkpt lat="45.505117" lon="7.168861"/>
    <trkpt lat="45.5051901" lon="7.1689982"/>
    <trkpt lat="45.5053534" lon="7.1691866"/>
    <trkpt lat="45.5054032" lon="7.1692604"/>
    <trkpt lat="45.5055705" lon="7.1695168"/>
    <trkpt lat="45.5057535" lon="7.1696532"/>
    <trkpt lat="45.5058289" lon="7.1697178"/>
    <trkpt lat="45.5059491" lon="7.1699116"/>
    <trkpt lat="45.5060335" lon="7.1700605"/>
    <trkpt lat="45.506186" lon="7.1701754"/>
    <trkpt lat="45.5063762" lon="7.1705091"/>
    <trkpt lat="45.5064451" lon="7.1706323"/>
    <trkpt lat="45.5065819" lon="7.1709683"/>
    <trkpt lat="45.5066974" lon="7.1711695"/>
    <trkpt lat="45.5067406" lon="7.1711967"/>
    <trkpt lat="45.5068392" lon="7.1712382"/>
    <trkpt lat="45.5069175" lon="7.1713222"/>
    <trkpt lat="45.5071586" lon="7.1715176"/>
    <trkpt lat="45.5073094" lon="7.1715751"/>
    <trkpt lat="45.5075714" lon="7.1717814"/>
    <trkpt lat="45.5076719" lon="7.1718119"/>
    <trkpt lat="45.5077526" lon="7.1718747"/>
    <trkpt lat="45.507828" lon="7.1720057"/>
    <trkpt lat="45.5080043" lon="7.1722299"/>
    <trkpt lat="45.5085278" lon="7.1725513"/>
    <trkpt lat="45.5088616" lon="7.1728168"/>
    <trkpt lat="45.5094287" lon="7.1733319"/>
    <trkpt lat="45.5095544" lon="7.1734208"/>
    <trkpt lat="45.5096073" lon="7.1734205"/>
    <trkpt lat="45.5096296" lon="7.1734611"/>
    <trkpt lat="45.5096561" lon="7.1735546"/>
    <trkpt lat="45.5097266" lon="7.1737276"/>
    <trkpt lat="45.5097821" lon="7.1738335"/>
    <trkpt lat="45.5098187" lon="7.1740159"/>
    <trkpt lat="45.5098404" lon="7.1740897"/>
    <trkpt lat="45.5099419" lon="7.1741878"/>
    <trkpt lat="45.5100137" lon="7.1743063"/>
    <trkpt lat="45.5101088" lon="7.1743457"/>
    <trkpt lat="45.5102175" lon="7.1743484"/>
    <trkpt lat="45.510367" lon="7.174466"/>
    <trkpt lat="45.5104768" lon="7.1745792"/>
    <trkpt lat="45.5105805" lon="7.174627"/>
    <trkpt lat="45.5106446" lon="7.1747011"/>
    <trkpt lat="45.51073" lon="7.1747054"/>
    <trkpt lat="45.5107961" lon="7.174798"/>
    <trkpt lat="45.5108786" lon="7.1748769"/>
    <trkpt lat="45.5109629" lon="7.1749092"/>
    <trkpt lat="45.5110886" lon="7.1749056"/>
    <trkpt lat="45.5111819" lon="7.1748931"/>
    <trkpt lat="45.5113218" lon="7.1749666"/>
    <trkpt lat="45.5114582" lon="7.17499"/>
    <trkpt lat="45.5115813" lon="7.1749797"/>
    <trkpt lat="45.5117059" lon="7.175033"/>
    <trkpt lat="45.5118135" lon="7.175103"/>
    <trkpt lat="45.5118742" lon="7.1752453"/>
    <trkpt lat="45.5119661" lon="7.1753202"/>
    <trkpt lat="45.5120091" lon="7.1755373"/>
    <trkpt lat="45.5120486" lon="7.1756701"/>
    <trkpt lat="45.5121383" lon="7.1757185"/>
    <trkpt lat="45.5123967" lon="7.1757365"/>
    <trkpt lat="45.5124739" lon="7.1756485"/>
    <trkpt lat="45.5126731" lon="7.1756342"/>
    <trkpt lat="45.5127395" lon="7.1757347"/>
    <trkpt lat="45.5128292" lon="7.1757239"/>
    <trkpt lat="45.5129423" lon="7.1757598"/>
    <trkpt lat="45.5131504" lon="7.175749"/>
    <trkpt lat="45.5132473" lon="7.1758334"/>
    <trkpt lat="45.5133855" lon="7.1758549"/>
    <trkpt lat="45.5135273" lon="7.1758872"/>
    <trkpt lat="45.5136331" lon="7.17595"/>
    <trkpt lat="45.5137408" lon="7.1761079"/>
    <trkpt lat="45.5138449" lon="7.176203"/>
    <trkpt lat="45.5140136" lon="7.1763179"/>
    <trkpt lat="45.5142379" lon="7.1765045"/>
    <trkpt lat="45.5145824" lon="7.176876"/>
    <trkpt lat="45.5147403" lon="7.1770662"/>
    <trkpt lat="45.5147852" lon="7.1772313"/>
    <trkpt lat="45.5148354" lon="7.17726"/>
    <trkpt lat="45.5149934" lon="7.1773695"/>
    <trkpt lat="45.5151746" lon="7.1775794"/>
    <trkpt lat="45.5152392" lon="7.1775991"/>
    <trkpt lat="45.5153487" lon="7.1777983"/>
    <trkpt lat="45.5154456" lon="7.1778845"/>
    <trkpt lat="45.5155479" lon="7.1780998"/>
    <trkpt lat="45.5156878" lon="7.178238"/>
    <trkpt lat="45.515819" lon="7.178441"/>
    <trkpt lat="45.5159731" lon="7.1785861"/>
    <trkpt lat="45.5161393" lon="7.1788459"/>
    <trkpt lat="45.5164523" lon="7.1789719"/>
    <trkpt lat="45.5166909" lon="7.1789414"/>
    <trkpt lat="45.5168991" lon="7.178875"/>
    <trkpt lat="45.5170319" lon="7.1788122"/>
    <trkpt lat="45.5174303" lon="7.1788212"/>
    <trkpt lat="45.517782" lon="7.1787028"/>
    <trkpt lat="45.5181929" lon="7.1785161"/>
    <trkpt lat="45.5182888" lon="7.1785073"/>
    <trkpt lat="45.5183636" lon="7.1785367"/>
    <trkpt lat="45.5184551" lon="7.1786119"/>
    <trkpt lat="45.5185472" lon="7.1786803"/>
    <trkpt lat="45.5186009" lon="7.178777"/>
    <trkpt lat="45.5186936" lon="7.1788948"/>
    <trkpt lat="45.5187845" lon="7.17899"/>
    <trkpt lat="45.5188371" lon="7.1789342"/>
    <trkpt lat="45.518873" lon="7.1790563"/>
    <trkpt lat="45.5189681" lon="7.1791675"/>
    <trkpt lat="45.5191009" lon="7.1791783"/>
    <trkpt lat="45.5192248" lon="7.1791065"/>
    <trkpt lat="45.5193432" lon="7.1790719"/>
    <trkpt lat="45.5195262" lon="7.1790778"/>
    <trkpt lat="45.5196124" lon="7.1791496"/>
    <trkpt lat="45.519714" lon="7.1792534"/>
    <trkpt lat="45.5198062" lon="7.1793533"/>
    <trkpt lat="45.5198258" lon="7.1794788"/>
    <trkpt lat="45.5198253" lon="7.179629"/>
    <trkpt lat="45.5199375" lon="7.1796847"/>
    <trkpt lat="45.5199434" lon="7.1798082"/>
    <trkpt lat="45.5200179" lon="7.1798944"/>
    <trkpt lat="45.520263" lon="7.1799435"/>
    <trkpt lat="45.5204146" lon="7.1800877"/>
    <trkpt lat="45.5205103" lon="7.1802624"/>
    <trkpt lat="45.5206059" lon="7.1804918"/>
    <trkpt lat="45.5205983" lon="7.1805901"/>
    <trkpt lat="45.5205957" lon="7.1806803"/>
    <trkpt lat="45.5206011" lon="7.180761"/>
    <trkpt lat="45.520646" lon="7.1808543"/>
    <trkpt lat="45.5206551" lon="7.1809982"/>
    <trkpt lat="45.5208021" lon="7.1811589"/>
    <trkpt lat="45.5207276" lon="7.1813119"/>
    <trkpt lat="45.5206609" lon="7.1814962"/>
    <trkpt lat="45.5206727" lon="7.181551"/>
    <trkpt lat="45.5207943" lon="7.1815805"/>
    <trkpt lat="45.5209082" lon="7.1817588"/>
    <trkpt lat="45.5210705" lon="7.1819159"/>
    <trkpt lat="45.5211599" lon="7.1819917"/>
    <trkpt lat="45.5212305" lon="7.1820982"/>
    <trkpt lat="45.5213519" lon="7.1822655"/>
    <trkpt lat="45.5214189" lon="7.1823802"/>
    <trkpt lat="45.5214737" lon="7.1824949"/>
    <trkpt lat="45.5215013" lon="7.1825998"/>
    <trkpt lat="45.5215469" lon="7.1828422"/>
    <trkpt lat="45.5216429" lon="7.1829973"/>
    <trkpt lat="45.5216494" lon="7.1830079"/>
    <trkpt lat="45.5216855" lon="7.1830301"/>
    <trkpt lat="45.5217608" lon="7.1829531"/>
    <trkpt lat="45.5218285" lon="7.1829477"/>
    <trkpt lat="45.5218658" lon="7.1829561"/>
    <trkpt lat="45.5219581" lon="7.1829933"/>
    <trkpt lat="45.5220064" lon="7.1830094"/>
    <trkpt lat="45.5220822" lon="7.1830362"/>
    <trkpt lat="45.5221012" lon="7.1830624"/>
    <trkpt lat="45.5221197" lon="7.1831354"/>
    <trkpt lat="45.522147" lon="7.1832173"/>
    <trkpt lat="45.5221818" lon="7.1832447"/>
    <trkpt lat="45.5222461" lon="7.1832729"/>
    <trkpt lat="45.5222757" lon="7.1832816"/>
    <trkpt lat="45.5222835" lon="7.1833092"/>
    <trkpt lat="45.5222851" lon="7.1834144"/>
    <trkpt lat="45.522302" lon="7.1835431"/>
    <trkpt lat="45.5223347" lon="7.183666"/>
    <trkpt lat="45.5223791" lon="7.1837416"/>
    <trkpt lat="45.5224467" lon="7.1838208"/>
    <trkpt lat="45.5225116" lon="7.183861"/>
    <trkpt lat="45.5225267" lon="7.1838668"/>
    <trkpt lat="45.5225614" lon="7.1839133"/>
    <trkpt lat="45.5225839" lon="7.1839777"/>
    <trkpt lat="45.5225896" lon="7.1840367"/>
    <trkpt lat="45.5225943" lon="7.1840823"/>
    <trkpt lat="45.5226093" lon="7.1841118"/>
    <trkpt lat="45.5226375" lon="7.1841426"/>
    <trkpt lat="45.5226318" lon="7.1841775"/>
    <trkpt lat="45.5226196" lon="7.1842003"/>
    <trkpt lat="45.5226215" lon="7.1842486"/>
    <trkpt lat="45.5226253" lon="7.1843424"/>
    <trkpt lat="45.5226568" lon="7.1843966"/>
    <trkpt lat="45.5226995" lon="7.1844242"/>
    <trkpt lat="45.5227493" lon="7.1844457"/>
    <trkpt lat="45.52277" lon="7.1844833"/>
    <trkpt lat="45.5227906" lon="7.1845369"/>
    <trkpt lat="45.5228169" lon="7.1845651"/>
    <trkpt lat="45.5228442" lon="7.1845812"/>
    <trkpt lat="45.5228724" lon="7.1846254"/>
    <trkpt lat="45.5229043" lon="7.1846898"/>
    <trkpt lat="45.5229165" lon="7.1847394"/>
    <trkpt lat="45.5229156" lon="7.1848132"/>
    <trkpt lat="45.5228893" lon="7.1848829"/>
    <trkpt lat="45.5228517" lon="7.1849258"/>
    <trkpt lat="45.5227671" lon="7.1849446"/>
    <trkpt lat="45.5226826" lon="7.1849325"/>
    <trkpt lat="45.5226422" lon="7.1849419"/>
    <trkpt lat="45.5225792" lon="7.1849929"/>
    <trkpt lat="45.5225539" lon="7.185068"/>
    <trkpt lat="45.5225332" lon="7.1851283"/>
    <trkpt lat="45.5225106" lon="7.1851739"/>
    <trkpt lat="45.5225069" lon="7.1852142"/>
    <trkpt lat="45.5225228" lon="7.1852356"/>
    <trkpt lat="45.5225745" lon="7.185308"/>
    <trkpt lat="45.5226005" lon="7.1853495"/>
    <trkpt lat="45.522629" lon="7.1853952"/>
    <trkpt lat="45.5226488" lon="7.1854448"/>
    <trkpt lat="45.5226568" lon="7.1854779"/>
    <trkpt lat="45.5226478" lon="7.1855722"/>
    <trkpt lat="45.5226478" lon="7.1856594"/>
    <trkpt lat="45.5226563" lon="7.1857868"/>
    <trkpt lat="45.5226353" lon="7.1858753"/>
    <trkpt lat="45.52263" lon="7.1859813"/>
    <trkpt lat="45.522653" lon="7.1860513"/>
    <trkpt lat="45.5227066" lon="7.1862807"/>
    <trkpt lat="45.5228137" lon="7.1864882"/>
    <trkpt lat="45.5228635" lon="7.1866575"/>
    <trkpt lat="45.5229782" lon="7.1867449"/>
    <trkpt lat="45.5230919" lon="7.1867869"/>
    <trkpt lat="45.5231045" lon="7.1869524"/>
    <trkpt lat="45.5231062" lon="7.1872571"/>
    <trkpt lat="45.5231542" lon="7.1873401"/>
    <trkpt lat="45.5233073" lon="7.1873838"/>
    <trkpt lat="45.5235866" lon="7.1874439"/>
    <trkpt lat="45.5238238" lon="7.1874876"/>
    <trkpt lat="45.5240836" lon="7.1875689"/>
    <trkpt lat="45.5241369" lon="7.1876315"/>
    <trkpt lat="45.5242356" lon="7.1876897"/>
    <trkpt lat="45.5243124" lon="7.1877299"/>
    <trkpt lat="45.5244174" lon="7.1877836"/>
    <trkpt lat="45.5244362" lon="7.1878306"/>
    <trkpt lat="45.5244892" lon="7.1879541"/>
    <trkpt lat="45.5245234" lon="7.1880737"/>
    <trkpt lat="45.5245569" lon="7.1881795"/>
    <trkpt lat="45.5246258" lon="7.1883048"/>
    <trkpt lat="45.5246493" lon="7.1883898"/>
    <trkpt lat="45.524665" lon="7.188524"/>
    <trkpt lat="45.524676" lon="7.1886649"/>
    <trkpt lat="45.5246807" lon="7.1888081"/>
    <trkpt lat="45.5246838" lon="7.1889065"/>
    <trkpt lat="45.5246739" lon="7.1890137"/>
    <trkpt lat="45.5246009" lon="7.1890119"/>
    <trkpt lat="45.5245427" lon="7.1889813"/>
    <trkpt lat="45.5244264" lon="7.1889988"/>
    <trkpt lat="45.5243009" lon="7.1889463"/>
    <trkpt lat="45.5241846" lon="7.1890162"/>
    <trkpt lat="45.5240346" lon="7.1889725"/>
    <trkpt lat="45.5238571" lon="7.1889158"/>
    <trkpt lat="45.5237653" lon="7.1890162"/>
    <trkpt lat="45.5237744" lon="7.1891124"/>
    <trkpt lat="45.5238571" lon="7.1891648"/>
    <trkpt lat="45.5237469" lon="7.1892478"/>
    <trkpt lat="45.523753" lon="7.1893133"/>
    <trkpt lat="45.5237989" lon="7.1893526"/>
    <trkpt lat="45.523903" lon="7.1893701"/>
    <trkpt lat="45.5240377" lon="7.1894225"/>
    <trkpt lat="45.5241632" lon="7.1894138"/>
    <trkpt lat="45.5240897" lon="7.1895492"/>
    <trkpt lat="45.5241846" lon="7.1896104"/>
    <trkpt lat="45.5243165" lon="7.1895885"/>
    <trkpt lat="45.5244342" lon="7.1895506"/>
    <trkpt lat="45.5243468" lon="7.1896872"/>
    <trkpt lat="45.5243241" lon="7.1897461"/>
    <trkpt lat="45.5243886" lon="7.1897783"/>
    <trkpt lat="45.5244797" lon="7.1897726"/>
    <trkpt lat="45.5246316" lon="7.1899397"/>
    <trkpt lat="45.5247398" lon="7.1899834"/>
    <trkpt lat="45.5248764" lon="7.1900707"/>
    <trkpt lat="45.5249865" lon="7.1901485"/>
    <trkpt lat="45.5251308" lon="7.1902605"/>
    <trkpt lat="45.5250549" lon="7.1903023"/>
    <trkpt lat="45.5249774" lon="7.1902789"/>
    <trkpt lat="45.524858" lon="7.1902832"/>
    <trkpt lat="45.5248794" lon="7.1903619"/>
    <trkpt lat="45.524996" lon="7.1904256"/>
    <trkpt lat="45.5250511" lon="7.1904921"/>
    <trkpt lat="45.52496" lon="7.1905471"/>
    <trkpt lat="45.5248043" lon="7.190494"/>
    <trkpt lat="45.5248404" lon="7.1906003"/>
    <trkpt lat="45.5249505" lon="7.1907199"/>
    <trkpt lat="45.5249979" lon="7.1908433"/>
    <trkpt lat="45.525109" lon="7.1909255"/>
    <trkpt lat="45.5252192" lon="7.1909604"/>
    <trkpt lat="45.525363" lon="7.1909823"/>
    <trkpt lat="45.5254273" lon="7.1911221"/>
    <trkpt lat="45.5254838" lon="7.1910696"/>
    <trkpt lat="45.5255427" lon="7.1911064"/>
    <trkpt lat="45.525574" lon="7.1911958"/>
    <trkpt lat="45.5255491" lon="7.1913495"/>
    <trkpt lat="45.525461" lon="7.1913929"/>
    <trkpt lat="45.5253998" lon="7.1913012"/>
    <trkpt lat="45.5253569" lon="7.1913318"/>
    <trkpt lat="45.5253355" lon="7.1914847"/>
    <trkpt lat="45.5251672" lon="7.1914672"/>
    <trkpt lat="45.5250661" lon="7.1913755"/>
    <trkpt lat="45.5249866" lon="7.191406"/>
    <trkpt lat="45.525008" lon="7.1915633"/>
    <trkpt lat="45.524959" lon="7.1916594"/>
    <trkpt lat="45.5250202" lon="7.1917643"/>
    <trkpt lat="45.5251212" lon="7.1918997"/>
    <trkpt lat="45.525186" lon="7.1920329"/>
    <trkpt lat="45.5251446" lon="7.1922066"/>
    <trkpt lat="45.5251446" lon="7.1923683"/>
    <trkpt lat="45.5251997" lon="7.1925299"/>
    <trkpt lat="45.5252061" lon="7.1925757"/>
    <trkpt lat="45.525215" lon="7.1926392"/>
    <trkpt lat="45.5251997" lon="7.1929275"/>
    <trkpt lat="45.5251722" lon="7.1931459"/>
    <trkpt lat="45.5251783" lon="7.1934474"/>
    <trkpt lat="45.5252303" lon="7.1936571"/>
    <trkpt lat="45.5252637" lon="7.1938956"/>
    <trkpt lat="45.5253548" lon="7.1940797"/>
    <trkpt lat="45.5253662" lon="7.194224"/>
    <trkpt lat="45.5254022" lon="7.1943379"/>
    <trkpt lat="45.5254478" lon="7.1944651"/>
    <trkpt lat="45.5254232" lon="7.19471"/>
    <trkpt lat="45.5254293" lon="7.1949241"/>
    <trkpt lat="45.5254497" lon="7.1951541"/>
    <trkpt lat="45.5254354" lon="7.1953173"/>
    <trkpt lat="45.5254018" lon="7.1954265"/>
    <trkpt lat="45.5253283" lon="7.1953654"/>
    <trkpt lat="45.5252763" lon="7.195195"/>
    <trkpt lat="45.5251967" lon="7.1952081"/>
    <trkpt lat="45.5251599" lon="7.1953217"/>
    <trkpt lat="45.5251569" lon="7.1954921"/>
    <trkpt lat="45.5251355" lon="7.1956144"/>
    <trkpt lat="45.5250559" lon="7.1956756"/>
    <trkpt lat="45.5249181" lon="7.1957367"/>
    <trkpt lat="45.5248569" lon="7.1959333"/>
    <trkpt lat="45.5248447" lon="7.1962566"/>
    <trkpt lat="45.5247743" lon="7.1963615"/>
    <trkpt lat="45.5246396" lon="7.1965275"/>
    <trkpt lat="45.5245447" lon="7.1966717"/>
    <trkpt lat="45.5244253" lon="7.1967503"/>
    <trkpt lat="45.5243427" lon="7.1968595"/>
    <trkpt lat="45.5243702" lon="7.1969513"/>
    <trkpt lat="45.5244406" lon="7.1969163"/>
    <trkpt lat="45.5245019" lon="7.1969207"/>
    <trkpt lat="45.5244682" lon="7.1970518"/>
    <trkpt lat="45.5245416" lon="7.1970867"/>
    <trkpt lat="45.5246182" lon="7.1970911"/>
    <trkpt lat="45.5247284" lon="7.1971479"/>
    <trkpt lat="45.5248018" lon="7.1971654"/>
    <trkpt lat="45.5248998" lon="7.197126"/>
    <trkpt lat="45.5249457" lon="7.1971828"/>
    <trkpt lat="45.5249702" lon="7.1973532"/>
    <trkpt lat="45.5250069" lon="7.1974799"/>
    <trkpt lat="45.5250651" lon="7.1975586"/>
    <trkpt lat="45.5250895" lon="7.1976678"/>
    <trkpt lat="45.525062" lon="7.1977901"/>
    <trkpt lat="45.5250038" lon="7.1979605"/>
    <trkpt lat="45.5249181" lon="7.1980392"/>
    <trkpt lat="45.5248508" lon="7.1981309"/>
    <trkpt lat="45.5247712" lon="7.1981877"/>
    <trkpt lat="45.5247272" lon="7.1983045"/>
    <trkpt lat="45.5247155" lon="7.198494"/>
    <trkpt lat="45.5247232" lon="7.1987223"/>
    <trkpt lat="45.524759" lon="7.1989479"/>
    <trkpt lat="45.5247988" lon="7.1990571"/>
    <trkpt lat="45.5248508" lon="7.1992406"/>
    <trkpt lat="45.5248416" lon="7.1992887"/>
    <trkpt lat="45.5247625" lon="7.1993587"/>
    <trkpt lat="45.5246695" lon="7.1994195"/>
    <trkpt lat="45.5245537" lon="7.1995239"/>
    <trkpt lat="45.5244927" lon="7.1996382"/>
    <trkpt lat="45.5244621" lon="7.1997998"/>
    <trkpt lat="45.524511" lon="7.1998304"/>
    <trkpt lat="45.5245692" lon="7.1998435"/>
    <trkpt lat="45.5246335" lon="7.1998916"/>
    <trkpt lat="45.5247069" lon="7.2000052"/>
    <trkpt lat="45.5247437" lon="7.2000663"/>
    <trkpt lat="45.5247743" lon="7.2001319"/>
    <trkpt lat="45.5247253" lon="7.2001805"/>
    <trkpt lat="45.5246396" lon="7.2001855"/>
    <trkpt lat="45.5245214" lon="7.2002103"/>
    <trkpt lat="45.5244657" lon="7.2002608"/>
    <trkpt lat="45.5244557" lon="7.2003252"/>
    <trkpt lat="45.5244806" lon="7.2003664"/>
    <trkpt lat="45.524542" lon="7.2003812"/>
    <trkpt lat="45.5246319" lon="7.2004044"/>
    <trkpt lat="45.5247097" lon="7.2004637"/>
    <trkpt lat="45.5247291" lon="7.2147432"/>
    <trkpt lat="45.5247929" lon="7.2147607"/>
    <trkpt lat="45.5248567" lon="7.2147782"/>
    <trkpt lat="45.5249181" lon="7.2147712"/>
    <trkpt lat="45.5250016" lon="7.2147922"/>
    <trkpt lat="45.5250605" lon="7.2147852"/>
    <trkpt lat="45.5251341" lon="7.2148273"/>
    <trkpt lat="45.5252004" lon="7.2149079"/>
    <trkpt lat="45.5252446" lon="7.2149814"/>
    <trkpt lat="45.5252912" lon="7.2150585"/>
    <trkpt lat="45.5253354" lon="7.2151181"/>
    <trkpt lat="45.5253722" lon="7.2151742"/>
    <trkpt lat="45.5253771" lon="7.2152197"/>
    <trkpt lat="45.525441" lon="7.2152793"/>
    <trkpt lat="45.5254655" lon="7.2153108"/>
    <trkpt lat="45.525522" lon="7.2153809"/>
    <trkpt lat="45.5255809" lon="7.215479"/>
    <trkpt lat="45.5255809" lon="7.2155666"/>
    <trkpt lat="45.5256005" lon="7.2156647"/>
    <trkpt lat="45.5256251" lon="7.2157628"/>
    <trkpt lat="45.5256815" lon="7.2158259"/>
    <trkpt lat="45.5257331" lon="7.2158994"/>
    <trkpt lat="45.5257527" lon="7.2160011"/>
    <trkpt lat="45.5257625" lon="7.2161342"/>
    <trkpt lat="45.5257993" lon="7.2162113"/>
    <trkpt lat="45.5258607" lon="7.2162954"/>
    <trkpt lat="45.5259147" lon="7.2163795"/>
    <trkpt lat="45.5259589" lon="7.216439"/>
    <trkpt lat="45.526008" lon="7.2165091"/>
    <trkpt lat="45.5260473" lon="7.2165687"/>
    <trkpt lat="45.5260767" lon="7.2166493"/>
    <trkpt lat="45.5260105" lon="7.2166773"/>
    <trkpt lat="45.5260424" lon="7.2167649"/>
    <trkpt lat="45.5260792" lon="7.216842"/>
    <trkpt lat="45.5261086" lon="7.2169611"/>
    <trkpt lat="45.5261234" lon="7.2170942"/>
    <trkpt lat="45.5261577" lon="7.2171783"/>
    <trkpt lat="45.526197" lon="7.2172799"/>
    <trkpt lat="45.526224" lon="7.2173535"/>
    <trkpt lat="45.5262756" lon="7.2174516"/>
    <trkpt lat="45.526305" lon="7.2175007"/>
    <trkpt lat="45.5263443" lon="7.2174937"/>
    <trkpt lat="45.5263934" lon="7.2175077"/>
    <trkpt lat="45.5264523" lon="7.2175918"/>
    <trkpt lat="45.5265063" lon="7.2176794"/>
    <trkpt lat="45.5265554" lon="7.2177249"/>
    <trkpt lat="45.5265947" lon="7.2178125"/>
    <trkpt lat="45.5266241" lon="7.2178511"/>
    <trkpt lat="45.5266585" lon="7.2179211"/>
    <trkpt lat="45.5267051" lon="7.2180017"/>
    <trkpt lat="45.5267493" lon="7.2180403"/>
    <trkpt lat="45.526791" lon="7.2181349"/>
    <trkpt lat="45.5268352" lon="7.2181594"/>
    <trkpt lat="45.5269187" lon="7.2182015"/>
    <trkpt lat="45.526985" lon="7.218275"/>
    <trkpt lat="45.5270242" lon="7.2183346"/>
    <trkpt lat="45.5270733" lon="7.2183907"/>
    <trkpt lat="45.52712" lon="7.2185483"/>
    <trkpt lat="45.5271593" lon="7.218706"/>
    <trkpt lat="45.5271666" lon="7.2187901"/>
    <trkpt lat="45.5271789" lon="7.2189127"/>
    <trkpt lat="45.5272133" lon="7.2190108"/>
    <trkpt lat="45.527228" lon="7.219151"/>
    <trkpt lat="45.5272329" lon="7.2192386"/>
    <trkpt lat="45.5272353" lon="7.2193892"/>
    <trkpt lat="45.5272403" lon="7.2195329"/>
    <trkpt lat="45.5272403" lon="7.2196485"/>
    <trkpt lat="45.5272599" lon="7.2197431"/>
    <trkpt lat="45.5272623" lon="7.2198658"/>
    <trkpt lat="45.5272992" lon="7.2199709"/>
    <trkpt lat="45.5273753" lon="7.220048"/>
    <trkpt lat="45.5274342" lon="7.2201636"/>
    <trkpt lat="45.5274955" lon="7.2202547"/>
    <trkpt lat="45.5275545" lon="7.2203668"/>
    <trkpt lat="45.5275864" lon="7.2204299"/>
    <trkpt lat="45.5276232" lon="7.2204194"/>
    <trkpt lat="45.527687" lon="7.2204474"/>
    <trkpt lat="45.5277385" lon="7.2205105"/>
    <trkpt lat="45.5277926" lon="7.220584"/>
    <trkpt lat="45.5278588" lon="7.2207032"/>
    <trkpt lat="45.5278809" lon="7.2207382"/>
    <trkpt lat="45.5279349" lon="7.2208468"/>
    <trkpt lat="45.5279938" lon="7.220959"/>
    <trkpt lat="45.5280282" lon="7.2210746"/>
    <trkpt lat="45.5280699" lon="7.2211517"/>
    <trkpt lat="45.5281092" lon="7.2211517"/>
    <trkpt lat="45.5281681" lon="7.2212077"/>
    <trkpt lat="45.5282565" lon="7.2212603"/>
    <trkpt lat="45.5283178" lon="7.2213233"/>
    <trkpt lat="45.5283669" lon="7.2213934"/>
    <trkpt lat="45.5283939" lon="7.2214285"/>
    <trkpt lat="45.52847" lon="7.221425"/>
    <trkpt lat="45.5285329" lon="7.2213801"/>
    <trkpt lat="45.5286124" lon="7.2214144"/>
    <trkpt lat="45.5286713" lon="7.2214425"/>
    <trkpt lat="45.52874" lon="7.2215126"/>
    <trkpt lat="45.5288063" lon="7.2215896"/>
    <trkpt lat="45.5288701" lon="7.2216842"/>
    <trkpt lat="45.5289069" lon="7.2217543"/>
    <trkpt lat="45.5289581" lon="7.2217993"/>
    <trkpt lat="45.5290119" lon="7.2218103"/>
    <trkpt lat="45.5290658" lon="7.2218871"/>
    <trkpt lat="45.5291247" lon="7.2219128"/>
    <trkpt lat="45.5291683" lon="7.221953"/>
    <trkpt lat="45.5292298" lon="7.2220591"/>
    <trkpt lat="45.5292478" lon="7.2221689"/>
    <trkpt lat="45.5292862" lon="7.2222896"/>
    <trkpt lat="45.5293016" lon="7.2223811"/>
    <trkpt lat="45.5293606" lon="7.2224287"/>
    <trkpt lat="45.5294118" lon="7.2225458"/>
    <trkpt lat="45.5294285" lon="7.2226047"/>
    <trkpt lat="45.5294503" lon="7.2226812"/>
    <trkpt lat="45.5294657" lon="7.2227763"/>
    <trkpt lat="45.5294759" lon="7.2228751"/>
    <trkpt lat="45.5295092" lon="7.2229666"/>
    <trkpt lat="45.5295682" lon="7.2231532"/>
    <trkpt lat="45.5295803" lon="7.2232594"/>
    <trkpt lat="45.5295461" lon="7.2234268"/>
    <trkpt lat="45.5295023" lon="7.2235406"/>
    <trkpt lat="45.5293721" lon="7.2237188"/>
    <trkpt lat="45.529305" lon="7.2238021"/>
    <trkpt lat="45.5292554" lon="7.2240522"/>
    <trkpt lat="45.5291613" lon="7.2241223"/>
    <trkpt lat="45.5291055" lon="7.2242529"/>
    <trkpt lat="45.5290936" lon="7.2243816"/>
    <trkpt lat="45.5290656" lon="7.2244523"/>
    <trkpt lat="45.5290305" lon="7.2246023"/>
    <trkpt lat="45.5289867" lon="7.2246732"/>
    <trkpt lat="45.5289517" lon="7.2247316"/>
    <trkpt lat="45.5288933" lon="7.2249691"/>
    <trkpt lat="45.5288875" lon="7.2251275"/>
    <trkpt lat="45.5288262" lon="7.2252692"/>
    <trkpt lat="45.5286662" lon="7.2254939"/>
    <trkpt lat="45.5287175" lon="7.2256239"/>
    <trkpt lat="45.5287999" lon="7.2257943"/>
    <trkpt lat="45.5288816" lon="7.2258152"/>
    <trkpt lat="45.5289897" lon="7.2258068"/>
    <trkpt lat="45.5290769" lon="7.2258813"/>
    <trkpt lat="45.5291322" lon="7.2259193"/>
    <trkpt lat="45.5291444" lon="7.2259777"/>
    <trkpt lat="45.5291502" lon="7.2261194"/>
    <trkpt lat="45.5290994" lon="7.2263041"/>
    <trkpt lat="45.529118" lon="7.2265072"/>
    <trkpt lat="45.5291149" lon="7.2267176"/>
    <trkpt lat="45.5291348" lon="7.2268654"/>
    <trkpt lat="45.5291801" lon="7.2269635"/>
    <trkpt lat="45.5292182" lon="7.2270258"/>
    <trkpt lat="45.529263" lon="7.2271311"/>
    <trkpt lat="45.5293167" lon="7.2272364"/>
    <trkpt lat="45.5293663" lon="7.2273073"/>
    <trkpt lat="45.5293809" lon="7.2274448"/>
    <trkpt lat="45.5294568" lon="7.2275657"/>
    <trkpt lat="45.5294889" lon="7.2276824"/>
    <trkpt lat="45.5295502" lon="7.227699"/>
    <trkpt lat="45.5295765" lon="7.2278532"/>
    <trkpt lat="45.5295561" lon="7.227995"/>
    <trkpt lat="45.5295707" lon="7.2280825"/>
    <trkpt lat="45.5296437" lon="7.2281075"/>
    <trkpt lat="45.5296904" lon="7.2281325"/>
    <trkpt lat="45.5297167" lon="7.228295"/>
    <trkpt lat="45.5297313" lon="7.2284492"/>
    <trkpt lat="45.5297605" lon="7.2285659"/>
    <trkpt lat="45.5298335" lon="7.228741"/>
    <trkpt lat="45.5299269" lon="7.2288952"/>
    <trkpt lat="45.5300086" lon="7.2290286"/>
    <trkpt lat="45.5300554" lon="7.2291286"/>
    <trkpt lat="45.5301254" lon="7.229262"/>
    <trkpt lat="45.5301926" lon="7.229362"/>
    <trkpt lat="45.5302568" lon="7.2294787"/>
    <trkpt lat="45.5302948" lon="7.2295412"/>
    <trkpt lat="45.5302773" lon="7.2297663"/>
    <trkpt lat="45.5302831" lon="7.229908"/>
    <trkpt lat="45.5303444" lon="7.2300705"/>
    <trkpt lat="45.530397" lon="7.2301914"/>
    <trkpt lat="45.5304466" lon="7.2302956"/>
    <trkpt lat="45.530505" lon="7.2303998"/>
    <trkpt lat="45.5305663" lon="7.2305498"/>
    <trkpt lat="45.5306451" lon="7.230679"/>
    <trkpt lat="45.5306831" lon="7.2307707"/>
    <trkpt lat="45.5307561" lon="7.2307999"/>
    <trkpt lat="45.5308729" lon="7.2307791"/>
    <trkpt lat="45.5310189" lon="7.2307457"/>
    <trkpt lat="45.5311327" lon="7.2307332"/>
    <trkpt lat="45.5312524" lon="7.2307082"/>
    <trkpt lat="45.5313605" lon="7.230654"/>
    <trkpt lat="45.5314188" lon="7.2306665"/>
    <trkpt lat="45.5313751" lon="7.2308207"/>
    <trkpt lat="45.5313634" lon="7.231"/>
    <trkpt lat="45.5313896" lon="7.231175"/>
    <trkpt lat="45.5314013" lon="7.2313709"/>
    <trkpt lat="45.5314626" lon="7.2314584"/>
    <trkpt lat="45.5315531" lon="7.2315168"/>
    <trkpt lat="45.5316583" lon="7.231621"/>
    <trkpt lat="45.53174" lon="7.2316793"/>
    <trkpt lat="45.5318218" lon="7.231696"/>
    <trkpt lat="45.5319006" lon="7.2316918"/>
    <trkpt lat="45.5320028" lon="7.231721"/>
    <trkpt lat="45.5321079" lon="7.2317335"/>
    <trkpt lat="45.5321604" lon="7.2317877"/>
    <trkpt lat="45.5322393" lon="7.2318043"/>
    <trkpt lat="45.5323473" lon="7.231846"/>
    <trkpt lat="45.532429" lon="7.2318293"/>
    <trkpt lat="45.5325487" lon="7.231846"/>
    <trkpt lat="45.532683" lon="7.2318293"/>
    <trkpt lat="45.5328232" lon="7.231821"/>
    <trkpt lat="45.5329283" lon="7.2317893"/>
    <trkpt lat="45.5330451" lon="7.2317585"/>
    <trkpt lat="45.533121" lon="7.2317418"/>
    <trkpt lat="45.5331677" lon="7.2317918"/>
    <trkpt lat="45.5332348" lon="7.231896"/>
    <trkpt lat="45.5332699" lon="7.2320586"/>
    <trkpt lat="45.5333408" lon="7.2321215"/>
    <trkpt lat="45.5333884" lon="7.2322461"/>
    <trkpt lat="45.5334485" lon="7.2323795"/>
    <trkpt lat="45.5334686" lon="7.2324723"/>
    <trkpt lat="45.5335334" lon="7.2325362"/>
    <trkpt lat="45.5335755" lon="7.232544"/>
    <trkpt lat="45.5337136" lon="7.2326212"/>
    <trkpt lat="45.5337866" lon="7.2327171"/>
    <trkpt lat="45.5338064" lon="7.2329164"/>
    <trkpt lat="45.5338225" lon="7.2331039"/>
    <trkpt lat="45.5339082" lon="7.2333196"/>
    <trkpt lat="45.5339238" lon="7.2334631"/>
    <trkpt lat="45.5339501" lon="7.233559"/>
    <trkpt lat="45.5340202" lon="7.2336507"/>
    <trkpt lat="45.534134" lon="7.2336382"/>
    <trkpt lat="45.5342479" lon="7.2335923"/>
    <trkpt lat="45.5343647" lon="7.2335673"/>
    <trkpt lat="45.5344406" lon="7.2335215"/>
    <trkpt lat="45.5345311" lon="7.233509"/>
    <trkpt lat="45.5346712" lon="7.2334923"/>
    <trkpt lat="45.5347763" lon="7.2334715"/>
    <trkpt lat="45.5348931" lon="7.2334965"/>
    <trkpt lat="45.5349894" lon="7.233534"/>
    <trkpt lat="45.5350829" lon="7.2335507"/>
    <trkpt lat="45.5351704" lon="7.2335673"/>
    <trkpt lat="45.5352434" lon="7.2335673"/>
    <trkpt lat="45.5353427" lon="7.233584"/>
    <trkpt lat="45.5354332" lon="7.2335632"/>
    <trkpt lat="45.5355033" lon="7.2334881"/>
    <trkpt lat="45.5355617" lon="7.2334173"/>
    <trkpt lat="45.5356317" lon="7.2333423"/>
    <trkpt lat="45.5356697" lon="7.2332714"/>
    <trkpt lat="45.535731" lon="7.2332131"/>
    <trkpt lat="45.5358069" lon="7.2332006"/>
    <trkpt lat="45.5358682" lon="7.2331922"/>
    <trkpt lat="45.5359259" lon="7.2331722"/>
    <trkpt lat="45.5359587" lon="7.2331964"/>
    <trkpt lat="45.5360258" lon="7.2333339"/>
    <trkpt lat="45.5360988" lon="7.2334215"/>
    <trkpt lat="45.5361718" lon="7.2335131"/>
    <trkpt lat="45.5362565" lon="7.2336173"/>
    <trkpt lat="45.5363353" lon="7.2336924"/>
    <trkpt lat="45.5364491" lon="7.2338216"/>
    <trkpt lat="45.5365134" lon="7.2338966"/>
    <trkpt lat="45.5365601" lon="7.2339883"/>
    <trkpt lat="45.5366156" lon="7.2341258"/>
    <trkpt lat="45.5366623" lon="7.2342425"/>
    <trkpt lat="45.5367119" lon="7.2342842"/>
    <trkpt lat="45.5368374" lon="7.2342713"/>
    <trkpt lat="45.5369425" lon="7.2342673"/>
    <trkpt lat="45.5370067" lon="7.2342509"/>
    <trkpt lat="45.5370736" lon="7.2342098"/>
    <trkpt lat="45.5371206" lon="7.2342015"/>
    <trkpt lat="45.5371449" lon="7.2343153"/>
    <trkpt lat="45.5371559" lon="7.2344542"/>
    <trkpt lat="45.537188" lon="7.234469"/>
    <trkpt lat="45.5372178" lon="7.2344584"/>
    <trkpt lat="45.5372136" lon="7.234628"/>
    <trkpt lat="45.5372403" lon="7.2347552"/>
    <trkpt lat="45.537315" lon="7.2348483"/>
    <trkpt lat="45.5373454" lon="7.2350011"/>
    <trkpt lat="45.5373971" lon="7.2350659"/>
    <trkpt lat="45.5373979" lon="7.2350969"/>
    <trkpt lat="45.5374035" lon="7.2351861"/>
    <trkpt lat="45.5374259" lon="7.2352397"/>
    <trkpt lat="45.5374388" lon="7.2353261"/>
    <trkpt lat="45.5374761" lon="7.2353728"/>
    <trkpt lat="45.5374768" lon="7.2354595"/>
    <trkpt lat="45.5375022" lon="7.2355296"/>
    <trkpt lat="45.537541" lon="7.2356054"/>
    <trkpt lat="45.537594" lon="7.2356579"/>
    <trkpt lat="45.5376052" lon="7.2356929"/>
    <trkpt lat="45.5376373" lon="7.2358173"/>
    <trkpt lat="45.5376678" lon="7.2358743"/>
    <trkpt lat="45.5376853" lon="7.23588"/>
    <trkpt lat="45.5377028" lon="7.2359127"/>
    <trkpt lat="45.5377013" lon="7.2359841"/>
    <trkpt lat="45.5377424" lon="7.2360305"/>
    <trkpt lat="45.5377943" lon="7.2361662"/>
    <trkpt lat="45.5377995" lon="7.2362108"/>
    <trkpt lat="45.5378027" lon="7.2362661"/>
    <trkpt lat="45.5378205" lon="7.2364519"/>
    <trkpt lat="45.5378026" lon="7.2365"/>
    <trkpt lat="45.5378055" lon="7.2365608"/>
    <trkpt lat="45.5377977" lon="7.2366227"/>
    <trkpt lat="45.5377762" lon="7.2367816"/>
    <trkpt lat="45.537757" lon="7.2369561"/>
    <trkpt lat="45.5377547" lon="7.2370385"/>
    <trkpt lat="45.5377777" lon="7.2371298"/>
    <trkpt lat="45.537792" lon="7.2372267"/>
    <trkpt lat="45.53783" lon="7.2373017"/>
    <trkpt lat="45.5379261" lon="7.2374767"/>
    <trkpt lat="45.5380197" lon="7.2376643"/>
    <trkpt lat="45.5380811" lon="7.2377727"/>
    <trkpt lat="45.5381336" lon="7.237906"/>
    <trkpt lat="45.5381831" lon="7.2379399"/>
    <trkpt lat="45.5382129" lon="7.2380278"/>
    <trkpt lat="45.5382798" lon="7.2381493"/>
    <trkpt lat="45.5383259" lon="7.238225"/>
    <trkpt lat="45.5384141" lon="7.2383208"/>
    <trkpt lat="45.5384821" lon="7.2383543"/>
    <trkpt lat="45.5385206" lon="7.2384266"/>
    <trkpt lat="45.5385481" lon="7.2385604"/>
    <trkpt lat="45.5385846" lon="7.2386765"/>
    <trkpt lat="45.5386546" lon="7.2387472"/>
    <trkpt lat="45.5387316" lon="7.2388181"/>
    <trkpt lat="45.538812" lon="7.2388813"/>
    <trkpt lat="45.5388962" lon="7.2389188"/>
    <trkpt lat="45.5389982" lon="7.2389391"/>
    <trkpt lat="45.5391225" lon="7.2390505"/>
    <trkpt lat="45.5391403" lon="7.2392466"/>
    <trkpt lat="45.5391542" lon="7.239387"/>
    <trkpt lat="45.5392159" lon="7.2395055"/>
    <trkpt lat="45.5392312" lon="7.2395768"/>
    <trkpt lat="45.5392662" lon="7.2396477"/>
    <trkpt lat="45.5392468" lon="7.239805"/>
    <trkpt lat="45.5393028" lon="7.2399101"/>
    <trkpt lat="45.5393043" lon="7.2400174"/>
    <trkpt lat="45.5393217" lon="7.2401314"/>
    <trkpt lat="45.5393368" lon="7.2402626"/>
    <trkpt lat="45.5393609" lon="7.2403603"/>
    <trkpt lat="45.5393562" lon="7.2404742"/>
    <trkpt lat="45.5393845" lon="7.2405551"/>
    <trkpt lat="45.5393935" lon="7.2406434"/>
    <trkpt lat="45.5393742" lon="7.2407556"/>
    <trkpt lat="45.5393355" lon="7.2408347"/>
    <trkpt lat="45.5393317" lon="7.2408954"/>
    <trkpt lat="45.5393652" lon="7.2409028"/>
    <trkpt lat="45.539436" lon="7.2407943"/>
    <trkpt lat="45.5394902" lon="7.240671"/>
    <trkpt lat="45.5395585" lon="7.2405698"/>
    <trkpt lat="45.5396358" lon="7.2405017"/>
    <trkpt lat="45.5396783" lon="7.2404502"/>
    <trkpt lat="45.5397079" lon="7.240292"/>
    <trkpt lat="45.5397856" lon="7.2400944"/>
    <trkpt lat="45.5398335" lon="7.2398398"/>
    <trkpt lat="45.5398381" lon="7.2395506"/>
    <trkpt lat="45.5398729" lon="7.2393252"/>
    <trkpt lat="45.539862" lon="7.239199"/>
    <trkpt lat="45.5398502" lon="7.2391325"/>
    <trkpt lat="45.5398406" lon="7.2390487"/>
    <trkpt lat="45.53986" lon="7.2389748"/>
    <trkpt lat="45.5398767" lon="7.2388755"/>
    <trkpt lat="45.5398712" lon="7.2387193"/>
    <trkpt lat="45.5398659" lon="7.2385432"/>
    <trkpt lat="45.5398797" lon="7.2383995"/>
    <trkpt lat="45.5399027" lon="7.2382662"/>
    <trkpt lat="45.5399229" lon="7.2382038"/>
    <trkpt lat="45.5399519" lon="7.238161"/>
    <trkpt lat="45.5399796" lon="7.2380991"/>
    <trkpt lat="45.5400209" lon="7.2380885"/>
    <trkpt lat="45.5400614" lon="7.2381186"/>
    <trkpt lat="45.5400847" lon="7.2381757"/>
    <trkpt lat="45.5401075" lon="7.2384088"/>
    <trkpt lat="45.5401177" lon="7.2385845"/>
    <trkpt lat="45.5401478" lon="7.2387774"/>
    <trkpt lat="45.5401664" lon="7.2389654"/>
    <trkpt lat="45.5401644" lon="7.2392265"/>
    <trkpt lat="45.5401844" lon="7.2393332"/>
  </trkseg></trk></gpx>