<?xml version="1.0" encoding="UTF-8"?>
<gpx version="1.1" creator="GranParadiso" xmlns="http://www.topografix.com/GPX/1/1">
  <trk><name>B Day3: Tètras (Route3) → VE2 → Pont</name><trkseg>
    <trkpt lat="45.5174303" lon="7.1788212"/>
    <trkpt lat="45.517782" lon="7.1787028"/>
    <trkpt lat="45.5181929" lon="7.1785161"/>
    <trkpt lat="45.5182888" lon="7.1785073"/>
    <trkpt lat="45.5183636" lon="7.1785367"/>
    <trkpt lat="45.5184551" lon="7.1786119"/>
    <trkpt lat="45.5185472" lon="7.1786803"/>
    <trkpt lat="45.5186009" lon="7.178777"/>
    <trkpt lat="45.5186936" lon="7.1788948"/>
    <trkpt lat="45.5187845" lon="7.17899"/>
    <trkpt lat="45.5188371" lon="7.1789342"/>
    <trkpt lat="45.518873" lon="7.1790563"/>
    <trkpt lat="45.5189681" lon="7.1791675"/>
    <trkpt lat="45.5191009" lon="7.1791783"/>
    <trkpt lat="45.5192248" lon="7.1791065"/>
    <trkpt lat="45.5193432" lon="7.1790719"/>
    <trkpt lat="45.5195262" lon="7.1790778"/>
    <trkpt lat="45.5196124" lon="7.1791496"/>
    <trkpt lat="45.519714" lon="7.1792534"/>
    <trkpt lat="45.5198062" lon="7.1793533"/>
    <trkpt lat="45.5198258" lon="7.1794788"/>
    <trkpt lat="45.5198253" lon="7.179629"/>
    <trkpt lat="45.5199375" lon="7.1796847"/>
    <trkpt lat="45.5199434" lon="7.1798082"/>
    <trkpt lat="45.5200179" lon="7.1798944"/>
    <trkpt lat="45.520263" lon="7.1799435"/>
    <trkpt lat="45.5204146" lon="7.1800877"/>
    <trkpt lat="45.5205103" lon="7.1802624"/>
    <trkpt lat="45.5206059" lon="7.1804918"/>
    <trkpt lat="45.5205983" lon="7.1805901"/>
    <trkpt lat="45.5205957" lon="7.1806803"/>
    <trkpt lat="45.5206011" lon="7.180761"/>
    <trkpt lat="45.520646" lon="7.1808543"/>
    <trkpt lat="45.5206551" lon="7.1809982"/>
    <trkpt lat="45.5208021" lon="7.1811589"/>
    <trkpt lat="45.5207276" lon="7.1813119"/>
    <trkpt lat="45.5206609" lon="7.1814962"/>
    <trkpt lat="45.5206727" lon="7.181551"/>
    <trkpt lat="45.5207943" lon="7.1815805"/>
    <trkpt lat="45.5209082" lon="7.1817588"/>
    <trkpt lat="45.5210705" lon="7.1819159"/>
    <trkpt lat="45.5211599" lon="7.1819917"/>
    <trkpt lat="45.5212305" lon="7.1820982"/>
    <trkpt lat="45.5213519" lon="7.1822655"/>
    <trkpt lat="45.5214189" lon="7.1823802"/>
    <trkpt lat="45.5214737" lon="7.1824949"/>
    <trkpt lat="45.5215013" lon="7.1825998"/>
    <trkpt lat="45.5215469" lon="7.1828422"/>
    <trkpt lat="45.5216429" lon="7.1829973"/>
    <trkpt lat="45.5216494" lon="7.1830079"/>
    <trkpt lat="45.5216855" lon="7.1830301"/>
    <trkpt lat="45.5217608" lon="7.1829531"/>
    <trkpt lat="45.5218285" lon="7.1829477"/>
    <trkpt lat="45.5218658" lon="7.1829561"/>
    <trkpt lat="45.5219581" lon="7.1829933"/>
    <trkpt lat="45.5220064" lon="7.1830094"/>
    <trkpt lat="45.5220822" lon="7.1830362"/>
    <trkpt lat="45.5221012" lon="7.1830624"/>
    <trkpt lat="45.5221197" lon="7.1831354"/>
    <trkpt lat="45.522147" lon="7.1832173"/>
    <trkpt lat="45.5221818" lon="7.1832447"/>
    <trkpt lat="45.5222461" lon="7.1832729"/>
    <trkpt lat="45.5222757" lon="7.1832816"/>
    <trkpt lat="45.5222835" lon="7.1833092"/>
    <trkpt lat="45.5222851" lon="7.1834144"/>
    <trkpt lat="45.522302" lon="7.1835431"/>
    <trkpt lat="45.5223347" lon="7.183666"/>
    <trkpt lat="45.5223791" lon="7.1837416"/>
    <trkpt lat="45.5224467" lon="7.1838208"/>
    <trkpt lat="45.5225116" lon="7.183861"/>
    <trkpt lat="45.5225267" lon="7.1838668"/>
    <trkpt lat="45.5225614" lon="7.1839133"/>
    <trkpt lat="45.5225839" lon="7.1839777"/>
    <trkpt lat="45.5225896" lon="7.1840367"/>
    <trkpt lat="45.5225943" lon="7.1840823"/>
    <trkpt lat="45.5226093" lon="7.1841118"/>
    <trkpt lat="45.5226375" lon="7.1841426"/>
    <trkpt lat="45.5226318" lon="7.1841775"/>
    <trkpt lat="45.5226196" lon="7.1842003"/>
    <trkpt lat="45.5226215" lon="7.1842486"/>
    <trkpt lat="45.5226253" lon="7.1843424"/>
    <trkpt lat="45.5226568" lon="7.1843966"/>
    <trkpt lat="45.5226995" lon="7.1844242"/>
    <trkpt lat="45.5227493" lon="7.1844457"/>
    <trkpt lat="45.52277" lon="7.1844833"/>
    <trkpt lat="45.5227906" lon="7.1845369"/>
    <trkpt lat="45.5228169" lon="7.1845651"/>
    <trkpt lat="45.5228442" lon="7.1845812"/>
    <trkpt lat="45.5228724" lon="7.1846254"/>
    <trkpt lat="45.5229043" lon="7.1846898"/>
    <trkpt lat="45.5229165" lon="7.1847394"/>
    <trkpt lat="45.5229156" lon="7.1848132"/>
    <trkpt lat="45.5228893" lon="7.1848829"/>
    <trkpt lat="45.5228517" lon="7.1849258"/>
    <trkpt lat="45.5227671" lon="7.1849446"/>
    <trkpt lat="45.5226826" lon="7.1849325"/>
    <trkpt lat="45.5226422" lon="7.1849419"/>
    <trkpt lat="45.5225792" lon="7.1849929"/>
    <trkpt lat="45.5225539" lon="7.185068"/>
    <trkpt lat="45.5225332" lon="7.1851283"/>
    <trkpt lat="45.5225106" lon="7.1851739"/>
    <trkpt lat="45.5225069" lon="7.1852142"/>
    <trkpt lat="45.5225228" lon="7.1852356"/>
    <trkpt lat="45.5225745" lon="7.185308"/>
    <trkpt lat="45.5226005" lon="7.1853495"/>
    <trkpt lat="45.522629" lon="7.1853952"/>
    <trkpt lat="45.5226488" lon="7.1854448"/>
    <trkpt lat="45.5226568" lon="7.1854779"/>
    <trkpt lat="45.5226478" lon="7.1855722"/>
    <trkpt lat="45.5226478" lon="7.1856594"/>
    <trkpt lat="45.5226563" lon="7.1857868"/>
    <trkpt lat="45.5226353" lon="7.1858753"/>
    <trkpt lat="45.52263" lon="7.1859813"/>
    <trkpt lat="45.522653" lon="7.1860513"/>
    <trkpt lat="45.5227066" lon="7.1862807"/>
    <trkpt lat="45.5228137" lon="7.1864882"/>
    <trkpt lat="45.5228635" lon="7.1866575"/>
    <trkpt lat="45.5229782" lon="7.1867449"/>
    <trkpt lat="45.5230919" lon="7.1867869"/>
    <trkpt lat="45.5231045" lon="7.1869524"/>
    <trkpt lat="45.5231062" lon="7.1872571"/>
    <trkpt lat="45.5231542" lon="7.1873401"/>
    <trkpt lat="45.5233073" lon="7.1873838"/>
    <trkpt lat="45.5235866" lon="7.1874439"/>
    <trkpt lat="45.5238238" lon="7.1874876"/>
    <trkpt lat="45.5240836" lon="7.1875689"/>
    <trkpt lat="45.5241369" lon="7.1876315"/>
    <trkpt lat="45.5242356" lon="7.1876897"/>
    <trkpt lat="45.5243124" lon="7.1877299"/>
    <trkpt lat="45.5244174" lon="7.1877836"/>
    <trkpt lat="45.5244362" lon="7.1878306"/>
    <trkpt lat="45.5244892" lon="7.1879541"/>
    <trkpt lat="45.5245234" lon="7.1880737"/>
    <trkpt lat="45.5245569" lon="7.1881795"/>
    <trkpt lat="45.5246258" lon="7.1883048"/>
    <trkpt lat="45.5246493" lon="7.1883898"/>
    <trkpt lat="45.524665" lon="7.188524"/>
    <trkpt lat="45.524676" lon="7.1886649"/>
    <trkpt lat="45.5246807" lon="7.1888081"/>
    <trkpt lat="45.5246838" lon="7.1889065"/>
    <trkpt lat="45.5246739" lon="7.1890137"/>
    <trkpt lat="45.5246009" lon="7.1890119"/>
    <trkpt lat="45.5245427" lon="7.1889813"/>
    <trkpt lat="45.5244264" lon="7.1889988"/>
    <trkpt lat="45.5243009" lon="7.1889463"/>
    <trkpt lat="45.5241846" lon="7.1890162"/>
    <trkpt lat="45.5240346" lon="7.1889725"/>
    <trkpt lat="45.5238571" lon="7.1889158"/>
    <trkpt lat="45.5237653" lon="7.1890162"/>
    <trkpt lat="45.5237744" lon="7.1891124"/>
    <trkpt lat="45.5238571" lon="7.1891648"/>
    <trkpt lat="45.5237469" lon="7.1892478"/>
    <trkpt lat="45.523753" lon="7.1893133"/>
    <trkpt lat="45.5237989" lon="7.1893526"/>
    <trkpt lat="45.523903" lon="7.1893701"/>
    <trkpt lat="45.5240377" lon="7.1894225"/>
    <trkpt lat="45.5241632" lon="7.1894138"/>
    <trkpt lat="45.5240897" lon="7.1895492"/>
    <trkpt lat="45.5241846" lon="7.1896104"/>
    <trkpt lat="45.5243165" lon="7.1895885"/>
    <trkpt lat="45.5244342" lon="7.1895506"/>
    <trkpt lat="45.5243468" lon="7.1896872"/>
    <trkpt lat="45.5243241" lon="7.1897461"/>
    <trkpt lat="45.5243886" lon="7.1897783"/>
    <trkpt lat="45.5244797" lon="7.1897726"/>
    <trkpt lat="45.5246316" lon="7.1899397"/>
    <trkpt lat="45.5247398" lon="7.1899834"/>
    <trkpt lat="45.5248764" lon="7.1900707"/>
    <trkpt lat="45.5249865" lon="7.1901485"/>
    <trkpt lat="45.5251308" lon="7.1902605"/>
    <trkpt lat="45.5250549" lon="7.1903023"/>
    <trkpt lat="45.5249774" lon="7.1902789"/>
    <trkpt lat="45.524858" lon="7.1902832"/>
    <trkpt lat="45.5248794" lon="7.1903619"/>
    <trkpt lat="45.524996" lon="7.1904256"/>
    <trkpt lat="45.5250511" lon="7.1904921"/>
    <trkpt lat="45.52496" lon="7.1905471"/>
    <trkpt lat="45.5248043" lon="7.190494"/>
    <trkpt lat="45.5248404" lon="7.1906003"/>
    <trkpt lat="45.5249505" lon="7.1907199"/>
    <trkpt lat="45.5249979" lon="7.1908433"/>
    <trkpt lat="45.525109" lon="7.1909255"/>
    <trkpt lat="45.5252192" lon="7.1909604"/>
    <trkpt lat="45.525363" lon="7.1909823"/>
    <trkpt lat="45.5254273" lon="7.1911221"/>
    <trkpt lat="45.5254838" lon="7.1910696"/>
    <trkpt lat="45.5255427" lon="7.1911064"/>
    <trkpt lat="45.525574" lon="7.1911958"/>
    <trkpt lat="45.5255491" lon="7.1913495"/>
    <trkpt lat="45.525461" lon="7.1913929"/>
    <trkpt lat="45.5253998" lon="7.1913012"/>
    <trkpt lat="45.5253569" lon="7.1913318"/>
    <trkpt lat="45.5253355" lon="7.1914847"/>
    <trkpt lat="45.5251672" lon="7.1914672"/>
    <trkpt lat="45.5250661" lon="7.1913755"/>
    <trkpt lat="45.5249866" lon="7.191406"/>
    <trkpt lat="45.525008" lon="7.1915633"/>
    <trkpt lat="45.524959" lon="7.1916594"/>
    <trkpt lat="45.5250202" lon="7.1917643"/>
    <trkpt lat="45.5251212" lon="7.1918997"/>
    <trkpt lat="45.525186" lon="7.1920329"/>
    <trkpt lat="45.5251446" lon="7.1922066"/>
    <trkpt lat="45.5251446" lon="7.1923683"/>
    <trkpt lat="45.5251997" lon="7.1925299"/>
    <trkpt lat="45.5252061" lon="7.1925757"/>
    <trkpt lat="45.525215" lon="7.1926392"/>
    <trkpt lat="45.5251997" lon="7.1929275"/>
    <trkpt lat="45.5251722" lon="7.1931459"/>
    <trkpt lat="45.5251783" lon="7.1934474"/>
    <trkpt lat="45.5252303" lon="7.1936571"/>
    <trkpt lat="45.5252637" lon="7.1938956"/>
    <trkpt lat="45.5253548" lon="7.1940797"/>
    <trkpt lat="45.5253662" lon="7.194224"/>
    <trkpt lat="45.5254022" lon="7.1943379"/>
    <trkpt lat="45.5254478" lon="7.1944651"/>
    <trkpt lat="45.5254232" lon="7.19471"/>
    <trkpt lat="45.5254293" lon="7.1949241"/>
    <trkpt lat="45.5254497" lon="7.1951541"/>
    <trkpt lat="45.5254354" lon="7.1953173"/>
    <trkpt lat="45.5254018" lon="7.1954265"/>
    <trkpt lat="45.5253283" lon="7.1953654"/>
    <trkpt lat="45.5252763" lon="7.195195"/>
    <trkpt lat="45.5251967" lon="7.1952081"/>
    <trkpt lat="45.5251599" lon="7.1953217"/>
    <trkpt lat="45.5251569" lon="7.1954921"/>
    <trkpt lat="45.5251355" lon="7.1956144"/>
    <trkpt lat="45.5250559" lon="7.1956756"/>
    <trkpt lat="45.5249181" lon="7.1957367"/>
    <trkpt lat="45.5248569" lon="7.1959333"/>
    <trkpt lat="45.5248447" lon="7.1962566"/>
    <trkpt lat="45.5247743" lon="7.1963615"/>
    <trkpt lat="45.5246396" lon="7.1965275"/>
    <trkpt lat="45.5245447" lon="7.1966717"/>
    <trkpt lat="45.5244253" lon="7.1967503"/>
    <trkpt lat="45.5243427" lon="7.1968595"/>
    <trkpt lat="45.5243702" lon="7.1969513"/>
    <trkpt lat="45.5244406" lon="7.1969163"/>
    <trkpt lat="45.5245019" lon="7.1969207"/>
    <trkpt lat="45.5244682" lon="7.1970518"/>
    <trkpt lat="45.5245416" lon="7.1970867"/>
    <trkpt lat="45.5246182" lon="7.1970911"/>
    <trkpt lat="45.5247284" lon="7.1971479"/>
    <trkpt lat="45.5248018" lon="7.1971654"/>
    <trkpt lat="45.5248998" lon="7.197126"/>
    <trkpt lat="45.5249457" lon="7.1971828"/>
    <trkpt lat="45.5249702" lon="7.1973532"/>
    <trkpt lat="45.5250069" lon="7.1974799"/>
    <trkpt lat="45.5250651" lon="7.1975586"/>
    <trkpt lat="45.5250895" lon="7.1976678"/>
    <trkpt lat="45.525062" lon="7.1977901"/>
    <trkpt lat="45.5250038" lon="7.1979605"/>
    <trkpt lat="45.5249181" lon="7.1980392"/>
    <trkpt lat="45.5248508" lon="7.1981309"/>
    <trkpt lat="45.5247712" lon="7.1981877"/>
    <trkpt lat="45.5247272" lon="7.1983045"/>
    <trkpt lat="45.5247155" lon="7.198494"/>
    <trkpt lat="45.5247232" lon="7.1987223"/>
    <trkpt lat="45.524759" lon="7.1989479"/>
    <trkpt lat="45.5247988" lon="7.1990571"/>
    <trkpt lat="45.5248508" lon="7.1992406"/>
    <trkpt lat="45.5248416" lon="7.1992887"/>
    <trkpt lat="45.5247625" lon="7.1993587"/>
    <trkpt lat="45.5246695" lon="7.1994195"/>
    <trkpt lat="45.5245537" lon="7.1995239"/>
    <trkpt lat="45.5244927" lon="7.1996382"/>
    <trkpt lat="45.5244621" lon="7.1997998"/>
    <trkpt lat="45.524511" lon="7.1998304"/>
    <trkpt lat="45.5245692" lon="7.1998435"/>
    <trkpt lat="45.5246335" lon="7.1998916"/>
    <trkpt lat="45.5247069" lon="7.2000052"/>
    <trkpt lat="45.5247437" lon="7.2000663"/>
    <trkpt lat="45.5247743" lon="7.2001319"/>
    <trkpt lat="45.5247253" lon="7.2001805"/>
    <trkpt lat="45.5246396" lon="7.2001855"/>
    <trkpt lat="45.5245214" lon="7.2002103"/>
    <trkpt lat="45.5244657" lon="7.2002608"/>
    <trkpt lat="45.5244557" lon="7.2003252"/>
    <trkpt lat="45.5244806" lon="7.2003664"/>
    <trkpt lat="45.524542" lon="7.2003812"/>
    <trkpt lat="45.5246319" lon="7.2004044"/>
    <trkpt lat="45.5247097" lon="7.2004637"/>
    <trkpt lat="45.524479" lon="7.2015383"/>
    <trkpt lat="45.5244678" lon="7.2016565"/>
    <trkpt lat="45.5244668" lon="7.2021678"/>
    <trkpt lat="45.5244579" lon="7.2022882"/>
    <trkpt lat="45.5244356" lon="7.2025704"/>
    <trkpt lat="45.524243" lon="7.2026426"/>
    <trkpt lat="45.524031" lon="7.2028389"/>
    <trkpt lat="45.5238694" lon="7.2029355"/>
    <trkpt lat="45.5237587" lon="7.202927"/>
    <trkpt lat="45.5236927" lon="7.202922"/>
    <trkpt lat="45.5236251" lon="7.2029489"/>
    <trkpt lat="45.5235443" lon="7.2030132"/>
    <trkpt lat="45.5235333" lon="7.2030119"/>
    <trkpt lat="45.5234278" lon="7.2029998"/>
    <trkpt lat="45.5232417" lon="7.2030106"/>
    <trkpt lat="45.5231158" lon="7.2029086"/>
    <trkpt lat="45.5230237" lon="7.2029462"/>
    <trkpt lat="45.5229223" lon="7.202922"/>
    <trkpt lat="45.5228208" lon="7.2029328"/>
    <trkpt lat="45.5226855" lon="7.2030025"/>
    <trkpt lat="45.522507" lon="7.2030079"/>
    <trkpt lat="45.522366" lon="7.2030615"/>
    <trkpt lat="45.5222589" lon="7.2031339"/>
    <trkpt lat="45.522086" lon="7.2032037"/>
    <trkpt lat="45.5219" lon="7.2031232"/>
    <trkpt lat="45.5217722" lon="7.2030749"/>
    <trkpt lat="45.5214715" lon="7.2030136"/>
    <trkpt lat="45.5212771" lon="7.2031134"/>
    <trkpt lat="45.5211158" lon="7.2032987"/>
    <trkpt lat="45.5208837" lon="7.2033604"/>
    <trkpt lat="45.5208091" lon="7.2034221"/>
    <trkpt lat="45.5205316" lon="7.2038218"/>
    <trkpt lat="45.5203154" lon="7.2039616"/>
    <trkpt lat="45.519991" lon="7.2042365"/>
    <trkpt lat="45.5196734" lon="7.2044342"/>
    <trkpt lat="45.5192848" lon="7.2045547"/>
    <trkpt lat="45.5191902" lon="7.2046608"/>
    <trkpt lat="45.5190923" lon="7.2046898"/>
    <trkpt lat="45.5189301" lon="7.2049646"/>
    <trkpt lat="45.5186936" lon="7.2050032"/>
    <trkpt lat="45.5185776" lon="7.2050688"/>
    <trkpt lat="45.5183117" lon="7.2051538"/>
    <trkpt lat="45.5181843" lon="7.2051515"/>
    <trkpt lat="45.5176175" lon="7.2054823"/>
    <trkpt lat="45.5174365" lon="7.205466"/>
    <trkpt lat="45.5172299" lon="7.2055478"/>
    <trkpt lat="45.5170665" lon="7.2055746"/>
    <trkpt lat="45.5168909" lon="7.2055406"/>
    <trkpt lat="45.516821" lon="7.2054975"/>
    <trkpt lat="45.5166931" lon="7.2054847"/>
    <trkpt lat="45.5165192" lon="7.2055529"/>
    <trkpt lat="45.5163044" lon="7.2056216"/>
    <trkpt lat="45.515938" lon="7.2056851"/>
    <trkpt lat="45.515704" lon="7.2056827"/>
    <trkpt lat="45.5156616" lon="7.2056823"/>
    <trkpt lat="45.515477" lon="7.2057364"/>
    <trkpt lat="45.5153952" lon="7.2057604"/>
    <trkpt lat="45.5152982" lon="7.2057861"/>
    <trkpt lat="45.515219" lon="7.2058631"/>
    <trkpt lat="45.5151523" lon="7.2059329"/>
    <trkpt lat="45.5151081" lon="7.2059637"/>
    <trkpt lat="45.515079" lon="7.2060093"/>
    <trkpt lat="45.5150621" lon="7.2060683"/>
    <trkpt lat="45.5150649" lon="7.2061635"/>
    <trkpt lat="45.5150527" lon="7.2062547"/>
    <trkpt lat="45.5150132" lon="7.2063634"/>
    <trkpt lat="45.5149615" lon="7.2064935"/>
    <trkpt lat="45.5148967" lon="7.2066101"/>
    <trkpt lat="45.514757" lon="7.2067885"/>
    <trkpt lat="45.5147174" lon="7.2068523"/>
    <trkpt lat="45.5146539" lon="7.206959"/>
    <trkpt lat="45.5144475" lon="7.2072016"/>
    <trkpt lat="45.5143516" lon="7.2072539"/>
    <trkpt lat="45.5142501" lon="7.2072646"/>
    <trkpt lat="45.5141674" lon="7.2073196"/>
    <trkpt lat="45.5141214" lon="7.2074228"/>
    <trkpt lat="45.5140105" lon="7.207506"/>
    <trkpt lat="45.5139306" lon="7.2076709"/>
    <trkpt lat="45.5139513" lon="7.2077581"/>
    <trkpt lat="45.513994" lon="7.207778"/>
    <trkpt lat="45.5140871" lon="7.2077647"/>
    <trkpt lat="45.5141616" lon="7.207788"/>
    <trkpt lat="45.5142524" lon="7.2078345"/>
    <trkpt lat="45.5143199" lon="7.2079208"/>
    <trkpt lat="45.5143967" lon="7.2079208"/>
    <trkpt lat="45.5146085" lon="7.2079673"/>
    <trkpt lat="45.5146727" lon="7.2079876"/>
    <trkpt lat="45.5147076" lon="7.2079985"/>
    <trkpt lat="45.5147668" lon="7.2080172"/>
    <trkpt lat="45.5148831" lon="7.2080703"/>
    <trkpt lat="45.5148017" lon="7.2081666"/>
    <trkpt lat="45.5147737" lon="7.2082297"/>
    <trkpt lat="45.5147109" lon="7.2082729"/>
    <trkpt lat="45.514527" lon="7.2083526"/>
    <trkpt lat="45.5144479" lon="7.2084058"/>
    <trkpt lat="45.5142314" lon="7.2085253"/>
    <trkpt lat="45.5140918" lon="7.2086316"/>
    <trkpt lat="45.5140499" lon="7.2086881"/>
    <trkpt lat="45.5140801" lon="7.2087313"/>
    <trkpt lat="45.5141732" lon="7.2087346"/>
    <trkpt lat="45.5143036" lon="7.2087579"/>
    <trkpt lat="45.5145061" lon="7.2087678"/>
    <trkpt lat="45.5145619" lon="7.2087944"/>
    <trkpt lat="45.514541" lon="7.2088442"/>
    <trkpt lat="45.5144944" lon="7.2088641"/>
    <trkpt lat="45.5144525" lon="7.2089206"/>
    <trkpt lat="45.5144432" lon="7.2089571"/>
    <trkpt lat="45.5144805" lon="7.2089904"/>
    <trkpt lat="45.5145363" lon="7.2090003"/>
    <trkpt lat="45.5146178" lon="7.2089837"/>
    <trkpt lat="45.5146969" lon="7.2090136"/>
    <trkpt lat="45.5146062" lon="7.2090767"/>
    <trkpt lat="45.5146062" lon="7.2091166"/>
    <trkpt lat="45.514683" lon="7.2091232"/>
    <trkpt lat="45.5146201" lon="7.209193"/>
    <trkpt lat="45.5146969" lon="7.2092229"/>
    <trkpt lat="45.5146364" lon="7.209276"/>
    <trkpt lat="45.5145619" lon="7.2093159"/>
    <trkpt lat="45.5145177" lon="7.2093856"/>
    <trkpt lat="45.5145224" lon="7.2094255"/>
    <trkpt lat="45.5146108" lon="7.2094786"/>
    <trkpt lat="45.5145829" lon="7.2095218"/>
    <trkpt lat="45.514534" lon="7.2096248"/>
    <trkpt lat="45.514548" lon="7.2096547"/>
    <trkpt lat="45.5146201" lon="7.2097111"/>
    <trkpt lat="45.5146923" lon="7.2096945"/>
    <trkpt lat="45.51479" lon="7.2096846"/>
    <trkpt lat="45.5149646" lon="7.2097377"/>
    <trkpt lat="45.5149948" lon="7.2097908"/>
    <trkpt lat="45.5149785" lon="7.2099104"/>
    <trkpt lat="45.5149413" lon="7.2100067"/>
    <trkpt lat="45.5148901" lon="7.210113"/>
    <trkpt lat="45.5148808" lon="7.2101761"/>
    <trkpt lat="45.5149157" lon="7.2102725"/>
    <trkpt lat="45.5149648" lon="7.2103591"/>
    <trkpt lat="45.5150252" lon="7.2105041"/>
    <trkpt lat="45.5151433" lon="7.2105864"/>
    <trkpt lat="45.5152229" lon="7.210602"/>
    <trkpt lat="45.5152641" lon="7.2107078"/>
    <trkpt lat="45.5152696" lon="7.210747"/>
    <trkpt lat="45.5153191" lon="7.2107862"/>
    <trkpt lat="45.5154152" lon="7.210845"/>
    <trkpt lat="45.5154289" lon="7.2109116"/>
    <trkpt lat="45.5153795" lon="7.2109195"/>
    <trkpt lat="45.5152229" lon="7.210845"/>
    <trkpt lat="45.5151543" lon="7.2108646"/>
    <trkpt lat="45.5152394" lon="7.21099"/>
    <trkpt lat="45.515179" lon="7.2110214"/>
    <trkpt lat="45.5151021" lon="7.2110409"/>
    <trkpt lat="45.5148367" lon="7.2110475"/>
    <trkpt lat="45.5146915" lon="7.2108453"/>
    <trkpt lat="45.5146051" lon="7.2106522"/>
    <trkpt lat="45.5145839" lon="7.2106435"/>
    <trkpt lat="45.5145802" lon="7.2106536"/>
    <trkpt lat="45.5145792" lon="7.2107629"/>
    <trkpt lat="45.5146149" lon="7.2109164"/>
    <trkpt lat="45.5146511" lon="7.2109949"/>
    <trkpt lat="45.5146638" lon="7.211013"/>
    <trkpt lat="45.5146516" lon="7.2110257"/>
    <trkpt lat="45.5146196" lon="7.2110016"/>
    <trkpt lat="45.5144994" lon="7.2108883"/>
    <trkpt lat="45.5144336" lon="7.2108521"/>
    <trkpt lat="45.5143805" lon="7.2108333"/>
    <trkpt lat="45.5142057" lon="7.2108561"/>
    <trkpt lat="45.5140888" lon="7.2108951"/>
    <trkpt lat="45.514026" lon="7.2109512"/>
    <trkpt lat="45.5140291" lon="7.210987"/>
    <trkpt lat="45.5141313" lon="7.2110296"/>
    <trkpt lat="45.5141784" lon="7.2110655"/>
    <trkpt lat="45.5142365" lon="7.2111306"/>
    <trkpt lat="45.5143418" lon="7.2112875"/>
    <trkpt lat="45.5144157" lon="7.2113705"/>
    <trkpt lat="45.514466" lon="7.211449"/>
    <trkpt lat="45.5144832" lon="7.2114916"/>
    <trkpt lat="45.514554" lon="7.2115544"/>
    <trkpt lat="45.5145744" lon="7.2115925"/>
    <trkpt lat="45.514411" lon="7.2115723"/>
    <trkpt lat="45.514385" lon="7.2115465"/>
    <trkpt lat="45.5142758" lon="7.2114378"/>
    <trkpt lat="45.5141313" lon="7.211384"/>
    <trkpt lat="45.5140087" lon="7.2113907"/>
    <trkpt lat="45.5139003" lon="7.2114243"/>
    <trkpt lat="45.5138358" lon="7.2114243"/>
    <trkpt lat="45.5137023" lon="7.2113593"/>
    <trkpt lat="45.5136567" lon="7.211357"/>
    <trkpt lat="45.5135954" lon="7.211384"/>
    <trkpt lat="45.5135719" lon="7.211431"/>
    <trkpt lat="45.5135923" lon="7.211458"/>
    <trkpt lat="45.5136284" lon="7.2114467"/>
    <trkpt lat="45.5137808" lon="7.2116172"/>
    <trkpt lat="45.5138343" lon="7.2116351"/>
    <trkpt lat="45.5138798" lon="7.211671"/>
    <trkpt lat="45.5139286" lon="7.2116934"/>
    <trkpt lat="45.514081" lon="7.21181"/>
    <trkpt lat="45.5141485" lon="7.2119132"/>
    <trkpt lat="45.5141328" lon="7.2119334"/>
    <trkpt lat="45.5139961" lon="7.211875"/>
    <trkpt lat="45.5138783" lon="7.2118863"/>
    <trkpt lat="45.5138138" lon="7.2118863"/>
    <trkpt lat="45.5137526" lon="7.211875"/>
    <trkpt lat="45.5136599" lon="7.211884"/>
    <trkpt lat="45.5136379" lon="7.2119266"/>
    <trkpt lat="45.5136253" lon="7.2119894"/>
    <trkpt lat="45.5136441" lon="7.2120275"/>
    <trkpt lat="45.5136787" lon="7.2120567"/>
    <trkpt lat="45.5137259" lon="7.2120455"/>
    <trkpt lat="45.5137761" lon="7.2120477"/>
    <trkpt lat="45.5138248" lon="7.2120612"/>
    <trkpt lat="45.513861" lon="7.2120881"/>
    <trkpt lat="45.5138987" lon="7.2121284"/>
    <trkpt lat="45.5139254" lon="7.2121912"/>
    <trkpt lat="45.5140024" lon="7.2122854"/>
    <trkpt lat="45.514081" lon="7.2123617"/>
    <trkpt lat="45.5141454" lon="7.2124043"/>
    <trkpt lat="45.5140888" lon="7.2124267"/>
    <trkpt lat="45.5140354" lon="7.21242"/>
    <trkpt lat="45.5139757" lon="7.2124043"/>
    <trkpt lat="45.5139207" lon="7.2123751"/>
    <trkpt lat="45.5138704" lon="7.2123684"/>
    <trkpt lat="45.5138296" lon="7.2123953"/>
    <trkpt lat="45.5138233" lon="7.2124222"/>
    <trkpt lat="45.5138704" lon="7.2124334"/>
    <trkpt lat="45.5139191" lon="7.2124648"/>
    <trkpt lat="45.5139537" lon="7.2124962"/>
    <trkpt lat="45.5140071" lon="7.2125298"/>
    <trkpt lat="45.5140464" lon="7.212568"/>
    <trkpt lat="45.5141831" lon="7.2126038"/>
    <trkpt lat="45.5143198" lon="7.2126734"/>
    <trkpt lat="45.5143701" lon="7.212707"/>
    <trkpt lat="45.5143811" lon="7.2127272"/>
    <trkpt lat="45.5142915" lon="7.2127317"/>
    <trkpt lat="45.5141957" lon="7.2127788"/>
    <trkpt lat="45.5141485" lon="7.212772"/>
    <trkpt lat="45.5140087" lon="7.2128079"/>
    <trkpt lat="45.5139568" lon="7.2127967"/>
    <trkpt lat="45.5139223" lon="7.2128438"/>
    <trkpt lat="45.51407" lon="7.2129268"/>
    <trkpt lat="45.514191" lon="7.2130052"/>
    <trkpt lat="45.5142633" lon="7.2130703"/>
    <trkpt lat="45.5143308" lon="7.2131779"/>
    <trkpt lat="45.5143355" lon="7.2132026"/>
    <trkpt lat="45.5142963" lon="7.2131891"/>
    <trkpt lat="45.5141721" lon="7.2131981"/>
    <trkpt lat="45.51407" lon="7.2131779"/>
    <trkpt lat="45.5140087" lon="7.2131846"/>
    <trkpt lat="45.5140888" lon="7.2132833"/>
    <trkpt lat="45.514136" lon="7.2133595"/>
    <trkpt lat="45.5142963" lon="7.2135412"/>
    <trkpt lat="45.514301" lon="7.2135658"/>
    <trkpt lat="45.5142538" lon="7.2135681"/>
    <trkpt lat="45.513982" lon="7.2134649"/>
    <trkpt lat="45.513949" lon="7.2134829"/>
    <trkpt lat="45.5139144" lon="7.2135412"/>
    <trkpt lat="45.5138987" lon="7.2136197"/>
    <trkpt lat="45.5139348" lon="7.2136174"/>
    <trkpt lat="45.5139977" lon="7.2136466"/>
    <trkpt lat="45.5140417" lon="7.2137363"/>
    <trkpt lat="45.514092" lon="7.2138843"/>
    <trkpt lat="45.5141674" lon="7.2141646"/>
    <trkpt lat="45.5142098" lon="7.2143866"/>
    <trkpt lat="45.5142271" lon="7.2145099"/>
    <trkpt lat="45.5142743" lon="7.2146826"/>
    <trkpt lat="45.514279" lon="7.2147835"/>
    <trkpt lat="45.5142303" lon="7.2147207"/>
    <trkpt lat="45.5141753" lon="7.2146781"/>
    <trkpt lat="45.5141313" lon="7.2146893"/>
    <trkpt lat="45.5141171" lon="7.2147947"/>
    <trkpt lat="45.5140993" lon="7.2148404"/>
    <trkpt lat="45.5140728" lon="7.2148473"/>
    <trkpt lat="45.5139658" lon="7.2148381"/>
    <trkpt lat="45.514035" lon="7.2149437"/>
    <trkpt lat="45.5140454" lon="7.2150034"/>
    <trkpt lat="45.5141008" lon="7.2151424"/>
    <trkpt lat="45.5141574" lon="7.2152106"/>
    <trkpt lat="45.5141875" lon="7.2152806"/>
    <trkpt lat="45.5142164" lon="7.2153254"/>
    <trkpt lat="45.5142089" lon="7.2153649"/>
    <trkpt lat="45.5141548" lon="7.2153541"/>
    <trkpt lat="45.5141071" lon="7.2154582"/>
    <trkpt lat="45.5140782" lon="7.2155533"/>
    <trkpt lat="45.5140216" lon="7.2156627"/>
    <trkpt lat="45.5139826" lon="7.2157793"/>
    <trkpt lat="45.5139537" lon="7.2158564"/>
    <trkpt lat="45.5139198" lon="7.2159443"/>
    <trkpt lat="45.513872" lon="7.2159964"/>
    <trkpt lat="45.5138205" lon="7.216052"/>
    <trkpt lat="45.5137551" lon="7.2161022"/>
    <trkpt lat="45.5136985" lon="7.2161417"/>
    <trkpt lat="45.5136093" lon="7.2161955"/>
    <trkpt lat="45.513515" lon="7.2163103"/>
    <trkpt lat="45.513471" lon="7.2163713"/>
    <trkpt lat="45.5134396" lon="7.2164449"/>
    <trkpt lat="45.5134157" lon="7.2165345"/>
    <trkpt lat="45.5134106" lon="7.2166189"/>
    <trkpt lat="45.5134345" lon="7.2166888"/>
    <trkpt lat="45.5134559" lon="7.2167283"/>
    <trkpt lat="45.5135313" lon="7.2166781"/>
    <trkpt lat="45.5135791" lon="7.2166386"/>
    <trkpt lat="45.5136357" lon="7.2166278"/>
    <trkpt lat="45.5137237" lon="7.2165991"/>
    <trkpt lat="45.5137752" lon="7.2165722"/>
    <trkpt lat="45.5138255" lon="7.2165633"/>
    <trkpt lat="45.513877" lon="7.2165561"/>
    <trkpt lat="45.5139235" lon="7.2165471"/>
    <trkpt lat="45.5139311" lon="7.2165776"/>
    <trkpt lat="45.5138745" lon="7.2166368"/>
    <trkpt lat="45.5137991" lon="7.2167355"/>
    <trkpt lat="45.5137614" lon="7.2168018"/>
    <trkpt lat="45.5137224" lon="7.2169005"/>
    <trkpt lat="45.5136885" lon="7.2170099"/>
    <trkpt lat="45.5136621" lon="7.2171391"/>
    <trkpt lat="45.5136608" lon="7.2172091"/>
    <trkpt lat="45.5136244" lon="7.2172611"/>
    <trkpt lat="45.5135904" lon="7.2173077"/>
    <trkpt lat="45.5135527" lon="7.2173939"/>
    <trkpt lat="45.5135213" lon="7.2174692"/>
    <trkpt lat="45.5134898" lon="7.2175248"/>
    <trkpt lat="45.5134458" lon="7.2176217"/>
    <trkpt lat="45.5134169" lon="7.2177293"/>
    <trkpt lat="45.5133641" lon="7.21788"/>
    <trkpt lat="45.513344" lon="7.2179518"/>
    <trkpt lat="45.5133151" lon="7.2180199"/>
    <trkpt lat="45.5132975" lon="7.2180827"/>
    <trkpt lat="45.5132749" lon="7.2181742"/>
    <trkpt lat="45.5132686" lon="7.2182334"/>
    <trkpt lat="45.5133088" lon="7.218194"/>
    <trkpt lat="45.5133503" lon="7.218115"/>
    <trkpt lat="45.5134144" lon="7.2180971"/>
    <trkpt lat="45.5134383" lon="7.2180451"/>
    <trkpt lat="45.5135049" lon="7.2179715"/>
    <trkpt lat="45.513559" lon="7.2179177"/>
    <trkpt lat="45.5135942" lon="7.2178693"/>
    <trkpt lat="45.5136357" lon="7.2178154"/>
    <trkpt lat="45.5136759" lon="7.2177688"/>
    <trkpt lat="45.5137211" lon="7.2177401"/>
    <trkpt lat="45.5137727" lon="7.2177114"/>
    <trkpt lat="45.5138117" lon="7.2176845"/>
    <trkpt lat="45.5138456" lon="7.217654"/>
    <trkpt lat="45.5138946" lon="7.2176217"/>
    <trkpt lat="45.5139261" lon="7.2175894"/>
    <trkpt lat="45.5139575" lon="7.217575"/>
    <trkpt lat="45.5140053" lon="7.217584"/>
    <trkpt lat="45.5139713" lon="7.2176217"/>
    <trkpt lat="45.5139336" lon="7.2176594"/>
    <trkpt lat="45.5138909" lon="7.2177329"/>
    <trkpt lat="45.5138406" lon="7.2178065"/>
    <trkpt lat="45.5137991" lon="7.2178782"/>
    <trkpt lat="45.5137551" lon="7.2179464"/>
    <trkpt lat="45.5136973" lon="7.2180451"/>
    <trkpt lat="45.513657" lon="7.2181007"/>
    <trkpt lat="45.5136156" lon="7.2181742"/>
    <trkpt lat="45.5135854" lon="7.2182406"/>
    <trkpt lat="45.5135602" lon="7.2183142"/>
    <trkpt lat="45.5135288" lon="7.2183985"/>
    <trkpt lat="45.5134949" lon="7.2184971"/>
    <trkpt lat="45.5134634" lon="7.2185635"/>
    <trkpt lat="45.5134433" lon="7.218603"/>
    <trkpt lat="45.5134157" lon="7.218664"/>
    <trkpt lat="45.5133729" lon="7.2187913"/>
    <trkpt lat="45.5133227" lon="7.21889"/>
    <trkpt lat="45.51329" lon="7.2189833"/>
    <trkpt lat="45.5132384" lon="7.2191627"/>
    <trkpt lat="45.5132284" lon="7.2192416"/>
    <trkpt lat="45.5132246" lon="7.2193277"/>
    <trkpt lat="45.5132183" lon="7.2194138"/>
    <trkpt lat="45.5132183" lon="7.2194892"/>
    <trkpt lat="45.5132233" lon="7.2195484"/>
    <trkpt lat="45.5132208" lon="7.2196273"/>
    <trkpt lat="45.5131969" lon="7.2196829"/>
    <trkpt lat="45.5131831" lon="7.2197385"/>
    <trkpt lat="45.5132095" lon="7.2197547"/>
    <trkpt lat="45.5132598" lon="7.2197403"/>
    <trkpt lat="45.5132837" lon="7.2196901"/>
    <trkpt lat="45.5133189" lon="7.2196273"/>
    <trkpt lat="45.5133566" lon="7.2195305"/>
    <trkpt lat="45.5133893" lon="7.21943"/>
    <trkpt lat="45.5134245" lon="7.2193313"/>
    <trkpt lat="45.5134496" lon="7.2192632"/>
    <trkpt lat="45.5134848" lon="7.2191699"/>
    <trkpt lat="45.5135225" lon="7.2190999"/>
    <trkpt lat="45.5135426" lon="7.2190407"/>
    <trkpt lat="45.513569" lon="7.2189994"/>
    <trkpt lat="45.5135628" lon="7.2191107"/>
    <trkpt lat="45.513559" lon="7.2191932"/>
    <trkpt lat="45.5135577" lon="7.2192632"/>
    <trkpt lat="45.5135615" lon="7.2193546"/>
    <trkpt lat="45.5135577" lon="7.2194425"/>
    <trkpt lat="45.5135577" lon="7.2195143"/>
    <trkpt lat="45.513564" lon="7.2196094"/>
    <trkpt lat="45.5135816" lon="7.2197278"/>
    <trkpt lat="45.5135929" lon="7.2198247"/>
    <trkpt lat="45.513598" lon="7.219891"/>
    <trkpt lat="45.5136055" lon="7.2199484"/>
    <trkpt lat="45.5136294" lon="7.2199951"/>
    <trkpt lat="45.513652" lon="7.2200525"/>
    <trkpt lat="45.5136596" lon="7.2201494"/>
    <trkpt lat="45.5136482" lon="7.2202534"/>
    <trkpt lat="45.5136382" lon="7.2203521"/>
    <trkpt lat="45.5136168" lon="7.2204095"/>
    <trkpt lat="45.513608" lon="7.2204777"/>
    <trkpt lat="45.5135917" lon="7.2205835"/>
    <trkpt lat="45.513569" lon="7.2206176"/>
    <trkpt lat="45.5135137" lon="7.2206642"/>
    <trkpt lat="45.5134735" lon="7.2207127"/>
    <trkpt lat="45.5134471" lon="7.2207485"/>
    <trkpt lat="45.5134257" lon="7.2208077"/>
    <trkpt lat="45.5133968" lon="7.2209028"/>
    <trkpt lat="45.5133679" lon="7.2209818"/>
    <trkpt lat="45.5133553" lon="7.2210517"/>
    <trkpt lat="45.5133465" lon="7.2210966"/>
    <trkpt lat="45.513393" lon="7.2210661"/>
    <trkpt lat="45.5134421" lon="7.2210248"/>
    <trkpt lat="45.5134949" lon="7.2209764"/>
    <trkpt lat="45.5135338" lon="7.2209566"/>
    <trkpt lat="45.5135841" lon="7.2209333"/>
    <trkpt lat="45.5135728" lon="7.2210051"/>
    <trkpt lat="45.5135439" lon="7.221084"/>
    <trkpt lat="45.5135049" lon="7.2211594"/>
    <trkpt lat="45.513476" lon="7.2212383"/>
    <trkpt lat="45.513466" lon="7.2213334"/>
    <trkpt lat="45.5134446" lon="7.2214554"/>
    <trkpt lat="45.5134345" lon="7.2215253"/>
    <trkpt lat="45.513427" lon="7.2215881"/>
    <trkpt lat="45.5134295" lon="7.2216222"/>
    <trkpt lat="45.5134735" lon="7.2216007"/>
    <trkpt lat="45.5135087" lon="7.2215594"/>
    <trkpt lat="45.5135477" lon="7.2215092"/>
    <trkpt lat="45.5135866" lon="7.2214715"/>
    <trkpt lat="45.5136218" lon="7.221441"/>
    <trkpt lat="45.5136482" lon="7.221432"/>
    <trkpt lat="45.5136646" lon="7.2214356"/>
    <trkpt lat="45.5136495" lon="7.2214966"/>
    <trkpt lat="45.5136281" lon="7.221572"/>
    <trkpt lat="45.5135992" lon="7.2216599"/>
    <trkpt lat="45.5135866" lon="7.2217442"/>
    <trkpt lat="45.513564" lon="7.2218303"/>
    <trkpt lat="45.5135502" lon="7.2218913"/>
    <trkpt lat="45.5135338" lon="7.2219343"/>
    <trkpt lat="45.5135162" lon="7.2219666"/>
    <trkpt lat="45.5135087" lon="7.2220294"/>
    <trkpt lat="45.5135125" lon="7.222051"/>
    <trkpt lat="45.5135527" lon="7.2220079"/>
    <trkpt lat="45.5135929" lon="7.2219469"/>
    <trkpt lat="45.5136332" lon="7.2218769"/>
    <trkpt lat="45.5136621" lon="7.2218285"/>
    <trkpt lat="45.5136872" lon="7.2217657"/>
    <trkpt lat="45.5137211" lon="7.2217101"/>
    <trkpt lat="45.5137563" lon="7.2216455"/>
    <trkpt lat="45.5137865" lon="7.221615"/>
    <trkpt lat="45.5138041" lon="7.2216258"/>
    <trkpt lat="45.5137727" lon="7.2216904"/>
    <trkpt lat="45.5137463" lon="7.2217603"/>
    <trkpt lat="45.5137274" lon="7.2218124"/>
    <trkpt lat="45.5137161" lon="7.2218698"/>
    <trkpt lat="45.513691" lon="7.2219666"/>
    <trkpt lat="45.5136746" lon="7.2220581"/>
    <trkpt lat="45.5136709" lon="7.2221317"/>
    <trkpt lat="45.5136596" lon="7.2222196"/>
    <trkpt lat="45.5136457" lon="7.2222878"/>
    <trkpt lat="45.5136105" lon="7.2223523"/>
    <trkpt lat="45.5135791" lon="7.2224277"/>
    <trkpt lat="45.5135514" lon="7.2225048"/>
    <trkpt lat="45.5135238" lon="7.2225658"/>
    <trkpt lat="45.5134848" lon="7.222634"/>
    <trkpt lat="45.5134697" lon="7.2226788"/>
    <trkpt lat="45.5134484" lon="7.2227327"/>
    <trkpt lat="45.5134282" lon="7.2227721"/>
    <trkpt lat="45.5133943" lon="7.2228367"/>
    <trkpt lat="45.5133641" lon="7.2228995"/>
    <trkpt lat="45.513339" lon="7.222939"/>
    <trkpt lat="45.5133" lon="7.2229982"/>
    <trkpt lat="45.5132749" lon="7.223034"/>
    <trkpt lat="45.5132422" lon="7.223104"/>
    <trkpt lat="45.5132145" lon="7.2231883"/>
    <trkpt lat="45.5131944" lon="7.223269"/>
    <trkpt lat="45.5131693" lon="7.2233605"/>
    <trkpt lat="45.5131429" lon="7.2234879"/>
    <trkpt lat="45.5131215" lon="7.2236081"/>
    <trkpt lat="45.5130926" lon="7.2237714"/>
    <trkpt lat="45.5130825" lon="7.2238557"/>
    <trkpt lat="45.5130675" lon="7.2239525"/>
    <trkpt lat="45.5130486" lon="7.2240727"/>
    <trkpt lat="45.513036" lon="7.2241732"/>
    <trkpt lat="45.5130159" lon="7.2243526"/>
    <trkpt lat="45.5129996" lon="7.2244836"/>
    <trkpt lat="45.5129721" lon="7.2245826"/>
    <trkpt lat="45.512957" lon="7.2246777"/>
    <trkpt lat="45.5129457" lon="7.2247836"/>
    <trkpt lat="45.5129445" lon="7.2248948"/>
    <trkpt lat="45.5129231" lon="7.2249881"/>
    <trkpt lat="45.5128778" lon="7.2251047"/>
    <trkpt lat="45.5128414" lon="7.225189"/>
    <trkpt lat="45.5127999" lon="7.225311"/>
    <trkpt lat="45.5127659" lon="7.2253917"/>
    <trkpt lat="45.5127333" lon="7.225476"/>
    <trkpt lat="45.5127219" lon="7.225537"/>
    <trkpt lat="45.5126893" lon="7.225598"/>
    <trkpt lat="45.5126402" lon="7.2256698"/>
    <trkpt lat="45.5125925" lon="7.2257272"/>
    <trkpt lat="45.5125648" lon="7.2257846"/>
    <trkpt lat="45.5125736" lon="7.2258241"/>
    <trkpt lat="45.5126025" lon="7.2258169"/>
    <trkpt lat="45.512634" lon="7.2258079"/>
    <trkpt lat="45.5126528" lon="7.2257684"/>
    <trkpt lat="45.5126767" lon="7.2257613"/>
    <trkpt lat="45.5126654" lon="7.2258007"/>
    <trkpt lat="45.5126365" lon="7.2258779"/>
    <trkpt lat="45.5125975" lon="7.225946"/>
    <trkpt lat="45.5125648" lon="7.2259676"/>
    <trkpt lat="45.5125145" lon="7.2259819"/>
    <trkpt lat="45.5124881" lon="7.2260035"/>
    <trkpt lat="45.5124781" lon="7.2260519"/>
    <trkpt lat="45.5124756" lon="7.2260788"/>
    <trkpt lat="45.512463" lon="7.2261757"/>
    <trkpt lat="45.5124818" lon="7.226251"/>
    <trkpt lat="45.5124957" lon="7.2263317"/>
    <trkpt lat="45.5124919" lon="7.2264376"/>
    <trkpt lat="45.5124806" lon="7.2265183"/>
    <trkpt lat="45.5124567" lon="7.2266152"/>
    <trkpt lat="45.512419" lon="7.2267049"/>
    <trkpt lat="45.5123775" lon="7.226791"/>
    <trkpt lat="45.5123461" lon="7.2268341"/>
    <trkpt lat="45.5123172" lon="7.2268825"/>
    <trkpt lat="45.5122996" lon="7.2269399"/>
    <trkpt lat="45.512297" lon="7.2269883"/>
    <trkpt lat="45.5123096" lon="7.2270565"/>
    <trkpt lat="45.5123461" lon="7.2271157"/>
    <trkpt lat="45.512385" lon="7.2271318"/>
    <trkpt lat="45.512429" lon="7.2271641"/>
    <trkpt lat="45.5124265" lon="7.2272359"/>
    <trkpt lat="45.5123989" lon="7.2273041"/>
    <trkpt lat="45.5123561" lon="7.2273902"/>
    <trkpt lat="45.5123297" lon="7.2274566"/>
    <trkpt lat="45.5123322" lon="7.2275211"/>
    <trkpt lat="45.5123473" lon="7.2275785"/>
    <trkpt lat="45.5123536" lon="7.2276324"/>
    <trkpt lat="45.5123649" lon="7.2277131"/>
    <trkpt lat="45.5123838" lon="7.2277866"/>
    <trkpt lat="45.5123901" lon="7.2278512"/>
    <trkpt lat="45.512385" lon="7.227932"/>
    <trkpt lat="45.5123813" lon="7.2280109"/>
    <trkpt lat="45.5123863" lon="7.2281149"/>
    <trkpt lat="45.5123989" lon="7.2281759"/>
    <trkpt lat="45.5124202" lon="7.2282244"/>
    <trkpt lat="45.5124378" lon="7.2282692"/>
    <trkpt lat="45.5124895" lon="7.2283243"/>
    <trkpt lat="45.5125206" lon="7.2283631"/>
    <trkpt lat="45.5125578" lon="7.2284449"/>
    <trkpt lat="45.512577" lon="7.2285195"/>
    <trkpt lat="45.512582" lon="7.2285697"/>
    <trkpt lat="45.5125975" lon="7.2286019"/>
    <trkpt lat="45.5127266" lon="7.228472"/>
    <trkpt lat="45.5127974" lon="7.2285235"/>
    <trkpt lat="45.5128081" lon="7.2286969"/>
    <trkpt lat="45.5126747" lon="7.2289417"/>
    <trkpt lat="45.512578" lon="7.2291652"/>
    <trkpt lat="45.5125153" lon="7.2293101"/>
    <trkpt lat="45.5124335" lon="7.2295903"/>
  </trkseg></trk></gpx>