<?xml version="1.0" encoding="UTF-8"?>
<gpx version="1.1" xmlns="http://www.topografix.com/GPX/1/1">
  <trk><name><![CDATA[Variante B — Jour 1: Pravieux → Rifugio Chabod]]></name><desc><![CDATA[5.8km, +876m | Source: pngp.it]]></desc><trkseg>
    <trkpt lat="45.5444436" lon="7.2123554"/>
    <trkpt lat="45.5445236" lon="7.2123154"/>
    <trkpt lat="45.5445736" lon="7.2126554"/>
    <trkpt lat="45.5444236" lon="7.2129554"/>
    <trkpt lat="45.5437836" lon="7.2131754"/>
    <trkpt lat="45.5434236" lon="7.2134354"/>
    <trkpt lat="45.5429536" lon="7.2138154"/>
    <trkpt lat="45.5424136" lon="7.2140655"/>
    <trkpt lat="45.5423736" lon="7.2143055"/>
    <trkpt lat="45.5425436" lon="7.2143755"/>
    <trkpt lat="45.5423436" lon="7.2144555"/>
    <trkpt lat="45.5423436" lon="7.2145755"/>
    <trkpt lat="45.5424536" lon="7.2146255"/>
    <trkpt lat="45.5426436" lon="7.2144755"/>
    <trkpt lat="45.5424736" lon="7.2148055"/>
    <trkpt lat="45.5425536" lon="7.2149655"/>
    <trkpt lat="45.5426836" lon="7.2149255"/>
    <trkpt lat="45.5425736" lon="7.2149755"/>
    <trkpt lat="45.5426136" lon="7.2151255"/>
    <trkpt lat="45.5423836" lon="7.2151655"/>
    <trkpt lat="45.5423536" lon="7.2153555"/>
    <trkpt lat="45.5426136" lon="7.2155155"/>
    <trkpt lat="45.5421336" lon="7.2156955"/>
    <trkpt lat="45.5422136" lon="7.2159155"/>
    <trkpt lat="45.5420436" lon="7.2159455"/>
    <trkpt lat="45.5419836" lon="7.2160755"/>
    <trkpt lat="45.5421836" lon="7.2160655"/>
    <trkpt lat="45.5420836" lon="7.2161755"/>
    <trkpt lat="45.5422136" lon="7.2163055"/>
    <trkpt lat="45.5420436" lon="7.2164555"/>
    <trkpt lat="45.5420936" lon="7.2166855"/>
    <trkpt lat="45.5419136" lon="7.2168855"/>
    <trkpt lat="45.5421136" lon="7.2170055"/>
    <trkpt lat="45.5420236" lon="7.2171155"/>
    <trkpt lat="45.5421236" lon="7.2171655"/>
    <trkpt lat="45.5418936" lon="7.2173855"/>
    <trkpt lat="45.5419836" lon="7.2174455"/>
    <trkpt lat="45.5423936" lon="7.2172355"/>
    <trkpt lat="45.5424836" lon="7.2174555"/>
    <trkpt lat="45.5428536" lon="7.2173955"/>
    <trkpt lat="45.5427436" lon="7.2177755"/>
    <trkpt lat="45.5430936" lon="7.2176055"/>
    <trkpt lat="45.5430536" lon="7.2177355"/>
    <trkpt lat="45.5432036" lon="7.2176555"/>
    <trkpt lat="45.5433236" lon="7.2177755"/>
    <trkpt lat="45.5431236" lon="7.2179355"/>
    <trkpt lat="45.5431836" lon="7.2181855"/>
    <trkpt lat="45.5442937" lon="7.2188255"/>
    <trkpt lat="45.5441737" lon="7.2188555"/>
    <trkpt lat="45.5442437" lon="7.2190655"/>
    <trkpt lat="45.5428736" lon="7.2190856"/>
    <trkpt lat="45.5429736" lon="7.2191556"/>
    <trkpt lat="45.5426036" lon="7.2192756"/>
    <trkpt lat="45.5423636" lon="7.2195256"/>
    <trkpt lat="45.5420636" lon="7.2195656"/>
    <trkpt lat="45.5421636" lon="7.2197656"/>
    <trkpt lat="45.5417936" lon="7.2196156"/>
    <trkpt lat="45.5417436" lon="7.2198756"/>
    <trkpt lat="45.5419536" lon="7.2201356"/>
    <trkpt lat="45.5418436" lon="7.2202156"/>
    <trkpt lat="45.5418936" lon="7.2203956"/>
    <trkpt lat="45.5427237" lon="7.2205256"/>
    <trkpt lat="45.5429637" lon="7.2207256"/>
    <trkpt lat="45.5434937" lon="7.2217556"/>
    <trkpt lat="45.5433037" lon="7.2217556"/>
    <trkpt lat="45.5439137" lon="7.2223756"/>
    <trkpt lat="45.5440237" lon="7.2223656"/>
    <trkpt lat="45.5441434" lon="7.2226449"/>
    <trkpt lat="45.5435937" lon="7.2228356"/>
    <trkpt lat="45.5429537" lon="7.2228256"/>
    <trkpt lat="45.5420837" lon="7.2222656"/>
    <trkpt lat="45.5419837" lon="7.2222956"/>
    <trkpt lat="45.5420937" lon="7.2225956"/>
    <trkpt lat="45.5417237" lon="7.2225457"/>
    <trkpt lat="45.5413636" lon="7.2228457"/>
    <trkpt lat="45.5412336" lon="7.2228057"/>
    <trkpt lat="45.5412936" lon="7.2230657"/>
    <trkpt lat="45.5416837" lon="7.2232257"/>
    <trkpt lat="45.5421737" lon="7.2239457"/>
    <trkpt lat="45.5419637" lon="7.2239657"/>
    <trkpt lat="45.5420937" lon="7.2241357"/>
    <trkpt lat="45.5420337" lon="7.2241757"/>
    <trkpt lat="45.5411736" lon="7.2239157"/>
    <trkpt lat="45.5410136" lon="7.2240157"/>
    <trkpt lat="45.5414037" lon="7.2247457"/>
    <trkpt lat="45.5416337" lon="7.2248657"/>
    <trkpt lat="45.5418337" lon="7.2253257"/>
    <trkpt lat="45.5416837" lon="7.2253757"/>
    <trkpt lat="45.5414537" lon="7.2252157"/>
    <trkpt lat="45.5411737" lon="7.2252357"/>
    <trkpt lat="45.5400736" lon="7.2255458"/>
    <trkpt lat="45.5408437" lon="7.2261358"/>
    <trkpt lat="45.5411837" lon="7.2267558"/>
    <trkpt lat="45.5413737" lon="7.2267958"/>
    <trkpt lat="45.5411437" lon="7.2269158"/>
    <trkpt lat="45.5408737" lon="7.2266958"/>
    <trkpt lat="45.5406437" lon="7.2266858"/>
    <trkpt lat="45.5408537" lon="7.2269158"/>
    <trkpt lat="45.5404537" lon="7.2267558"/>
    <trkpt lat="45.5401537" lon="7.2267758"/>
    <trkpt lat="45.5404737" lon="7.2270958"/>
    <trkpt lat="45.5410237" lon="7.2283958"/>
    <trkpt lat="45.5406237" lon="7.2282358"/>
    <trkpt lat="45.5404637" lon="7.2283058"/>
    <trkpt lat="45.5403937" lon="7.2283658"/>
    <trkpt lat="45.5406137" lon="7.2285958"/>
    <trkpt lat="45.5394137" lon="7.2288158"/>
    <trkpt lat="45.5394337" lon="7.2289758"/>
    <trkpt lat="45.5394537" lon="7.2289558"/>
    <trkpt lat="45.5401937" lon="7.2301259"/>
    <trkpt lat="45.5395337" lon="7.2301959"/>
    <trkpt lat="45.5394937" lon="7.2303059"/>
    <trkpt lat="45.5394437" lon="7.2302909"/>
    <trkpt lat="45.5401137" lon="7.2310559"/>
    <trkpt lat="45.5403237" lon="7.2310559"/>
    <trkpt lat="45.5400137" lon="7.2313359"/>
    <trkpt lat="45.5392737" lon="7.2310859"/>
    <trkpt lat="45.5394937" lon="7.2317559"/>
    <trkpt lat="45.5399137" lon="7.2321659"/>
    <trkpt lat="45.5395837" lon="7.2323159"/>
    <trkpt lat="45.5392437" lon="7.2321459"/>
    <trkpt lat="45.5391737" lon="7.2323649"/>
    <trkpt lat="45.5391837" lon="7.2327749"/>
    <trkpt lat="45.5393237" lon="7.2328249"/>
    <trkpt lat="45.5394237" lon="7.2333249"/>
    <trkpt lat="45.5396837" lon="7.2333149"/>
    <trkpt lat="45.5396037" lon="7.2335249"/>
    <trkpt lat="45.5399237" lon="7.2335249"/>
    <trkpt lat="45.5403827" lon="7.2331759"/>
    <trkpt lat="45.5397527" lon="7.2348150"/>
    <trkpt lat="45.5394627" lon="7.2359050"/>
    <trkpt lat="45.5392127" lon="7.2362050"/>
    <trkpt lat="45.5390427" lon="7.2374050"/>
    <trkpt lat="45.5391227" lon="7.2381850"/>
    <trkpt lat="45.5390927" lon="7.2391051"/>
    <trkpt lat="45.5392728" lon="7.2399951"/>
    <trkpt lat="45.5392728" lon="7.2408751"/>
    <trkpt lat="45.5394228" lon="7.2408551"/>
    <trkpt lat="45.5396528" lon="7.2405651"/>
    <trkpt lat="45.5398228" lon="7.2397351"/>
    <trkpt lat="45.5398628" lon="7.2385850"/>
    <trkpt lat="45.5399328" lon="7.2382150"/>
    <trkpt lat="45.5400528" lon="7.2381050"/>
    <trkpt lat="45.5401728" lon="7.2389350"/>
  </trkseg></trk>
</gpx>