<?xml version="1.0" encoding="UTF-8"?>
<gpx version="1.1" creator="GranParadiso" xmlns="http://www.topografix.com/GPX/1/1">
  <trk><name>C Day2: Pravieux → Chabod → Rifugio VE2</name><trkseg>
    <trkpt lat="45.5447006" lon="7.2122259"/>
    <trkpt lat="45.5446398" lon="7.2126138"/>
    <trkpt lat="45.5446089" lon="7.2127958"/>
    <trkpt lat="45.5445901" lon="7.2128389"/>
    <trkpt lat="45.5445483" lon="7.2128761"/>
    <trkpt lat="45.5444978" lon="7.2129394"/>
    <trkpt lat="45.5443868" lon="7.2130184"/>
    <trkpt lat="45.5442512" lon="7.2130422"/>
    <trkpt lat="45.544133" lon="7.2130891"/>
    <trkpt lat="45.544002" lon="7.213196"/>
    <trkpt lat="45.5439695" lon="7.2132058"/>
    <trkpt lat="45.543939" lon="7.213194"/>
    <trkpt lat="45.5439176" lon="7.2131834"/>
    <trkpt lat="45.5438821" lon="7.2132011"/>
    <trkpt lat="45.5437997" lon="7.2132505"/>
    <trkpt lat="45.543742" lon="7.2132941"/>
    <trkpt lat="45.5436894" lon="7.2133375"/>
    <trkpt lat="45.5436529" lon="7.2133494"/>
    <trkpt lat="45.5436146" lon="7.2133827"/>
    <trkpt lat="45.5435813" lon="7.2134399"/>
    <trkpt lat="45.5435422" lon="7.2134808"/>
    <trkpt lat="45.5434904" lon="7.2135336"/>
    <trkpt lat="45.543436" lon="7.2135471"/>
    <trkpt lat="45.5433717" lon="7.2135497"/>
    <trkpt lat="45.5433101" lon="7.213533"/>
    <trkpt lat="45.5432508" lon="7.2135679"/>
    <trkpt lat="45.5431696" lon="7.2136415"/>
    <trkpt lat="45.543073" lon="7.213728"/>
    <trkpt lat="45.5429957" lon="7.2138273"/>
    <trkpt lat="45.5429454" lon="7.2138715"/>
    <trkpt lat="45.5428746" lon="7.2138917"/>
    <trkpt lat="45.5428308" lon="7.2139156"/>
    <trkpt lat="45.5427352" lon="7.2139449"/>
    <trkpt lat="45.5426967" lon="7.2139782"/>
    <trkpt lat="45.5426244" lon="7.2139737"/>
    <trkpt lat="45.5425541" lon="7.2140067"/>
    <trkpt lat="45.5424791" lon="7.2140556"/>
    <trkpt lat="45.5424972" lon="7.2140636"/>
    <trkpt lat="45.5425391" lon="7.2140801"/>
    <trkpt lat="45.5425142" lon="7.2141051"/>
    <trkpt lat="45.5424832" lon="7.2141495"/>
    <trkpt lat="45.542459" lon="7.2142284"/>
    <trkpt lat="45.5424854" lon="7.2142578"/>
    <trkpt lat="45.5425292" lon="7.2142964"/>
    <trkpt lat="45.5425834" lon="7.2143277"/>
    <trkpt lat="45.5426285" lon="7.2143369"/>
    <trkpt lat="45.5426517" lon="7.2143498"/>
    <trkpt lat="45.5426349" lon="7.214394"/>
    <trkpt lat="45.5425911" lon="7.2144215"/>
    <trkpt lat="45.5425447" lon="7.2144363"/>
    <trkpt lat="45.5424777" lon="7.2144565"/>
    <trkpt lat="45.5424481" lon="7.2144859"/>
    <trkpt lat="45.5424687" lon="7.2145172"/>
    <trkpt lat="45.5425048" lon="7.2145595"/>
    <trkpt lat="45.5425512" lon="7.214589"/>
    <trkpt lat="45.5426027" lon="7.2145945"/>
    <trkpt lat="45.542662" lon="7.2146129"/>
    <trkpt lat="45.5427096" lon="7.2146294"/>
    <trkpt lat="45.5427689" lon="7.2146147"/>
    <trkpt lat="45.542823" lon="7.214589"/>
    <trkpt lat="45.5428552" lon="7.2145816"/>
    <trkpt lat="45.5428939" lon="7.2145945"/>
    <trkpt lat="45.5429055" lon="7.2146405"/>
    <trkpt lat="45.5428784" lon="7.2147177"/>
    <trkpt lat="45.5428436" lon="7.2147637"/>
    <trkpt lat="45.5427934" lon="7.2148134"/>
    <trkpt lat="45.5427418" lon="7.214841"/>
    <trkpt lat="45.5426774" lon="7.214852"/>
    <trkpt lat="45.5426413" lon="7.2148576"/>
    <trkpt lat="45.5427045" lon="7.2149017"/>
    <trkpt lat="45.5427277" lon="7.2149311"/>
    <trkpt lat="45.5427225" lon="7.21499"/>
    <trkpt lat="45.5426813" lon="7.2149955"/>
    <trkpt lat="45.5426388" lon="7.2150213"/>
    <trkpt lat="45.5426078" lon="7.2150305"/>
    <trkpt lat="45.542622" lon="7.2150544"/>
    <trkpt lat="45.5426542" lon="7.2150728"/>
    <trkpt lat="45.5426967" lon="7.2150986"/>
    <trkpt lat="45.5426864" lon="7.2151464"/>
    <trkpt lat="45.54268" lon="7.2151758"/>
    <trkpt lat="45.5426632" lon="7.2151979"/>
    <trkpt lat="45.5426001" lon="7.2151979"/>
    <trkpt lat="45.5425447" lon="7.2151777"/>
    <trkpt lat="45.5424867" lon="7.2151537"/>
    <trkpt lat="45.54243" lon="7.2151298"/>
    <trkpt lat="45.5423914" lon="7.2151261"/>
    <trkpt lat="45.542412" lon="7.2151648"/>
    <trkpt lat="45.5424506" lon="7.2152053"/>
    <trkpt lat="45.5424854" lon="7.2152402"/>
    <trkpt lat="45.5425215" lon="7.215277"/>
    <trkpt lat="45.5425576" lon="7.2153064"/>
    <trkpt lat="45.5425847" lon="7.2153267"/>
    <trkpt lat="45.5426233" lon="7.2153506"/>
    <trkpt lat="45.5426491" lon="7.2153727"/>
    <trkpt lat="45.5426594" lon="7.2153929"/>
    <trkpt lat="45.5426581" lon="7.2154205"/>
    <trkpt lat="45.5426349" lon="7.2154315"/>
    <trkpt lat="45.5426091" lon="7.2154389"/>
    <trkpt lat="45.5425847" lon="7.2154463"/>
    <trkpt lat="45.5425769" lon="7.2154702"/>
    <trkpt lat="45.5425834" lon="7.2155033"/>
    <trkpt lat="45.5426014" lon="7.2155125"/>
    <trkpt lat="45.5426336" lon="7.2155364"/>
    <trkpt lat="45.5426517" lon="7.215564"/>
    <trkpt lat="45.5426478" lon="7.215599"/>
    <trkpt lat="45.5426182" lon="7.215621"/>
    <trkpt lat="45.5425795" lon="7.2156265"/>
    <trkpt lat="45.5425383" lon="7.2156284"/>
    <trkpt lat="45.5424945" lon="7.2156192"/>
    <trkpt lat="45.5424674" lon="7.2156118"/>
    <trkpt lat="45.5424687" lon="7.2156394"/>
    <trkpt lat="45.5424906" lon="7.215656"/>
    <trkpt lat="45.5425305" lon="7.2156891"/>
    <trkpt lat="45.5425447" lon="7.2157149"/>
    <trkpt lat="45.542546" lon="7.215759"/>
    <trkpt lat="45.5425344" lon="7.2157884"/>
    <trkpt lat="45.5424816" lon="7.2157811"/>
    <trkpt lat="45.5424519" lon="7.2157645"/>
    <trkpt lat="45.5424184" lon="7.215759"/>
    <trkpt lat="45.5423836" lon="7.2157608"/>
    <trkpt lat="45.5423489" lon="7.2157498"/>
    <trkpt lat="45.5423463" lon="7.2157829"/>
    <trkpt lat="45.5423656" lon="7.2158087"/>
    <trkpt lat="45.5423656" lon="7.2158455"/>
    <trkpt lat="45.5423463" lon="7.2158583"/>
    <trkpt lat="45.5423192" lon="7.2158583"/>
    <trkpt lat="45.5423115" lon="7.2158804"/>
    <trkpt lat="45.5423115" lon="7.2159375"/>
    <trkpt lat="45.5423192" lon="7.2159798"/>
    <trkpt lat="45.5423192" lon="7.2160258"/>
    <trkpt lat="45.5422728" lon="7.2159908"/>
    <trkpt lat="45.5422265" lon="7.2160055"/>
    <trkpt lat="45.5421878" lon="7.2160497"/>
    <trkpt lat="45.5421736" lon="7.2160883"/>
    <trkpt lat="45.5421698" lon="7.2161233"/>
    <trkpt lat="45.5421955" lon="7.2161509"/>
    <trkpt lat="45.5422316" lon="7.216149"/>
    <trkpt lat="45.5422715" lon="7.2161564"/>
    <trkpt lat="45.5422986" lon="7.2161729"/>
    <trkpt lat="45.5422986" lon="7.2162576"/>
    <trkpt lat="45.5422819" lon="7.2163072"/>
    <trkpt lat="45.5422754" lon="7.2163312"/>
    <trkpt lat="45.5423076" lon="7.2163606"/>
    <trkpt lat="45.5423463" lon="7.2163919"/>
    <trkpt lat="45.5423617" lon="7.2164323"/>
    <trkpt lat="45.5423463" lon="7.2164765"/>
    <trkpt lat="45.5423102" lon="7.2164894"/>
    <trkpt lat="45.5422393" lon="7.2165409"/>
    <trkpt lat="45.5422084" lon="7.2165722"/>
    <trkpt lat="45.5422071" lon="7.2166126"/>
    <trkpt lat="45.5422432" lon="7.2166439"/>
    <trkpt lat="45.542269" lon="7.2166568"/>
    <trkpt lat="45.5422947" lon="7.2167028"/>
    <trkpt lat="45.542336" lon="7.2167469"/>
    <trkpt lat="45.5423501" lon="7.2167727"/>
    <trkpt lat="45.5423334" lon="7.2168132"/>
    <trkpt lat="45.5423154" lon="7.2168426"/>
    <trkpt lat="45.5422896" lon="7.2168831"/>
    <trkpt lat="45.5422561" lon="7.2169125"/>
    <trkpt lat="45.5422071" lon="7.216953"/>
    <trkpt lat="45.5421401" lon="7.2169769"/>
    <trkpt lat="45.5421144" lon="7.2169879"/>
    <trkpt lat="45.5421401" lon="7.2170229"/>
    <trkpt lat="45.5421646" lon="7.2170689"/>
    <trkpt lat="45.5421814" lon="7.2171167"/>
    <trkpt lat="45.5421955" lon="7.2171443"/>
    <trkpt lat="45.5421994" lon="7.2171921"/>
    <trkpt lat="45.5422045" lon="7.2172179"/>
    <trkpt lat="45.5422007" lon="7.2172731"/>
    <trkpt lat="45.5421839" lon="7.2173044"/>
    <trkpt lat="45.5421646" lon="7.2173283"/>
    <trkpt lat="45.5421375" lon="7.2173467"/>
    <trkpt lat="45.5421015" lon="7.2173577"/>
    <trkpt lat="45.5420834" lon="7.2173706"/>
    <trkpt lat="45.5420847" lon="7.2174129"/>
    <trkpt lat="45.5421182" lon="7.2174478"/>
    <trkpt lat="45.5421917" lon="7.2174754"/>
    <trkpt lat="45.5422574" lon="7.2174957"/>
    <trkpt lat="45.5422935" lon="7.2174754"/>
    <trkpt lat="45.5423476" lon="7.2174681"/>
    <trkpt lat="45.5423695" lon="7.2174423"/>
    <trkpt lat="45.5423914" lon="7.2174"/>
    <trkpt lat="45.5424313" lon="7.2173669"/>
    <trkpt lat="45.5424829" lon="7.2173301"/>
    <trkpt lat="45.5425009" lon="7.2173154"/>
    <trkpt lat="45.5425537" lon="7.2173154"/>
    <trkpt lat="45.5426104" lon="7.2173246"/>
    <trkpt lat="45.5426517" lon="7.2173356"/>
    <trkpt lat="45.5427019" lon="7.2173669"/>
    <trkpt lat="45.5427547" lon="7.2174019"/>
    <trkpt lat="45.5427689" lon="7.2174295"/>
    <trkpt lat="45.5427638" lon="7.2174736"/>
    <trkpt lat="45.5427277" lon="7.2175122"/>
    <trkpt lat="45.54268" lon="7.2175306"/>
    <trkpt lat="45.5426478" lon="7.2175785"/>
    <trkpt lat="45.5426632" lon="7.2176097"/>
    <trkpt lat="45.5427109" lon="7.2175932"/>
    <trkpt lat="45.5427599" lon="7.2175582"/>
    <trkpt lat="45.5427998" lon="7.2175159"/>
    <trkpt lat="45.5428398" lon="7.2174938"/>
    <trkpt lat="45.5428913" lon="7.2174754"/>
    <trkpt lat="45.5429325" lon="7.2174589"/>
    <trkpt lat="45.5429699" lon="7.2174938"/>
    <trkpt lat="45.542957" lon="7.2175527"/>
    <trkpt lat="45.5429338" lon="7.2175785"/>
    <trkpt lat="45.5429145" lon="7.2176189"/>
    <trkpt lat="45.5428862" lon="7.2176723"/>
    <trkpt lat="45.5428308" lon="7.2177256"/>
    <trkpt lat="45.5428256" lon="7.2177606"/>
    <trkpt lat="45.5428411" lon="7.2177864"/>
    <trkpt lat="45.5428874" lon="7.2177588"/>
    <trkpt lat="45.5429428" lon="7.217744"/>
    <trkpt lat="45.5430047" lon="7.2177201"/>
    <trkpt lat="45.5430691" lon="7.2177496"/>
    <trkpt lat="45.5431464" lon="7.2178047"/>
    <trkpt lat="45.5432031" lon="7.2178195"/>
    <trkpt lat="45.5432405" lon="7.2178139"/>
    <trkpt lat="45.5432804" lon="7.2178415"/>
    <trkpt lat="45.5432933" lon="7.2178949"/>
    <trkpt lat="45.5432959" lon="7.217939"/>
    <trkpt lat="45.543292" lon="7.2179777"/>
    <trkpt lat="45.5432779" lon="7.2180145"/>
    <trkpt lat="45.5432431" lon="7.2180844"/>
    <trkpt lat="45.543225" lon="7.2181396"/>
    <trkpt lat="45.5432083" lon="7.2181764"/>
    <trkpt lat="45.5432353" lon="7.218204"/>
    <trkpt lat="45.5432804" lon="7.2182297"/>
    <trkpt lat="45.5433139" lon="7.2182371"/>
    <trkpt lat="45.5433603" lon="7.218261"/>
    <trkpt lat="45.543408" lon="7.2182867"/>
    <trkpt lat="45.5435098" lon="7.2183235"/>
    <trkpt lat="45.5435665" lon="7.2183364"/>
    <trkpt lat="45.5436134" lon="7.2183858"/>
    <trkpt lat="45.5437301" lon="7.2184634"/>
    <trkpt lat="45.5438127" lon="7.2185181"/>
    <trkpt lat="45.5439315" lon="7.2185957"/>
    <trkpt lat="45.5440422" lon="7.218656"/>
    <trkpt lat="45.5441509" lon="7.2187423"/>
    <trkpt lat="45.5442334" lon="7.2188343"/>
    <trkpt lat="45.5442596" lon="7.2189291"/>
    <trkpt lat="45.5442516" lon="7.2189665"/>
    <trkpt lat="45.5441871" lon="7.2189924"/>
    <trkpt lat="45.5441207" lon="7.2190211"/>
    <trkpt lat="45.5440744" lon="7.2190786"/>
    <trkpt lat="45.544012" lon="7.2191303"/>
    <trkpt lat="45.5439295" lon="7.2191102"/>
    <trkpt lat="45.5438107" lon="7.2191275"/>
    <trkpt lat="45.5436838" lon="7.2191303"/>
    <trkpt lat="45.5435912" lon="7.2190958"/>
    <trkpt lat="45.5434543" lon="7.2190757"/>
    <trkpt lat="45.5433295" lon="7.2190297"/>
    <trkpt lat="45.5432369" lon="7.2190355"/>
    <trkpt lat="45.5432034" lon="7.219042"/>
    <trkpt lat="45.5431342" lon="7.2190556"/>
    <trkpt lat="45.5430195" lon="7.2190498"/>
    <trkpt lat="45.542941" lon="7.2190642"/>
    <trkpt lat="45.5429087" lon="7.2191131"/>
    <trkpt lat="45.5428745" lon="7.2191677"/>
    <trkpt lat="45.5427859" lon="7.2191964"/>
    <trkpt lat="45.5426934" lon="7.219228"/>
    <trkpt lat="45.542641" lon="7.2192453"/>
    <trkpt lat="45.5425685" lon="7.2192741"/>
    <trkpt lat="45.542492" lon="7.2193488"/>
    <trkpt lat="45.5424437" lon="7.2194207"/>
    <trkpt lat="45.5423813" lon="7.2195155"/>
    <trkpt lat="45.5423491" lon="7.2195558"/>
    <trkpt lat="45.5422947" lon="7.2195874"/>
    <trkpt lat="45.5422222" lon="7.2196104"/>
    <trkpt lat="45.5421477" lon="7.219596"/>
    <trkpt lat="45.5420986" lon="7.2195762"/>
    <trkpt lat="45.5420833" lon="7.2195701"/>
    <trkpt lat="45.5420511" lon="7.2195931"/>
    <trkpt lat="45.5420732" lon="7.2196679"/>
    <trkpt lat="45.5420974" lon="7.21978"/>
    <trkpt lat="45.5420551" lon="7.2197915"/>
    <trkpt lat="45.5419826" lon="7.2197225"/>
    <trkpt lat="45.5419082" lon="7.2196621"/>
    <trkpt lat="45.5418618" lon="7.2196966"/>
    <trkpt lat="45.5418155" lon="7.2198001"/>
    <trkpt lat="45.5418035" lon="7.2198892"/>
    <trkpt lat="45.5418135" lon="7.2199898"/>
    <trkpt lat="45.5418478" lon="7.2200473"/>
    <trkpt lat="45.5418659" lon="7.2200875"/>
    <trkpt lat="45.5419102" lon="7.2201307"/>
    <trkpt lat="45.5419484" lon="7.2201623"/>
    <trkpt lat="45.5419243" lon="7.220237"/>
    <trkpt lat="45.5419182" lon="7.220283"/>
    <trkpt lat="45.5419806" lon="7.2202945"/>
    <trkpt lat="45.5420732" lon="7.220306"/>
    <trkpt lat="45.5421981" lon="7.2203175"/>
    <trkpt lat="45.5422564" lon="7.2203233"/>
    <trkpt lat="45.5423511" lon="7.2203721"/>
    <trkpt lat="45.5424215" lon="7.2204267"/>
    <trkpt lat="45.5424799" lon="7.2204699"/>
    <trkpt lat="45.5425524" lon="7.2204756"/>
    <trkpt lat="45.542645" lon="7.2205015"/>
    <trkpt lat="45.5426652" lon="7.2205116"/>
    <trkpt lat="45.5427195" lon="7.2205388"/>
    <trkpt lat="45.5428101" lon="7.2206107"/>
    <trkpt lat="45.5428967" lon="7.2206711"/>
    <trkpt lat="45.542955" lon="7.2207314"/>
    <trkpt lat="45.5429792" lon="7.2208694"/>
    <trkpt lat="45.5430416" lon="7.2210218"/>
    <trkpt lat="45.5430799" lon="7.221154"/>
    <trkpt lat="45.5431262" lon="7.2212086"/>
    <trkpt lat="45.5431805" lon="7.2213006"/>
    <trkpt lat="45.543255" lon="7.2213437"/>
    <trkpt lat="45.5433033" lon="7.2214098"/>
    <trkpt lat="45.5433416" lon="7.2215076"/>
    <trkpt lat="45.5433839" lon="7.221611"/>
    <trkpt lat="45.5434418" lon="7.2216941"/>
    <trkpt lat="45.54349" lon="7.2217357"/>
    <trkpt lat="45.543499" lon="7.2217687"/>
    <trkpt lat="45.543472" lon="7.2217871"/>
    <trkpt lat="45.5434283" lon="7.2217687"/>
    <trkpt lat="45.5433833" lon="7.221743"/>
    <trkpt lat="45.543364" lon="7.2217504"/>
    <trkpt lat="45.5433897" lon="7.2217926"/>
    <trkpt lat="45.5434617" lon="7.2218274"/>
    <trkpt lat="45.5435517" lon="7.2219008"/>
    <trkpt lat="45.543648" lon="7.2220073"/>
    <trkpt lat="45.5436982" lon="7.2220843"/>
    <trkpt lat="45.5437753" lon="7.2221559"/>
    <trkpt lat="45.5438485" lon="7.2221944"/>
    <trkpt lat="45.5439051" lon="7.222299"/>
    <trkpt lat="45.5439308" lon="7.2223302"/>
    <trkpt lat="45.5439693" lon="7.2223357"/>
    <trkpt lat="45.5439999" lon="7.2223268"/>
    <trkpt lat="45.5440422" lon="7.2223814"/>
    <trkpt lat="45.5440801" lon="7.2224124"/>
    <trkpt lat="45.5441086" lon="7.2224648"/>
    <trkpt lat="45.5441388" lon="7.2225596"/>
    <trkpt lat="45.5441408" lon="7.2226315"/>
    <trkpt lat="45.5440945" lon="7.2227149"/>
    <trkpt lat="45.5440422" lon="7.2227177"/>
    <trkpt lat="45.5439919" lon="7.2227781"/>
    <trkpt lat="45.5439093" lon="7.2227609"/>
    <trkpt lat="45.5437905" lon="7.2227724"/>
    <trkpt lat="45.5436738" lon="7.2227954"/>
    <trkpt lat="45.5435731" lon="7.2228471"/>
    <trkpt lat="45.5434906" lon="7.2228615"/>
    <trkpt lat="45.5433798" lon="7.2228586"/>
    <trkpt lat="45.5432933" lon="7.2228413"/>
    <trkpt lat="45.5431806" lon="7.2228371"/>
    <trkpt lat="45.5430453" lon="7.2228532"/>
    <trkpt lat="45.5429503" lon="7.2228302"/>
    <trkpt lat="45.5428408" lon="7.2228049"/>
    <trkpt lat="45.5427506" lon="7.2227819"/>
    <trkpt lat="45.5427055" lon="7.222729"/>
    <trkpt lat="45.5426431" lon="7.2226836"/>
    <trkpt lat="45.5425505" lon="7.2226003"/>
    <trkpt lat="45.542484" lon="7.2225399"/>
    <trkpt lat="45.5423874" lon="7.2224422"/>
    <trkpt lat="45.5422928" lon="7.2223818"/>
    <trkpt lat="45.542174" lon="7.2223904"/>
    <trkpt lat="45.5420552" lon="7.2223387"/>
    <trkpt lat="45.5419827" lon="7.2223876"/>
    <trkpt lat="45.5420311" lon="7.2225169"/>
    <trkpt lat="45.5420673" lon="7.2226003"/>
    <trkpt lat="45.5419988" lon="7.2226146"/>
    <trkpt lat="45.5418539" lon="7.2226118"/>
    <trkpt lat="45.5417371" lon="7.2226463"/>
    <trkpt lat="45.5416405" lon="7.2227124"/>
    <trkpt lat="45.5416224" lon="7.222813"/>
    <trkpt lat="45.5415277" lon="7.2228791"/>
    <trkpt lat="45.5414029" lon="7.2228877"/>
    <trkpt lat="45.5412761" lon="7.2229193"/>
    <trkpt lat="45.5412418" lon="7.222974"/>
    <trkpt lat="45.5412942" lon="7.2230516"/>
    <trkpt lat="45.5413949" lon="7.2230918"/>
    <trkpt lat="45.5415398" lon="7.2231004"/>
    <trkpt lat="45.5416526" lon="7.2231838"/>
    <trkpt lat="45.5417593" lon="7.2232758"/>
    <trkpt lat="45.5418317" lon="7.2233879"/>
    <trkpt lat="45.5419002" lon="7.2234856"/>
    <trkpt lat="45.5419705" lon="7.2236581"/>
    <trkpt lat="45.5420051" lon="7.223738"/>
    <trkpt lat="45.5420486" lon="7.2238024"/>
    <trkpt lat="45.5420985" lon="7.22383"/>
    <trkpt lat="45.5421581" lon="7.2238438"/>
    <trkpt lat="45.5421822" lon="7.2239427"/>
    <trkpt lat="45.5421371" lon="7.2239473"/>
    <trkpt lat="45.5420824" lon="7.2239611"/>
    <trkpt lat="45.5420405" lon="7.2239979"/>
    <trkpt lat="45.5419696" lon="7.2239634"/>
    <trkpt lat="45.5419664" lon="7.2240438"/>
    <trkpt lat="45.541997" lon="7.2240806"/>
    <trkpt lat="45.5420711" lon="7.2241519"/>
    <trkpt lat="45.5420937" lon="7.2241749"/>
    <trkpt lat="45.5420164" lon="7.2242002"/>
    <trkpt lat="45.5419101" lon="7.2241749"/>
    <trkpt lat="45.5417538" lon="7.2241496"/>
    <trkpt lat="45.541604" lon="7.224099"/>
    <trkpt lat="45.5414881" lon="7.2240415"/>
    <trkpt lat="45.541393" lon="7.2240553"/>
    <trkpt lat="45.5413805" lon="7.224054"/>
    <trkpt lat="45.5413495" lon="7.2240507"/>
    <trkpt lat="45.5412674" lon="7.2240002"/>
    <trkpt lat="45.5412078" lon="7.2239473"/>
    <trkpt lat="45.5411224" lon="7.223945"/>
    <trkpt lat="45.5410387" lon="7.2239979"/>
    <trkpt lat="45.5410033" lon="7.2240484"/>
    <trkpt lat="45.541079" lon="7.2241105"/>
    <trkpt lat="45.5411241" lon="7.2241933"/>
    <trkpt lat="45.5411627" lon="7.2242991"/>
    <trkpt lat="45.5411949" lon="7.2243543"/>
    <trkpt lat="45.5412642" lon="7.2243704"/>
    <trkpt lat="45.5413286" lon="7.2244578"/>
    <trkpt lat="45.5413673" lon="7.2245912"/>
    <trkpt lat="45.5413882" lon="7.2247337"/>
    <trkpt lat="45.5414446" lon="7.2247613"/>
    <trkpt lat="45.5415042" lon="7.224782"/>
    <trkpt lat="45.5415702" lon="7.2248142"/>
    <trkpt lat="45.5416298" lon="7.2248855"/>
    <trkpt lat="45.5416636" lon="7.2249545"/>
    <trkpt lat="45.541683" lon="7.225081"/>
    <trkpt lat="45.5416942" lon="7.2252189"/>
    <trkpt lat="45.5417023" lon="7.2252465"/>
    <trkpt lat="45.5417603" lon="7.2252948"/>
    <trkpt lat="45.5417587" lon="7.2253707"/>
    <trkpt lat="45.5416942" lon="7.2254006"/>
    <trkpt lat="45.5416266" lon="7.2253684"/>
    <trkpt lat="45.5415509" lon="7.2252603"/>
    <trkpt lat="45.5413785" lon="7.2252327"/>
    <trkpt lat="45.5412835" lon="7.2252327"/>
    <trkpt lat="45.541203" lon="7.225235"/>
    <trkpt lat="45.5411305" lon="7.2252534"/>
    <trkpt lat="45.5410743" lon="7.2252645"/>
    <trkpt lat="45.5410145" lon="7.2252764"/>
    <trkpt lat="45.5409066" lon="7.2253178"/>
    <trkpt lat="45.5407697" lon="7.2253684"/>
    <trkpt lat="45.5407021" lon="7.2253914"/>
    <trkpt lat="45.5406086" lon="7.2254282"/>
    <trkpt lat="45.5405217" lon="7.2254535"/>
    <trkpt lat="45.5404363" lon="7.2254742"/>
    <trkpt lat="45.5403107" lon="7.2254972"/>
    <trkpt lat="45.5402318" lon="7.2255271"/>
    <trkpt lat="45.5401399" lon="7.2255248"/>
    <trkpt lat="45.5400546" lon="7.2255455"/>
    <trkpt lat="45.5400642" lon="7.2255892"/>
    <trkpt lat="45.5401432" lon="7.2256306"/>
    <trkpt lat="45.5401931" lon="7.2256835"/>
    <trkpt lat="45.540293" lon="7.2257387"/>
    <trkpt lat="45.5403719" lon="7.2258031"/>
    <trkpt lat="45.5404331" lon="7.2258697"/>
    <trkpt lat="45.540504" lon="7.2259203"/>
    <trkpt lat="45.5406103" lon="7.2259709"/>
    <trkpt lat="45.5407085" lon="7.2260353"/>
    <trkpt lat="45.5407649" lon="7.2260744"/>
    <trkpt lat="45.540818" lon="7.2261066"/>
    <trkpt lat="45.5409002" lon="7.2261802"/>
    <trkpt lat="45.5409308" lon="7.2262308"/>
    <trkpt lat="45.5409541" lon="7.2262789"/>
    <trkpt lat="45.5409775" lon="7.2263274"/>
    <trkpt lat="45.5410033" lon="7.2263665"/>
    <trkpt lat="45.54105" lon="7.2264768"/>
    <trkpt lat="45.5411047" lon="7.2265941"/>
    <trkpt lat="45.5411418" lon="7.2266539"/>
    <trkpt lat="45.5411837" lon="7.2267114"/>
    <trkpt lat="45.5412416" lon="7.2267344"/>
    <trkpt lat="45.5413189" lon="7.2267505"/>
    <trkpt lat="45.5413785" lon="7.2267919"/>
    <trkpt lat="45.5413093" lon="7.2268494"/>
    <trkpt lat="45.5411901" lon="7.2269207"/>
    <trkpt lat="45.5411176" lon="7.2269368"/>
    <trkpt lat="45.5410532" lon="7.2268954"/>
    <trkpt lat="45.5409308" lon="7.2267689"/>
    <trkpt lat="45.5408696" lon="7.2267114"/>
    <trkpt lat="45.5408216" lon="7.2266938"/>
    <trkpt lat="45.5408132" lon="7.2266907"/>
    <trkpt lat="45.5407343" lon="7.2266677"/>
    <trkpt lat="45.5406618" lon="7.2266677"/>
    <trkpt lat="45.5405716" lon="7.2266953"/>
    <trkpt lat="45.5406457" lon="7.2267344"/>
    <trkpt lat="45.540715" lon="7.2267827"/>
    <trkpt lat="45.5407638" lon="7.2268273"/>
    <trkpt lat="45.5407729" lon="7.2268356"/>
    <trkpt lat="45.5408148" lon="7.2269368"/>
    <trkpt lat="45.5407472" lon="7.2269023"/>
    <trkpt lat="45.540708" lon="7.2268886"/>
    <trkpt lat="45.5406811" lon="7.2268793"/>
    <trkpt lat="45.5406119" lon="7.2268586"/>
    <trkpt lat="45.5404411" lon="7.2267919"/>
    <trkpt lat="45.5403268" lon="7.2267551"/>
    <trkpt lat="45.5402382" lon="7.2267413"/>
    <trkpt lat="45.5401561" lon="7.2267666"/>
    <trkpt lat="45.540235" lon="7.2268379"/>
    <trkpt lat="45.5403461" lon="7.2269345"/>
    <trkpt lat="45.5404363" lon="7.2270127"/>
    <trkpt lat="45.5405023" lon="7.2270862"/>
    <trkpt lat="45.5405603" lon="7.2271989"/>
    <trkpt lat="45.540599" lon="7.2272794"/>
    <trkpt lat="45.5406183" lon="7.2273967"/>
    <trkpt lat="45.5406248" lon="7.227514"/>
    <trkpt lat="45.5406795" lon="7.2276519"/>
    <trkpt lat="45.5406906" lon="7.227689"/>
    <trkpt lat="45.5407182" lon="7.2277807"/>
    <trkpt lat="45.5407939" lon="7.2279187"/>
    <trkpt lat="45.5408277" lon="7.2279969"/>
    <trkpt lat="45.5408766" lon="7.2281126"/>
    <trkpt lat="45.5409054" lon="7.2281847"/>
    <trkpt lat="45.5409384" lon="7.2282775"/>
    <trkpt lat="45.5409817" lon="7.2283702"/>
    <trkpt lat="45.5409992" lon="7.228407"/>
    <trkpt lat="45.5409992" lon="7.2284364"/>
    <trkpt lat="45.5409683" lon="7.228429"/>
    <trkpt lat="45.5408487" lon="7.228379"/>
    <trkpt lat="45.5407529" lon="7.2283496"/>
    <trkpt lat="45.5407272" lon="7.2283415"/>
    <trkpt lat="45.5406879" lon="7.228329"/>
    <trkpt lat="45.5406477" lon="7.228276"/>
    <trkpt lat="45.5406096" lon="7.228251"/>
    <trkpt lat="45.5405981" lon="7.228256"/>
    <trkpt lat="45.5405653" lon="7.2282701"/>
    <trkpt lat="45.5404818" lon="7.2283098"/>
    <trkpt lat="45.5404395" lon="7.2283378"/>
    <trkpt lat="45.5403849" lon="7.2283496"/>
    <trkpt lat="45.5403756" lon="7.2283643"/>
    <trkpt lat="45.5404055" lon="7.2284173"/>
    <trkpt lat="45.5404684" lon="7.2284599"/>
    <trkpt lat="45.5404828" lon="7.2284923"/>
    <trkpt lat="45.5405271" lon="7.2285335"/>
    <trkpt lat="45.5405817" lon="7.2285806"/>
    <trkpt lat="45.5406137" lon="7.2286174"/>
    <trkpt lat="45.5406085" lon="7.2286469"/>
    <trkpt lat="45.5405653" lon="7.2286527"/>
    <trkpt lat="45.540455" lon="7.2286645"/>
    <trkpt lat="45.5404055" lon="7.2286969"/>
    <trkpt lat="45.5403771" lon="7.2286979"/>
    <trkpt lat="45.5403209" lon="7.2286998"/>
    <trkpt lat="45.5402467" lon="7.2286792"/>
    <trkpt lat="45.5401818" lon="7.2286984"/>
    <trkpt lat="45.5400952" lon="7.2287205"/>
    <trkpt lat="45.5399705" lon="7.2287263"/>
    <trkpt lat="45.5398921" lon="7.2287469"/>
    <trkpt lat="45.5398344" lon="7.2287543"/>
    <trkpt lat="45.539797" lon="7.2287985"/>
    <trkpt lat="45.5396553" lon="7.2288205"/>
    <trkpt lat="45.539511" lon="7.2288242"/>
    <trkpt lat="45.5394208" lon="7.2288242"/>
    <trkpt lat="45.5393873" lon="7.2288334"/>
    <trkpt lat="45.5393808" lon="7.2288647"/>
    <trkpt lat="45.5394259" lon="7.2289493"/>
    <trkpt lat="45.5394568" lon="7.2289401"/>
    <trkpt lat="45.5395148" lon="7.2290045"/>
    <trkpt lat="45.5395651" lon="7.229067"/>
    <trkpt lat="45.5396179" lon="7.2292142"/>
    <trkpt lat="45.5396682" lon="7.2293301"/>
    <trkpt lat="45.5397133" lon="7.2294497"/>
    <trkpt lat="45.53977" lon="7.2295141"/>
    <trkpt lat="45.5398808" lon="7.2296153"/>
    <trkpt lat="45.5399465" lon="7.2297036"/>
    <trkpt lat="45.5399877" lon="7.2297717"/>
    <trkpt lat="45.5400096" lon="7.229825"/>
    <trkpt lat="45.540029" lon="7.2298986"/>
    <trkpt lat="45.5400702" lon="7.229974"/>
    <trkpt lat="45.5401223" lon="7.2300362"/>
    <trkpt lat="45.5401978" lon="7.2301378"/>
    <trkpt lat="45.5402068" lon="7.2301856"/>
    <trkpt lat="45.540154" lon="7.2301929"/>
    <trkpt lat="45.5400882" lon="7.2302224"/>
    <trkpt lat="45.5400648" lon="7.2302139"/>
    <trkpt lat="45.5400225" lon="7.2301985"/>
    <trkpt lat="45.5399478" lon="7.2301451"/>
    <trkpt lat="45.5398756" lon="7.2301543"/>
    <trkpt lat="45.539788" lon="7.2301856"/>
    <trkpt lat="45.5397718" lon="7.2301853"/>
    <trkpt lat="45.5396707" lon="7.2301837"/>
    <trkpt lat="45.5395896" lon="7.2302003"/>
    <trkpt lat="45.539511" lon="7.2302077"/>
    <trkpt lat="45.5394968" lon="7.2302371"/>
    <trkpt lat="45.5394929" lon="7.2303144"/>
    <trkpt lat="45.5395277" lon="7.2303696"/>
    <trkpt lat="45.5395947" lon="7.2304063"/>
    <trkpt lat="45.5396321" lon="7.2304505"/>
    <trkpt lat="45.5396733" lon="7.2304799"/>
    <trkpt lat="45.5397545" lon="7.2305278"/>
    <trkpt lat="45.5397634" lon="7.2305423"/>
    <trkpt lat="45.5397738" lon="7.230559"/>
    <trkpt lat="45.5397893" lon="7.2306271"/>
    <trkpt lat="45.5398383" lon="7.2307044"/>
    <trkpt lat="45.5398897" lon="7.2307685"/>
    <trkpt lat="45.5399091" lon="7.2307927"/>
    <trkpt lat="45.5399761" lon="7.2308571"/>
    <trkpt lat="45.5400096" lon="7.2309086"/>
    <trkpt lat="45.5400702" lon="7.2310153"/>
    <trkpt lat="45.5401256" lon="7.2310429"/>
    <trkpt lat="45.5402184" lon="7.2310631"/>
    <trkpt lat="45.5402751" lon="7.231065"/>
    <trkpt lat="45.540324" lon="7.2310429"/>
    <trkpt lat="45.5403137" lon="7.231076"/>
    <trkpt lat="45.5402738" lon="7.2311385"/>
    <trkpt lat="45.540257" lon="7.2311882"/>
    <trkpt lat="45.5401784" lon="7.2312361"/>
    <trkpt lat="45.5401359" lon="7.2312912"/>
    <trkpt lat="45.5400818" lon="7.2313391"/>
    <trkpt lat="45.5400135" lon="7.2313501"/>
    <trkpt lat="45.5399207" lon="7.2313372"/>
    <trkpt lat="45.5398326" lon="7.2313076"/>
    <trkpt lat="45.5397674" lon="7.2312857"/>
    <trkpt lat="45.539636" lon="7.2312434"/>
    <trkpt lat="45.5395458" lon="7.231214"/>
    <trkpt lat="45.539453" lon="7.2312048"/>
    <trkpt lat="45.5393989" lon="7.2311974"/>
    <trkpt lat="45.5393589" lon="7.2311514"/>
    <trkpt lat="45.5393383" lon="7.2311128"/>
    <trkpt lat="45.5392984" lon="7.2310815"/>
    <trkpt lat="45.5392816" lon="7.2310889"/>
    <trkpt lat="45.53931" lon="7.2311533"/>
    <trkpt lat="45.5393228" lon="7.2312158"/>
    <trkpt lat="45.5393692" lon="7.2313961"/>
    <trkpt lat="45.5394079" lon="7.2315157"/>
    <trkpt lat="45.5394375" lon="7.2316279"/>
    <trkpt lat="45.5394813" lon="7.2317401"/>
    <trkpt lat="45.5395458" lon="7.2318229"/>
    <trkpt lat="45.5396192" lon="7.2318855"/>
    <trkpt lat="45.5396437" lon="7.2319627"/>
    <trkpt lat="45.5396836" lon="7.232005"/>
    <trkpt lat="45.5397545" lon="7.2320786"/>
    <trkpt lat="45.5398331" lon="7.2321246"/>
    <trkpt lat="45.5398988" lon="7.2321688"/>
    <trkpt lat="45.5399207" lon="7.2322093"/>
    <trkpt lat="45.5398911" lon="7.2322405"/>
    <trkpt lat="45.5398228" lon="7.2322608"/>
    <trkpt lat="45.5397416" lon="7.2323049"/>
    <trkpt lat="45.5396643" lon="7.2323307"/>
    <trkpt lat="45.5395934" lon="7.2323417"/>
    <trkpt lat="45.5395731" lon="7.2323395"/>
    <trkpt lat="45.5395071" lon="7.2323325"/>
    <trkpt lat="45.539462" lon="7.2323031"/>
    <trkpt lat="45.5394272" lon="7.2322626"/>
    <trkpt lat="45.5393679" lon="7.2321982"/>
    <trkpt lat="45.53931" lon="7.2321412"/>
    <trkpt lat="45.5392739" lon="7.2321301"/>
    <trkpt lat="45.5392236" lon="7.2321835"/>
    <trkpt lat="45.5391914" lon="7.2322865"/>
    <trkpt lat="45.539183" lon="7.2324214"/>
    <trkpt lat="45.5391881" lon="7.232495"/>
    <trkpt lat="45.5391843" lon="7.2325778"/>
    <trkpt lat="45.5391753" lon="7.2327102"/>
    <trkpt lat="45.539192" lon="7.2328114"/>
    <trkpt lat="45.5392165" lon="7.2328482"/>
    <trkpt lat="45.5392513" lon="7.2328225"/>
    <trkpt lat="45.5392938" lon="7.232771"/>
    <trkpt lat="45.5393312" lon="7.2327746"/>
    <trkpt lat="45.5393389" lon="7.2328629"/>
    <trkpt lat="45.5393538" lon="7.2329381"/>
    <trkpt lat="45.5393557" lon="7.2329476"/>
    <trkpt lat="45.5393763" lon="7.2330377"/>
    <trkpt lat="45.539402" lon="7.2331738"/>
    <trkpt lat="45.5394265" lon="7.2332769"/>
    <trkpt lat="45.5394497" lon="7.2333376"/>
    <trkpt lat="45.5394884" lon="7.2333707"/>
    <trkpt lat="45.5395438" lon="7.233367"/>
    <trkpt lat="45.5395609" lon="7.233363"/>
    <trkpt lat="45.5396147" lon="7.2333505"/>
    <trkpt lat="45.5396714" lon="7.2333137"/>
    <trkpt lat="45.5396958" lon="7.2333137"/>
    <trkpt lat="45.5396855" lon="7.233356"/>
    <trkpt lat="45.5396456" lon="7.2334001"/>
    <trkpt lat="45.5396147" lon="7.2334516"/>
    <trkpt lat="45.5395915" lon="7.2334921"/>
    <trkpt lat="45.5395979" lon="7.2335197"/>
    <trkpt lat="45.539643" lon="7.2334903"/>
    <trkpt lat="45.5397113" lon="7.2334498"/>
    <trkpt lat="45.5397564" lon="7.2334498"/>
    <trkpt lat="45.5398092" lon="7.2334774"/>
    <trkpt lat="45.5398827" lon="7.2334719"/>
    <trkpt lat="45.5399484" lon="7.2334516"/>
    <trkpt lat="45.5400218" lon="7.2334038"/>
    <trkpt lat="45.5401391" lon="7.2333284"/>
    <trkpt lat="45.5401919" lon="7.2332769"/>
    <trkpt lat="45.5402229" lon="7.2332474"/>
    <trkpt lat="45.5402821" lon="7.2332125"/>
    <trkpt lat="45.5403633" lon="7.2331702"/>
    <trkpt lat="45.5403852" lon="7.2331794"/>
    <trkpt lat="45.5403749" lon="7.2332125"/>
    <trkpt lat="45.5402937" lon="7.233356"/>
    <trkpt lat="45.5402486" lon="7.2334535"/>
    <trkpt lat="45.5401881" lon="7.2336338"/>
    <trkpt lat="45.5401417" lon="7.2337865"/>
    <trkpt lat="45.5400837" lon="7.2339631"/>
    <trkpt lat="45.5400553" lon="7.2340624"/>
    <trkpt lat="45.5400553" lon="7.2341379"/>
    <trkpt lat="45.5400218" lon="7.2342574"/>
    <trkpt lat="45.5399819" lon="7.2344138"/>
    <trkpt lat="45.5399316" lon="7.2345683"/>
    <trkpt lat="45.5398994" lon="7.2346493"/>
    <trkpt lat="45.5398762" lon="7.2346622"/>
    <trkpt lat="45.5398479" lon="7.2346438"/>
    <trkpt lat="45.5398182" lon="7.2346806"/>
    <trkpt lat="45.5397783" lon="7.2347652"/>
    <trkpt lat="45.5397409" lon="7.234859"/>
    <trkpt lat="45.5397487" lon="7.2349105"/>
    <trkpt lat="45.5397216" lon="7.2350154"/>
    <trkpt lat="45.5396456" lon="7.2352564"/>
    <trkpt lat="45.5395953" lon="7.2354385"/>
    <trkpt lat="45.5395361" lon="7.2356519"/>
    <trkpt lat="45.5395014" lon="7.2358729"/>
    <trkpt lat="45.5394639" lon="7.2359536"/>
    <trkpt lat="45.5394278" lon="7.2359812"/>
    <trkpt lat="45.5394059" lon="7.2360051"/>
    <trkpt lat="45.5393814" lon="7.2360456"/>
    <trkpt lat="45.5393441" lon="7.2360971"/>
    <trkpt lat="45.5392938" lon="7.2361597"/>
    <trkpt lat="45.5392397" lon="7.2362241"/>
    <trkpt lat="45.5392178" lon="7.2362627"/>
    <trkpt lat="45.5392075" lon="7.2363547"/>
    <trkpt lat="45.5391972" lon="7.2364559"/>
    <trkpt lat="45.5391819" lon="7.2365992"/>
    <trkpt lat="45.539164" lon="7.2367507"/>
    <trkpt lat="45.5391578" lon="7.2368439"/>
    <trkpt lat="45.5391513" lon="7.2369048"/>
    <trkpt lat="45.5391453" lon="7.2369601"/>
    <trkpt lat="45.5391211" lon="7.2370243"/>
    <trkpt lat="45.5390902" lon="7.2370961"/>
    <trkpt lat="45.5390924" lon="7.2371573"/>
    <trkpt lat="45.5390982" lon="7.237258"/>
    <trkpt lat="45.5390766" lon="7.2373408"/>
    <trkpt lat="45.539087" lon="7.237465"/>
    <trkpt lat="45.5391019" lon="7.2375991"/>
    <trkpt lat="45.5391265" lon="7.2378033"/>
    <trkpt lat="45.5391629" lon="7.2379676"/>
    <trkpt lat="45.5391897" lon="7.238146"/>
    <trkpt lat="45.5391802" lon="7.2383005"/>
    <trkpt lat="45.539167" lon="7.2384142"/>
    <trkpt lat="45.5391696" lon="7.2385538"/>
    <trkpt lat="45.5391629" lon="7.2387282"/>
    <trkpt lat="45.5391542" lon="7.2389223"/>
    <trkpt lat="45.5391225" lon="7.2390505"/>
    <trkpt lat="45.5391403" lon="7.2392466"/>
    <trkpt lat="45.5391542" lon="7.239387"/>
    <trkpt lat="45.5392159" lon="7.2395055"/>
    <trkpt lat="45.5392312" lon="7.2395768"/>
    <trkpt lat="45.5392662" lon="7.2396477"/>
    <trkpt lat="45.5392468" lon="7.239805"/>
    <trkpt lat="45.5393028" lon="7.2399101"/>
    <trkpt lat="45.5393043" lon="7.2400174"/>
    <trkpt lat="45.5393217" lon="7.2401314"/>
    <trkpt lat="45.5393368" lon="7.2402626"/>
    <trkpt lat="45.5393609" lon="7.2403603"/>
    <trkpt lat="45.5393562" lon="7.2404742"/>
    <trkpt lat="45.5393845" lon="7.2405551"/>
    <trkpt lat="45.5393935" lon="7.2406434"/>
    <trkpt lat="45.5393742" lon="7.2407556"/>
    <trkpt lat="45.5393355" lon="7.2408347"/>
    <trkpt lat="45.5393317" lon="7.2408954"/>
    <trkpt lat="45.5393652" lon="7.2409028"/>
    <trkpt lat="45.539436" lon="7.2407943"/>
    <trkpt lat="45.5394902" lon="7.240671"/>
    <trkpt lat="45.5395585" lon="7.2405698"/>
    <trkpt lat="45.5396358" lon="7.2405017"/>
    <trkpt lat="45.5396783" lon="7.2404502"/>
    <trkpt lat="45.5397079" lon="7.240292"/>
    <trkpt lat="45.5397856" lon="7.2400944"/>
    <trkpt lat="45.5398335" lon="7.2398398"/>
    <trkpt lat="45.5398381" lon="7.2395506"/>
    <trkpt lat="45.5398729" lon="7.2393252"/>
    <trkpt lat="45.539862" lon="7.239199"/>
    <trkpt lat="45.5398502" lon="7.2391325"/>
    <trkpt lat="45.5398406" lon="7.2390487"/>
    <trkpt lat="45.53986" lon="7.2389748"/>
    <trkpt lat="45.5398767" lon="7.2388755"/>
    <trkpt lat="45.5398712" lon="7.2387193"/>
    <trkpt lat="45.5398659" lon="7.2385432"/>
    <trkpt lat="45.5398797" lon="7.2383995"/>
    <trkpt lat="45.5399027" lon="7.2382662"/>
    <trkpt lat="45.5399229" lon="7.2382038"/>
    <trkpt lat="45.5399519" lon="7.238161"/>
    <trkpt lat="45.5399796" lon="7.2380991"/>
    <trkpt lat="45.5400209" lon="7.2380885"/>
    <trkpt lat="45.5400614" lon="7.2381186"/>
    <trkpt lat="45.5400847" lon="7.2381757"/>
    <trkpt lat="45.5401075" lon="7.2384088"/>
    <trkpt lat="45.5401177" lon="7.2385845"/>
    <trkpt lat="45.5401478" lon="7.2387774"/>
    <trkpt lat="45.5401664" lon="7.2389654"/>
    <trkpt lat="45.5401644" lon="7.2392265"/>
    <trkpt lat="45.5401844" lon="7.2393332"/>
    <trkpt lat="45.5401644" lon="7.2392265"/>
    <trkpt lat="45.5401664" lon="7.2389654"/>
    <trkpt lat="45.5401478" lon="7.2387774"/>
    <trkpt lat="45.5401177" lon="7.2385845"/>
    <trkpt lat="45.5401075" lon="7.2384088"/>
    <trkpt lat="45.5400847" lon="7.2381757"/>
    <trkpt lat="45.5400614" lon="7.2381186"/>
    <trkpt lat="45.5400209" lon="7.2380885"/>
    <trkpt lat="45.5399796" lon="7.2380991"/>
    <trkpt lat="45.5399519" lon="7.238161"/>
    <trkpt lat="45.5399229" lon="7.2382038"/>
    <trkpt lat="45.5399027" lon="7.2382662"/>
    <trkpt lat="45.5398797" lon="7.2383995"/>
    <trkpt lat="45.5398659" lon="7.2385432"/>
    <trkpt lat="45.5398712" lon="7.2387193"/>
    <trkpt lat="45.5398767" lon="7.2388755"/>
    <trkpt lat="45.53986" lon="7.2389748"/>
    <trkpt lat="45.5398406" lon="7.2390487"/>
    <trkpt lat="45.5398502" lon="7.2391325"/>
    <trkpt lat="45.539862" lon="7.239199"/>
    <trkpt lat="45.5398729" lon="7.2393252"/>
    <trkpt lat="45.5398381" lon="7.2395506"/>
    <trkpt lat="45.5398335" lon="7.2398398"/>
    <trkpt lat="45.5397856" lon="7.2400944"/>
    <trkpt lat="45.5397079" lon="7.240292"/>
    <trkpt lat="45.5396783" lon="7.2404502"/>
    <trkpt lat="45.5396358" lon="7.2405017"/>
    <trkpt lat="45.5395585" lon="7.2405698"/>
    <trkpt lat="45.5394902" lon="7.240671"/>
    <trkpt lat="45.539436" lon="7.2407943"/>
    <trkpt lat="45.5393652" lon="7.2409028"/>
    <trkpt lat="45.5393317" lon="7.2408954"/>
    <trkpt lat="45.5393355" lon="7.2408347"/>
    <trkpt lat="45.5393742" lon="7.2407556"/>
    <trkpt lat="45.5393935" lon="7.2406434"/>
    <trkpt lat="45.5393845" lon="7.2405551"/>
    <trkpt lat="45.5393562" lon="7.2404742"/>
    <trkpt lat="45.5393609" lon="7.2403603"/>
    <trkpt lat="45.5393368" lon="7.2402626"/>
    <trkpt lat="45.5393217" lon="7.2401314"/>
    <trkpt lat="45.5393043" lon="7.2400174"/>
    <trkpt lat="45.5393028" lon="7.2399101"/>
    <trkpt lat="45.5392468" lon="7.239805"/>
    <trkpt lat="45.5392662" lon="7.2396477"/>
    <trkpt lat="45.5392312" lon="7.2395768"/>
    <trkpt lat="45.5392159" lon="7.2395055"/>
    <trkpt lat="45.5391542" lon="7.239387"/>
    <trkpt lat="45.5391403" lon="7.2392466"/>
    <trkpt lat="45.5391225" lon="7.2390505"/>
    <trkpt lat="45.5389982" lon="7.2389391"/>
    <trkpt lat="45.5388962" lon="7.2389188"/>
    <trkpt lat="45.538812" lon="7.2388813"/>
    <trkpt lat="45.5387316" lon="7.2388181"/>
    <trkpt lat="45.5386546" lon="7.2387472"/>
    <trkpt lat="45.5385846" lon="7.2386765"/>
    <trkpt lat="45.5385481" lon="7.2385604"/>
    <trkpt lat="45.5385206" lon="7.2384266"/>
    <trkpt lat="45.5384821" lon="7.2383543"/>
    <trkpt lat="45.5384141" lon="7.2383208"/>
    <trkpt lat="45.5383259" lon="7.238225"/>
    <trkpt lat="45.5382798" lon="7.2381493"/>
    <trkpt lat="45.5382129" lon="7.2380278"/>
    <trkpt lat="45.5381831" lon="7.2379399"/>
    <trkpt lat="45.5381336" lon="7.237906"/>
    <trkpt lat="45.5380811" lon="7.2377727"/>
    <trkpt lat="45.5380197" lon="7.2376643"/>
    <trkpt lat="45.5379261" lon="7.2374767"/>
    <trkpt lat="45.53783" lon="7.2373017"/>
    <trkpt lat="45.537792" lon="7.2372267"/>
    <trkpt lat="45.5377777" lon="7.2371298"/>
    <trkpt lat="45.5377547" lon="7.2370385"/>
    <trkpt lat="45.537757" lon="7.2369561"/>
    <trkpt lat="45.5377762" lon="7.2367816"/>
    <trkpt lat="45.5377977" lon="7.2366227"/>
    <trkpt lat="45.5378055" lon="7.2365608"/>
    <trkpt lat="45.5378026" lon="7.2365"/>
    <trkpt lat="45.5378205" lon="7.2364519"/>
    <trkpt lat="45.5378027" lon="7.2362661"/>
    <trkpt lat="45.5377995" lon="7.2362108"/>
    <trkpt lat="45.5377943" lon="7.2361662"/>
    <trkpt lat="45.5377424" lon="7.2360305"/>
    <trkpt lat="45.5377013" lon="7.2359841"/>
    <trkpt lat="45.5377028" lon="7.2359127"/>
    <trkpt lat="45.5376853" lon="7.23588"/>
    <trkpt lat="45.5376678" lon="7.2358743"/>
    <trkpt lat="45.5376373" lon="7.2358173"/>
    <trkpt lat="45.5376052" lon="7.2356929"/>
    <trkpt lat="45.537594" lon="7.2356579"/>
    <trkpt lat="45.537541" lon="7.2356054"/>
    <trkpt lat="45.5375022" lon="7.2355296"/>
    <trkpt lat="45.5374768" lon="7.2354595"/>
    <trkpt lat="45.5374761" lon="7.2353728"/>
    <trkpt lat="45.5374388" lon="7.2353261"/>
    <trkpt lat="45.5374259" lon="7.2352397"/>
    <trkpt lat="45.5374035" lon="7.2351861"/>
    <trkpt lat="45.5373979" lon="7.2350969"/>
    <trkpt lat="45.5373971" lon="7.2350659"/>
    <trkpt lat="45.5373454" lon="7.2350011"/>
    <trkpt lat="45.537315" lon="7.2348483"/>
    <trkpt lat="45.5372403" lon="7.2347552"/>
    <trkpt lat="45.5372136" lon="7.234628"/>
    <trkpt lat="45.5372178" lon="7.2344584"/>
    <trkpt lat="45.537188" lon="7.234469"/>
    <trkpt lat="45.5371559" lon="7.2344542"/>
    <trkpt lat="45.5371449" lon="7.2343153"/>
    <trkpt lat="45.5371206" lon="7.2342015"/>
    <trkpt lat="45.5370736" lon="7.2342098"/>
    <trkpt lat="45.5370067" lon="7.2342509"/>
    <trkpt lat="45.5369425" lon="7.2342673"/>
    <trkpt lat="45.5368374" lon="7.2342713"/>
    <trkpt lat="45.5367119" lon="7.2342842"/>
    <trkpt lat="45.5366623" lon="7.2342425"/>
    <trkpt lat="45.5366156" lon="7.2341258"/>
    <trkpt lat="45.5365601" lon="7.2339883"/>
    <trkpt lat="45.5365134" lon="7.2338966"/>
    <trkpt lat="45.5364491" lon="7.2338216"/>
    <trkpt lat="45.5363353" lon="7.2336924"/>
    <trkpt lat="45.5362565" lon="7.2336173"/>
    <trkpt lat="45.5361718" lon="7.2335131"/>
    <trkpt lat="45.5360988" lon="7.2334215"/>
    <trkpt lat="45.5360258" lon="7.2333339"/>
    <trkpt lat="45.5359587" lon="7.2331964"/>
    <trkpt lat="45.5359259" lon="7.2331722"/>
    <trkpt lat="45.5358682" lon="7.2331922"/>
    <trkpt lat="45.5358069" lon="7.2332006"/>
    <trkpt lat="45.535731" lon="7.2332131"/>
    <trkpt lat="45.5356697" lon="7.2332714"/>
    <trkpt lat="45.5356317" lon="7.2333423"/>
    <trkpt lat="45.5355617" lon="7.2334173"/>
    <trkpt lat="45.5355033" lon="7.2334881"/>
    <trkpt lat="45.5354332" lon="7.2335632"/>
    <trkpt lat="45.5353427" lon="7.233584"/>
    <trkpt lat="45.5352434" lon="7.2335673"/>
    <trkpt lat="45.5351704" lon="7.2335673"/>
    <trkpt lat="45.5350829" lon="7.2335507"/>
    <trkpt lat="45.5349894" lon="7.233534"/>
    <trkpt lat="45.5348931" lon="7.2334965"/>
    <trkpt lat="45.5347763" lon="7.2334715"/>
    <trkpt lat="45.5346712" lon="7.2334923"/>
    <trkpt lat="45.5345311" lon="7.233509"/>
    <trkpt lat="45.5344406" lon="7.2335215"/>
    <trkpt lat="45.5343647" lon="7.2335673"/>
    <trkpt lat="45.5342479" lon="7.2335923"/>
    <trkpt lat="45.534134" lon="7.2336382"/>
    <trkpt lat="45.5340202" lon="7.2336507"/>
    <trkpt lat="45.5339501" lon="7.233559"/>
    <trkpt lat="45.5339238" lon="7.2334631"/>
    <trkpt lat="45.5339082" lon="7.2333196"/>
    <trkpt lat="45.5338225" lon="7.2331039"/>
    <trkpt lat="45.5338064" lon="7.2329164"/>
    <trkpt lat="45.5337866" lon="7.2327171"/>
    <trkpt lat="45.5337136" lon="7.2326212"/>
    <trkpt lat="45.5335755" lon="7.232544"/>
    <trkpt lat="45.5335334" lon="7.2325362"/>
    <trkpt lat="45.5334686" lon="7.2324723"/>
    <trkpt lat="45.5334485" lon="7.2323795"/>
    <trkpt lat="45.5333884" lon="7.2322461"/>
    <trkpt lat="45.5333408" lon="7.2321215"/>
    <trkpt lat="45.5332699" lon="7.2320586"/>
    <trkpt lat="45.5332348" lon="7.231896"/>
    <trkpt lat="45.5331677" lon="7.2317918"/>
    <trkpt lat="45.533121" lon="7.2317418"/>
    <trkpt lat="45.5330451" lon="7.2317585"/>
    <trkpt lat="45.5329283" lon="7.2317893"/>
    <trkpt lat="45.5328232" lon="7.231821"/>
    <trkpt lat="45.532683" lon="7.2318293"/>
    <trkpt lat="45.5325487" lon="7.231846"/>
    <trkpt lat="45.532429" lon="7.2318293"/>
    <trkpt lat="45.5323473" lon="7.231846"/>
    <trkpt lat="45.5322393" lon="7.2318043"/>
    <trkpt lat="45.5321604" lon="7.2317877"/>
    <trkpt lat="45.5321079" lon="7.2317335"/>
    <trkpt lat="45.5320028" lon="7.231721"/>
    <trkpt lat="45.5319006" lon="7.2316918"/>
    <trkpt lat="45.5318218" lon="7.231696"/>
    <trkpt lat="45.53174" lon="7.2316793"/>
    <trkpt lat="45.5316583" lon="7.231621"/>
    <trkpt lat="45.5315531" lon="7.2315168"/>
    <trkpt lat="45.5314626" lon="7.2314584"/>
    <trkpt lat="45.5314013" lon="7.2313709"/>
    <trkpt lat="45.5313896" lon="7.231175"/>
    <trkpt lat="45.5313634" lon="7.231"/>
    <trkpt lat="45.5313751" lon="7.2308207"/>
    <trkpt lat="45.5314188" lon="7.2306665"/>
    <trkpt lat="45.5313605" lon="7.230654"/>
    <trkpt lat="45.5312524" lon="7.2307082"/>
    <trkpt lat="45.5311327" lon="7.2307332"/>
    <trkpt lat="45.5310189" lon="7.2307457"/>
    <trkpt lat="45.5308729" lon="7.2307791"/>
    <trkpt lat="45.5307561" lon="7.2307999"/>
    <trkpt lat="45.5306831" lon="7.2307707"/>
    <trkpt lat="45.5306451" lon="7.230679"/>
    <trkpt lat="45.5305663" lon="7.2305498"/>
    <trkpt lat="45.530505" lon="7.2303998"/>
    <trkpt lat="45.5304466" lon="7.2302956"/>
    <trkpt lat="45.530397" lon="7.2301914"/>
    <trkpt lat="45.5303444" lon="7.2300705"/>
    <trkpt lat="45.5302831" lon="7.229908"/>
    <trkpt lat="45.5302773" lon="7.2297663"/>
    <trkpt lat="45.5302948" lon="7.2295412"/>
    <trkpt lat="45.5302568" lon="7.2294787"/>
    <trkpt lat="45.5301926" lon="7.229362"/>
    <trkpt lat="45.5301254" lon="7.229262"/>
    <trkpt lat="45.5300554" lon="7.2291286"/>
    <trkpt lat="45.5300086" lon="7.2290286"/>
    <trkpt lat="45.5299269" lon="7.2288952"/>
    <trkpt lat="45.5298335" lon="7.228741"/>
    <trkpt lat="45.5297605" lon="7.2285659"/>
    <trkpt lat="45.5297313" lon="7.2284492"/>
    <trkpt lat="45.5297167" lon="7.228295"/>
    <trkpt lat="45.5296904" lon="7.2281325"/>
    <trkpt lat="45.5296437" lon="7.2281075"/>
    <trkpt lat="45.5295707" lon="7.2280825"/>
    <trkpt lat="45.5295561" lon="7.227995"/>
    <trkpt lat="45.5295765" lon="7.2278532"/>
    <trkpt lat="45.5295502" lon="7.227699"/>
    <trkpt lat="45.5294889" lon="7.2276824"/>
    <trkpt lat="45.5294568" lon="7.2275657"/>
    <trkpt lat="45.5293809" lon="7.2274448"/>
    <trkpt lat="45.5293663" lon="7.2273073"/>
    <trkpt lat="45.5293167" lon="7.2272364"/>
    <trkpt lat="45.529263" lon="7.2271311"/>
    <trkpt lat="45.5292182" lon="7.2270258"/>
    <trkpt lat="45.5291801" lon="7.2269635"/>
    <trkpt lat="45.5291348" lon="7.2268654"/>
    <trkpt lat="45.5291149" lon="7.2267176"/>
    <trkpt lat="45.529118" lon="7.2265072"/>
    <trkpt lat="45.5290994" lon="7.2263041"/>
    <trkpt lat="45.5291502" lon="7.2261194"/>
    <trkpt lat="45.5291444" lon="7.2259777"/>
    <trkpt lat="45.5291322" lon="7.2259193"/>
    <trkpt lat="45.5290769" lon="7.2258813"/>
    <trkpt lat="45.5289897" lon="7.2258068"/>
    <trkpt lat="45.5288816" lon="7.2258152"/>
    <trkpt lat="45.5287999" lon="7.2257943"/>
    <trkpt lat="45.5287175" lon="7.2256239"/>
    <trkpt lat="45.5286662" lon="7.2254939"/>
    <trkpt lat="45.5288262" lon="7.2252692"/>
    <trkpt lat="45.5288875" lon="7.2251275"/>
    <trkpt lat="45.5288933" lon="7.2249691"/>
    <trkpt lat="45.5289517" lon="7.2247316"/>
    <trkpt lat="45.5289867" lon="7.2246732"/>
    <trkpt lat="45.5290305" lon="7.2246023"/>
    <trkpt lat="45.5290656" lon="7.2244523"/>
    <trkpt lat="45.5290936" lon="7.2243816"/>
    <trkpt lat="45.5291055" lon="7.2242529"/>
    <trkpt lat="45.5291613" lon="7.2241223"/>
    <trkpt lat="45.5292554" lon="7.2240522"/>
    <trkpt lat="45.529305" lon="7.2238021"/>
    <trkpt lat="45.5293721" lon="7.2237188"/>
    <trkpt lat="45.5295023" lon="7.2235406"/>
    <trkpt lat="45.5295461" lon="7.2234268"/>
    <trkpt lat="45.5295803" lon="7.2232594"/>
    <trkpt lat="45.5295682" lon="7.2231532"/>
    <trkpt lat="45.5295092" lon="7.2229666"/>
    <trkpt lat="45.5294759" lon="7.2228751"/>
    <trkpt lat="45.5294657" lon="7.2227763"/>
    <trkpt lat="45.5294503" lon="7.2226812"/>
    <trkpt lat="45.5294285" lon="7.2226047"/>
    <trkpt lat="45.5294118" lon="7.2225458"/>
    <trkpt lat="45.5293606" lon="7.2224287"/>
    <trkpt lat="45.5293016" lon="7.2223811"/>
    <trkpt lat="45.5292862" lon="7.2222896"/>
    <trkpt lat="45.5292478" lon="7.2221689"/>
    <trkpt lat="45.5292298" lon="7.2220591"/>
    <trkpt lat="45.5291683" lon="7.221953"/>
    <trkpt lat="45.5291247" lon="7.2219128"/>
    <trkpt lat="45.5290658" lon="7.2218871"/>
    <trkpt lat="45.5290119" lon="7.2218103"/>
    <trkpt lat="45.5289581" lon="7.2217993"/>
    <trkpt lat="45.5289069" lon="7.2217543"/>
    <trkpt lat="45.5288701" lon="7.2216842"/>
    <trkpt lat="45.5288063" lon="7.2215896"/>
    <trkpt lat="45.52874" lon="7.2215126"/>
    <trkpt lat="45.5286713" lon="7.2214425"/>
    <trkpt lat="45.5286124" lon="7.2214144"/>
    <trkpt lat="45.5285329" lon="7.2213801"/>
    <trkpt lat="45.52847" lon="7.221425"/>
    <trkpt lat="45.5283939" lon="7.2214285"/>
    <trkpt lat="45.5283669" lon="7.2213934"/>
    <trkpt lat="45.5283178" lon="7.2213233"/>
    <trkpt lat="45.5282565" lon="7.2212603"/>
    <trkpt lat="45.5281681" lon="7.2212077"/>
    <trkpt lat="45.5281092" lon="7.2211517"/>
    <trkpt lat="45.5280699" lon="7.2211517"/>
    <trkpt lat="45.5280282" lon="7.2210746"/>
    <trkpt lat="45.5279938" lon="7.220959"/>
    <trkpt lat="45.5279349" lon="7.2208468"/>
    <trkpt lat="45.5278809" lon="7.2207382"/>
    <trkpt lat="45.5278588" lon="7.2207032"/>
    <trkpt lat="45.5277926" lon="7.220584"/>
    <trkpt lat="45.5277385" lon="7.2205105"/>
    <trkpt lat="45.527687" lon="7.2204474"/>
    <trkpt lat="45.5276232" lon="7.2204194"/>
    <trkpt lat="45.5275864" lon="7.2204299"/>
    <trkpt lat="45.5275545" lon="7.2203668"/>
    <trkpt lat="45.5274955" lon="7.2202547"/>
    <trkpt lat="45.5274342" lon="7.2201636"/>
    <trkpt lat="45.5273753" lon="7.220048"/>
    <trkpt lat="45.5272992" lon="7.2199709"/>
    <trkpt lat="45.5272623" lon="7.2198658"/>
    <trkpt lat="45.5272599" lon="7.2197431"/>
    <trkpt lat="45.5272403" lon="7.2196485"/>
    <trkpt lat="45.5272403" lon="7.2195329"/>
    <trkpt lat="45.5272353" lon="7.2193892"/>
    <trkpt lat="45.5272329" lon="7.2192386"/>
    <trkpt lat="45.527228" lon="7.219151"/>
    <trkpt lat="45.5272133" lon="7.2190108"/>
    <trkpt lat="45.5271789" lon="7.2189127"/>
    <trkpt lat="45.5271666" lon="7.2187901"/>
    <trkpt lat="45.5271593" lon="7.218706"/>
    <trkpt lat="45.52712" lon="7.2185483"/>
    <trkpt lat="45.5270733" lon="7.2183907"/>
    <trkpt lat="45.5270242" lon="7.2183346"/>
    <trkpt lat="45.526985" lon="7.218275"/>
    <trkpt lat="45.5269187" lon="7.2182015"/>
    <trkpt lat="45.5268352" lon="7.2181594"/>
    <trkpt lat="45.526791" lon="7.2181349"/>
    <trkpt lat="45.5267493" lon="7.2180403"/>
    <trkpt lat="45.5267051" lon="7.2180017"/>
    <trkpt lat="45.5266585" lon="7.2179211"/>
    <trkpt lat="45.5266241" lon="7.2178511"/>
    <trkpt lat="45.5265947" lon="7.2178125"/>
    <trkpt lat="45.5265554" lon="7.2177249"/>
    <trkpt lat="45.5265063" lon="7.2176794"/>
    <trkpt lat="45.5264523" lon="7.2175918"/>
    <trkpt lat="45.5263934" lon="7.2175077"/>
    <trkpt lat="45.5263443" lon="7.2174937"/>
    <trkpt lat="45.526305" lon="7.2175007"/>
    <trkpt lat="45.5262756" lon="7.2174516"/>
    <trkpt lat="45.526224" lon="7.2173535"/>
    <trkpt lat="45.526197" lon="7.2172799"/>
    <trkpt lat="45.5261577" lon="7.2171783"/>
    <trkpt lat="45.5261234" lon="7.2170942"/>
    <trkpt lat="45.5261086" lon="7.2169611"/>
    <trkpt lat="45.5260792" lon="7.216842"/>
    <trkpt lat="45.5260424" lon="7.2167649"/>
    <trkpt lat="45.5260105" lon="7.2166773"/>
    <trkpt lat="45.5260767" lon="7.2166493"/>
    <trkpt lat="45.5260473" lon="7.2165687"/>
    <trkpt lat="45.526008" lon="7.2165091"/>
    <trkpt lat="45.5259589" lon="7.216439"/>
    <trkpt lat="45.5259147" lon="7.2163795"/>
    <trkpt lat="45.5258607" lon="7.2162954"/>
    <trkpt lat="45.5257993" lon="7.2162113"/>
    <trkpt lat="45.5257625" lon="7.2161342"/>
    <trkpt lat="45.5257527" lon="7.2160011"/>
    <trkpt lat="45.5257331" lon="7.2158994"/>
    <trkpt lat="45.5256815" lon="7.2158259"/>
    <trkpt lat="45.5256251" lon="7.2157628"/>
    <trkpt lat="45.5256005" lon="7.2156647"/>
    <trkpt lat="45.5255809" lon="7.2155666"/>
    <trkpt lat="45.5255809" lon="7.215479"/>
    <trkpt lat="45.525522" lon="7.2153809"/>
    <trkpt lat="45.5254655" lon="7.2153108"/>
    <trkpt lat="45.525441" lon="7.2152793"/>
    <trkpt lat="45.5253771" lon="7.2152197"/>
    <trkpt lat="45.5253722" lon="7.2151742"/>
    <trkpt lat="45.5253354" lon="7.2151181"/>
    <trkpt lat="45.5252912" lon="7.2150585"/>
    <trkpt lat="45.5252446" lon="7.2149814"/>
    <trkpt lat="45.5252004" lon="7.2149079"/>
    <trkpt lat="45.5251341" lon="7.2148273"/>
    <trkpt lat="45.5250605" lon="7.2147852"/>
    <trkpt lat="45.5250016" lon="7.2147922"/>
    <trkpt lat="45.5249181" lon="7.2147712"/>
    <trkpt lat="45.5248567" lon="7.2147782"/>
    <trkpt lat="45.5247929" lon="7.2147607"/>
    <trkpt lat="45.5247291" lon="7.2147432"/>
    <trkpt lat="45.5244918" lon="7.2014031"/>
  </trkseg></trk></gpx>