<?xml version="1.0" encoding="UTF-8"?>
<gpx version="1.1" creator="GranParadiso-TourDesRefuges"
     xmlns="http://www.topografix.com/GPX/1/1">
  <trk><name>Jour 4 — Rifugio Federico Chabod → Pont</name>
  <desc>Descente Chabod (2750m) → Pont (1960m) · Sentier Route 1A · -790m · 5.8km</desc>
  <trkseg>
    <trkpt lat="45.5401844" lon="7.2393332"/>
    <trkpt lat="45.5401644" lon="7.2392265"/>
    <trkpt lat="45.5401664" lon="7.2389654"/>
    <trkpt lat="45.5401478" lon="7.2387774"/>
    <trkpt lat="45.5401177" lon="7.2385845"/>
    <trkpt lat="45.5401075" lon="7.2384088"/>
    <trkpt lat="45.5400847" lon="7.2381757"/>
    <trkpt lat="45.5400614" lon="7.2381186"/>
    <trkpt lat="45.5400209" lon="7.2380885"/>
    <trkpt lat="45.5399796" lon="7.2380991"/>
    <trkpt lat="45.5399519" lon="7.238161"/>
    <trkpt lat="45.5399229" lon="7.2382038"/>
    <trkpt lat="45.5399027" lon="7.2382662"/>
    <trkpt lat="45.5398797" lon="7.2383995"/>
    <trkpt lat="45.5398659" lon="7.2385432"/>
    <trkpt lat="45.5398712" lon="7.2387193"/>
    <trkpt lat="45.5398767" lon="7.2388755"/>
    <trkpt lat="45.53986" lon="7.2389748"/>
    <trkpt lat="45.5398406" lon="7.2390487"/>
    <trkpt lat="45.5398502" lon="7.2391325"/>
    <trkpt lat="45.539862" lon="7.239199"/>
    <trkpt lat="45.5398729" lon="7.2393252"/>
    <trkpt lat="45.5398381" lon="7.2395506"/>
    <trkpt lat="45.5398335" lon="7.2398398"/>
    <trkpt lat="45.5397856" lon="7.2400944"/>
    <trkpt lat="45.5397079" lon="7.240292"/>
    <trkpt lat="45.5396783" lon="7.2404502"/>
    <trkpt lat="45.5396358" lon="7.2405017"/>
    <trkpt lat="45.5395585" lon="7.2405698"/>
    <trkpt lat="45.5394902" lon="7.240671"/>
    <trkpt lat="45.539436" lon="7.2407943"/>
    <trkpt lat="45.5393652" lon="7.2409028"/>
    <trkpt lat="45.5393317" lon="7.2408954"/>
    <trkpt lat="45.5393355" lon="7.2408347"/>
    <trkpt lat="45.5393742" lon="7.2407556"/>
    <trkpt lat="45.5393935" lon="7.2406434"/>
    <trkpt lat="45.5393845" lon="7.2405551"/>
    <trkpt lat="45.5393562" lon="7.2404742"/>
    <trkpt lat="45.5393609" lon="7.2403603"/>
    <trkpt lat="45.5393368" lon="7.2402626"/>
    <trkpt lat="45.5393217" lon="7.2401314"/>
    <trkpt lat="45.5393043" lon="7.2400174"/>
    <trkpt lat="45.5393028" lon="7.2399101"/>
    <trkpt lat="45.5392468" lon="7.239805"/>
    <trkpt lat="45.5392662" lon="7.2396477"/>
    <trkpt lat="45.5392312" lon="7.2395768"/>
    <trkpt lat="45.5392159" lon="7.2395055"/>
    <trkpt lat="45.5391542" lon="7.239387"/>
    <trkpt lat="45.5391403" lon="7.2392466"/>
    <trkpt lat="45.5391225" lon="7.2390505"/>
    <trkpt lat="45.5389982" lon="7.2389391"/>
    <trkpt lat="45.5388962" lon="7.2389188"/>
    <trkpt lat="45.538812" lon="7.2388813"/>
    <trkpt lat="45.5387316" lon="7.2388181"/>
    <trkpt lat="45.5386546" lon="7.2387472"/>
    <trkpt lat="45.5385846" lon="7.2386765"/>
    <trkpt lat="45.5385481" lon="7.2385604"/>
    <trkpt lat="45.5385206" lon="7.2384266"/>
    <trkpt lat="45.5384821" lon="7.2383543"/>
    <trkpt lat="45.5384141" lon="7.2383208"/>
    <trkpt lat="45.5383259" lon="7.238225"/>
    <trkpt lat="45.5382798" lon="7.2381493"/>
    <trkpt lat="45.5382129" lon="7.2380278"/>
    <trkpt lat="45.5381831" lon="7.2379399"/>
    <trkpt lat="45.5381336" lon="7.237906"/>
    <trkpt lat="45.5380811" lon="7.2377727"/>
    <trkpt lat="45.5380197" lon="7.2376643"/>
    <trkpt lat="45.5379261" lon="7.2374767"/>
    <trkpt lat="45.53783" lon="7.2373017"/>
    <trkpt lat="45.537792" lon="7.2372267"/>
    <trkpt lat="45.5377777" lon="7.2371298"/>
    <trkpt lat="45.5377547" lon="7.2370385"/>
    <trkpt lat="45.537757" lon="7.2369561"/>
    <trkpt lat="45.5377762" lon="7.2367816"/>
    <trkpt lat="45.5377977" lon="7.2366227"/>
    <trkpt lat="45.5378055" lon="7.2365608"/>
    <trkpt lat="45.5378026" lon="7.2365"/>
    <trkpt lat="45.5378205" lon="7.2364519"/>
    <trkpt lat="45.5378027" lon="7.2362661"/>
    <trkpt lat="45.5377995" lon="7.2362108"/>
    <trkpt lat="45.5377943" lon="7.2361662"/>
    <trkpt lat="45.5377424" lon="7.2360305"/>
    <trkpt lat="45.5377013" lon="7.2359841"/>
    <trkpt lat="45.5377028" lon="7.2359127"/>
    <trkpt lat="45.5376853" lon="7.23588"/>
    <trkpt lat="45.5376678" lon="7.2358743"/>
    <trkpt lat="45.5376373" lon="7.2358173"/>
    <trkpt lat="45.5376052" lon="7.2356929"/>
    <trkpt lat="45.537594" lon="7.2356579"/>
    <trkpt lat="45.537541" lon="7.2356054"/>
    <trkpt lat="45.5375022" lon="7.2355296"/>
    <trkpt lat="45.5374768" lon="7.2354595"/>
    <trkpt lat="45.5374761" lon="7.2353728"/>
    <trkpt lat="45.5374388" lon="7.2353261"/>
    <trkpt lat="45.5374259" lon="7.2352397"/>
    <trkpt lat="45.5374035" lon="7.2351861"/>
    <trkpt lat="45.5373979" lon="7.2350969"/>
    <trkpt lat="45.5373971" lon="7.2350659"/>
    <trkpt lat="45.5373454" lon="7.2350011"/>
    <trkpt lat="45.537315" lon="7.2348483"/>
    <trkpt lat="45.5372403" lon="7.2347552"/>
    <trkpt lat="45.5372136" lon="7.234628"/>
    <trkpt lat="45.5372178" lon="7.2344584"/>
    <trkpt lat="45.537188" lon="7.234469"/>
    <trkpt lat="45.5371559" lon="7.2344542"/>
    <trkpt lat="45.5371449" lon="7.2343153"/>
    <trkpt lat="45.5371206" lon="7.2342015"/>
    <trkpt lat="45.5370736" lon="7.2342098"/>
    <trkpt lat="45.5370067" lon="7.2342509"/>
    <trkpt lat="45.5369425" lon="7.2342673"/>
    <trkpt lat="45.5368374" lon="7.2342713"/>
    <trkpt lat="45.5367119" lon="7.2342842"/>
    <trkpt lat="45.5366623" lon="7.2342425"/>
    <trkpt lat="45.5366156" lon="7.2341258"/>
    <trkpt lat="45.5365601" lon="7.2339883"/>
    <trkpt lat="45.5365134" lon="7.2338966"/>
    <trkpt lat="45.5364491" lon="7.2338216"/>
    <trkpt lat="45.5363353" lon="7.2336924"/>
    <trkpt lat="45.5362565" lon="7.2336173"/>
    <trkpt lat="45.5361718" lon="7.2335131"/>
    <trkpt lat="45.5360988" lon="7.2334215"/>
    <trkpt lat="45.5360258" lon="7.2333339"/>
    <trkpt lat="45.5359587" lon="7.2331964"/>
    <trkpt lat="45.5359259" lon="7.2331722"/>
    <trkpt lat="45.5358682" lon="7.2331922"/>
    <trkpt lat="45.5358069" lon="7.2332006"/>
    <trkpt lat="45.535731" lon="7.2332131"/>
    <trkpt lat="45.5356697" lon="7.2332714"/>
    <trkpt lat="45.5356317" lon="7.2333423"/>
    <trkpt lat="45.5355617" lon="7.2334173"/>
    <trkpt lat="45.5355033" lon="7.2334881"/>
    <trkpt lat="45.5354332" lon="7.2335632"/>
    <trkpt lat="45.5353427" lon="7.233584"/>
    <trkpt lat="45.5352434" lon="7.2335673"/>
    <trkpt lat="45.5351704" lon="7.2335673"/>
    <trkpt lat="45.5350829" lon="7.2335507"/>
    <trkpt lat="45.5349894" lon="7.233534"/>
    <trkpt lat="45.5348931" lon="7.2334965"/>
    <trkpt lat="45.5347763" lon="7.2334715"/>
    <trkpt lat="45.5346712" lon="7.2334923"/>
    <trkpt lat="45.5345311" lon="7.233509"/>
    <trkpt lat="45.5344406" lon="7.2335215"/>
    <trkpt lat="45.5343647" lon="7.2335673"/>
    <trkpt lat="45.5342479" lon="7.2335923"/>
    <trkpt lat="45.534134" lon="7.2336382"/>
    <trkpt lat="45.5340202" lon="7.2336507"/>
    <trkpt lat="45.5339501" lon="7.233559"/>
    <trkpt lat="45.5339238" lon="7.2334631"/>
    <trkpt lat="45.5339082" lon="7.2333196"/>
    <trkpt lat="45.5338225" lon="7.2331039"/>
    <trkpt lat="45.5338064" lon="7.2329164"/>
    <trkpt lat="45.5337866" lon="7.2327171"/>
    <trkpt lat="45.5337136" lon="7.2326212"/>
    <trkpt lat="45.5335755" lon="7.232544"/>
    <trkpt lat="45.5335334" lon="7.2325362"/>
    <trkpt lat="45.5334686" lon="7.2324723"/>
    <trkpt lat="45.5334485" lon="7.2323795"/>
    <trkpt lat="45.5333884" lon="7.2322461"/>
    <trkpt lat="45.5333408" lon="7.2321215"/>
    <trkpt lat="45.5332699" lon="7.2320586"/>
    <trkpt lat="45.5332348" lon="7.231896"/>
    <trkpt lat="45.5331677" lon="7.2317918"/>
    <trkpt lat="45.533121" lon="7.2317418"/>
    <trkpt lat="45.5330451" lon="7.2317585"/>
    <trkpt lat="45.5329283" lon="7.2317893"/>
    <trkpt lat="45.5328232" lon="7.231821"/>
    <trkpt lat="45.532683" lon="7.2318293"/>
    <trkpt lat="45.5325487" lon="7.231846"/>
    <trkpt lat="45.532429" lon="7.2318293"/>
    <trkpt lat="45.5323473" lon="7.231846"/>
    <trkpt lat="45.5322393" lon="7.2318043"/>
    <trkpt lat="45.5321604" lon="7.2317877"/>
    <trkpt lat="45.5321079" lon="7.2317335"/>
    <trkpt lat="45.5320028" lon="7.231721"/>
    <trkpt lat="45.5319006" lon="7.2316918"/>
    <trkpt lat="45.5318218" lon="7.231696"/>
    <trkpt lat="45.53174" lon="7.2316793"/>
    <trkpt lat="45.5316583" lon="7.231621"/>
    <trkpt lat="45.5315531" lon="7.2315168"/>
    <trkpt lat="45.5314626" lon="7.2314584"/>
    <trkpt lat="45.5314013" lon="7.2313709"/>
    <trkpt lat="45.5313896" lon="7.231175"/>
    <trkpt lat="45.5313634" lon="7.231"/>
    <trkpt lat="45.5313751" lon="7.2308207"/>
    <trkpt lat="45.5314188" lon="7.2306665"/>
    <trkpt lat="45.5313605" lon="7.230654"/>
    <trkpt lat="45.5312524" lon="7.2307082"/>
    <trkpt lat="45.5311327" lon="7.2307332"/>
    <trkpt lat="45.5310189" lon="7.2307457"/>
    <trkpt lat="45.5308729" lon="7.2307791"/>
    <trkpt lat="45.5307561" lon="7.2307999"/>
    <trkpt lat="45.5306831" lon="7.2307707"/>
    <trkpt lat="45.5306451" lon="7.230679"/>
    <trkpt lat="45.5305663" lon="7.2305498"/>
    <trkpt lat="45.530505" lon="7.2303998"/>
    <trkpt lat="45.5304466" lon="7.2302956"/>
    <trkpt lat="45.530397" lon="7.2301914"/>
    <trkpt lat="45.5303444" lon="7.2300705"/>
    <trkpt lat="45.5302831" lon="7.229908"/>
    <trkpt lat="45.5302773" lon="7.2297663"/>
    <trkpt lat="45.5302948" lon="7.2295412"/>
    <trkpt lat="45.5302568" lon="7.2294787"/>
    <trkpt lat="45.5301926" lon="7.229362"/>
    <trkpt lat="45.5301254" lon="7.229262"/>
    <trkpt lat="45.5300554" lon="7.2291286"/>
    <trkpt lat="45.5300086" lon="7.2290286"/>
    <trkpt lat="45.5299269" lon="7.2288952"/>
    <trkpt lat="45.5298335" lon="7.228741"/>
    <trkpt lat="45.5297605" lon="7.2285659"/>
    <trkpt lat="45.5297313" lon="7.2284492"/>
    <trkpt lat="45.5297167" lon="7.228295"/>
    <trkpt lat="45.5296904" lon="7.2281325"/>
    <trkpt lat="45.5296437" lon="7.2281075"/>
    <trkpt lat="45.5295707" lon="7.2280825"/>
    <trkpt lat="45.5295561" lon="7.227995"/>
    <trkpt lat="45.5295765" lon="7.2278532"/>
    <trkpt lat="45.5295502" lon="7.227699"/>
    <trkpt lat="45.5294889" lon="7.2276824"/>
    <trkpt lat="45.5294568" lon="7.2275657"/>
    <trkpt lat="45.5293809" lon="7.2274448"/>
    <trkpt lat="45.5293663" lon="7.2273073"/>
    <trkpt lat="45.5293167" lon="7.2272364"/>
    <trkpt lat="45.529263" lon="7.2271311"/>
    <trkpt lat="45.5292182" lon="7.2270258"/>
    <trkpt lat="45.5291801" lon="7.2269635"/>
    <trkpt lat="45.5291348" lon="7.2268654"/>
    <trkpt lat="45.5291149" lon="7.2267176"/>
    <trkpt lat="45.529118" lon="7.2265072"/>
    <trkpt lat="45.5290994" lon="7.2263041"/>
    <trkpt lat="45.5291502" lon="7.2261194"/>
    <trkpt lat="45.5291444" lon="7.2259777"/>
    <trkpt lat="45.5291322" lon="7.2259193"/>
    <trkpt lat="45.5290769" lon="7.2258813"/>
    <trkpt lat="45.5289897" lon="7.2258068"/>
    <trkpt lat="45.5288816" lon="7.2258152"/>
    <trkpt lat="45.5287999" lon="7.2257943"/>
    <trkpt lat="45.5287175" lon="7.2256239"/>
    <trkpt lat="45.5286662" lon="7.2254939"/>
    <trkpt lat="45.5288262" lon="7.2252692"/>
    <trkpt lat="45.5288875" lon="7.2251275"/>
    <trkpt lat="45.5288933" lon="7.2249691"/>
    <trkpt lat="45.5289517" lon="7.2247316"/>
    <trkpt lat="45.5289867" lon="7.2246732"/>
    <trkpt lat="45.5290305" lon="7.2246023"/>
    <trkpt lat="45.5290656" lon="7.2244523"/>
    <trkpt lat="45.5290936" lon="7.2243816"/>
    <trkpt lat="45.5291055" lon="7.2242529"/>
    <trkpt lat="45.5291613" lon="7.2241223"/>
    <trkpt lat="45.5292554" lon="7.2240522"/>
    <trkpt lat="45.529305" lon="7.2238021"/>
    <trkpt lat="45.5293721" lon="7.2237188"/>
    <trkpt lat="45.5295023" lon="7.2235406"/>
    <trkpt lat="45.5295461" lon="7.2234268"/>
    <trkpt lat="45.5295803" lon="7.2232594"/>
    <trkpt lat="45.5295682" lon="7.2231532"/>
    <trkpt lat="45.5295092" lon="7.2229666"/>
    <trkpt lat="45.5294759" lon="7.2228751"/>
    <trkpt lat="45.5294657" lon="7.2227763"/>
    <trkpt lat="45.5294503" lon="7.2226812"/>
    <trkpt lat="45.5294285" lon="7.2226047"/>
    <trkpt lat="45.5294118" lon="7.2225458"/>
    <trkpt lat="45.5293606" lon="7.2224287"/>
    <trkpt lat="45.5293016" lon="7.2223811"/>
    <trkpt lat="45.5292862" lon="7.2222896"/>
    <trkpt lat="45.5292478" lon="7.2221689"/>
    <trkpt lat="45.5292298" lon="7.2220591"/>
    <trkpt lat="45.5291683" lon="7.221953"/>
    <trkpt lat="45.5291247" lon="7.2219128"/>
    <trkpt lat="45.5290658" lon="7.2218871"/>
    <trkpt lat="45.5290119" lon="7.2218103"/>
    <trkpt lat="45.5289581" lon="7.2217993"/>
    <trkpt lat="45.5289069" lon="7.2217543"/>
    <trkpt lat="45.5288701" lon="7.2216842"/>
    <trkpt lat="45.5288063" lon="7.2215896"/>
    <trkpt lat="45.52874" lon="7.2215126"/>
    <trkpt lat="45.5286713" lon="7.2214425"/>
    <trkpt lat="45.5286124" lon="7.2214144"/>
    <trkpt lat="45.5285329" lon="7.2213801"/>
    <trkpt lat="45.52847" lon="7.221425"/>
    <trkpt lat="45.5283939" lon="7.2214285"/>
    <trkpt lat="45.5283669" lon="7.2213934"/>
    <trkpt lat="45.5283178" lon="7.2213233"/>
    <trkpt lat="45.5282565" lon="7.2212603"/>
    <trkpt lat="45.5281681" lon="7.2212077"/>
    <trkpt lat="45.5281092" lon="7.2211517"/>
    <trkpt lat="45.5280699" lon="7.2211517"/>
    <trkpt lat="45.5280282" lon="7.2210746"/>
    <trkpt lat="45.5279938" lon="7.220959"/>
    <trkpt lat="45.5279349" lon="7.2208468"/>
    <trkpt lat="45.5278809" lon="7.2207382"/>
    <trkpt lat="45.5278588" lon="7.2207032"/>
    <trkpt lat="45.5277926" lon="7.220584"/>
    <trkpt lat="45.5277385" lon="7.2205105"/>
    <trkpt lat="45.527687" lon="7.2204474"/>
    <trkpt lat="45.5276232" lon="7.2204194"/>
    <trkpt lat="45.5275864" lon="7.2204299"/>
    <trkpt lat="45.5275545" lon="7.2203668"/>
    <trkpt lat="45.5274955" lon="7.2202547"/>
    <trkpt lat="45.5274342" lon="7.2201636"/>
    <trkpt lat="45.5273753" lon="7.220048"/>
    <trkpt lat="45.5272992" lon="7.2199709"/>
    <trkpt lat="45.5272623" lon="7.2198658"/>
    <trkpt lat="45.5272599" lon="7.2197431"/>
    <trkpt lat="45.5272403" lon="7.2196485"/>
    <trkpt lat="45.5272403" lon="7.2195329"/>
    <trkpt lat="45.5272353" lon="7.2193892"/>
    <trkpt lat="45.5272329" lon="7.2192386"/>
    <trkpt lat="45.527228" lon="7.219151"/>
    <trkpt lat="45.5272133" lon="7.2190108"/>
    <trkpt lat="45.5271789" lon="7.2189127"/>
    <trkpt lat="45.5271666" lon="7.2187901"/>
    <trkpt lat="45.5271593" lon="7.218706"/>
    <trkpt lat="45.52712" lon="7.2185483"/>
    <trkpt lat="45.5270733" lon="7.2183907"/>
    <trkpt lat="45.5270242" lon="7.2183346"/>
    <trkpt lat="45.526985" lon="7.218275"/>
    <trkpt lat="45.5269187" lon="7.2182015"/>
    <trkpt lat="45.5268352" lon="7.2181594"/>
    <trkpt lat="45.526791" lon="7.2181349"/>
    <trkpt lat="45.5267493" lon="7.2180403"/>
    <trkpt lat="45.5267051" lon="7.2180017"/>
    <trkpt lat="45.5266585" lon="7.2179211"/>
    <trkpt lat="45.5266241" lon="7.2178511"/>
    <trkpt lat="45.5265947" lon="7.2178125"/>
    <trkpt lat="45.5265554" lon="7.2177249"/>
    <trkpt lat="45.5265063" lon="7.2176794"/>
    <trkpt lat="45.5264523" lon="7.2175918"/>
    <trkpt lat="45.5263934" lon="7.2175077"/>
    <trkpt lat="45.5263443" lon="7.2174937"/>
    <trkpt lat="45.526305" lon="7.2175007"/>
    <trkpt lat="45.5262756" lon="7.2174516"/>
    <trkpt lat="45.526224" lon="7.2173535"/>
    <trkpt lat="45.526197" lon="7.2172799"/>
    <trkpt lat="45.5261577" lon="7.2171783"/>
    <trkpt lat="45.5261234" lon="7.2170942"/>
    <trkpt lat="45.5261086" lon="7.2169611"/>
    <trkpt lat="45.5260792" lon="7.216842"/>
    <trkpt lat="45.5260424" lon="7.2167649"/>
    <trkpt lat="45.5260105" lon="7.2166773"/>
    <trkpt lat="45.5260767" lon="7.2166493"/>
    <trkpt lat="45.5260473" lon="7.2165687"/>
    <trkpt lat="45.526008" lon="7.2165091"/>
    <trkpt lat="45.5259589" lon="7.216439"/>
    <trkpt lat="45.5259147" lon="7.2163795"/>
    <trkpt lat="45.5258607" lon="7.2162954"/>
    <trkpt lat="45.5257993" lon="7.2162113"/>
    <trkpt lat="45.5257625" lon="7.2161342"/>
    <trkpt lat="45.5257527" lon="7.2160011"/>
    <trkpt lat="45.5257331" lon="7.2158994"/>
    <trkpt lat="45.5256815" lon="7.2158259"/>
    <trkpt lat="45.5256251" lon="7.2157628"/>
    <trkpt lat="45.5256005" lon="7.2156647"/>
    <trkpt lat="45.5255809" lon="7.2155666"/>
    <trkpt lat="45.5255809" lon="7.215479"/>
    <trkpt lat="45.525522" lon="7.2153809"/>
    <trkpt lat="45.5254655" lon="7.2153108"/>
    <trkpt lat="45.525441" lon="7.2152793"/>
    <trkpt lat="45.5253771" lon="7.2152197"/>
    <trkpt lat="45.5253722" lon="7.2151742"/>
    <trkpt lat="45.5253354" lon="7.2151181"/>
    <trkpt lat="45.5252912" lon="7.2150585"/>
    <trkpt lat="45.5252446" lon="7.2149814"/>
    <trkpt lat="45.5252004" lon="7.2149079"/>
    <trkpt lat="45.5251341" lon="7.2148273"/>
    <trkpt lat="45.5250605" lon="7.2147852"/>
    <trkpt lat="45.5250016" lon="7.2147922"/>
    <trkpt lat="45.5249181" lon="7.2147712"/>
    <trkpt lat="45.5248567" lon="7.2147782"/>
    <trkpt lat="45.5247929" lon="7.2147607"/>
    <trkpt lat="45.5247291" lon="7.2147432"/>
    <trkpt lat="45.524653" lon="7.2147152"/>
    <trkpt lat="45.5246039" lon="7.2147222"/>
    <trkpt lat="45.5245204" lon="7.2147257"/>
    <trkpt lat="45.524459" lon="7.2147747"/>
    <trkpt lat="45.5244149" lon="7.2148448"/>
    <trkpt lat="45.5243314" lon="7.2149149"/>
    <trkpt lat="45.5242725" lon="7.2149744"/>
    <trkpt lat="45.5242381" lon="7.2150655"/>
    <trkpt lat="45.5241988" lon="7.2151321"/>
    <trkpt lat="45.5241669" lon="7.2152512"/>
    <trkpt lat="45.5241178" lon="7.2153634"/>
    <trkpt lat="45.5240884" lon="7.2154369"/>
    <trkpt lat="45.5240491" lon="7.2155245"/>
    <trkpt lat="45.5239534" lon="7.2155806"/>
    <trkpt lat="45.5239067" lon="7.2156297"/>
    <trkpt lat="45.5238601" lon="7.2156857"/>
    <trkpt lat="45.5238085" lon="7.2157593"/>
    <trkpt lat="45.5237422" lon="7.2158469"/>
    <trkpt lat="45.5236833" lon="7.2158994"/>
    <trkpt lat="45.5236121" lon="7.215994"/>
    <trkpt lat="45.5235974" lon="7.2160922"/>
    <trkpt lat="45.5235483" lon="7.2161482"/>
    <trkpt lat="45.523509" lon="7.2162113"/>
    <trkpt lat="45.5234919" lon="7.2163199"/>
    <trkpt lat="45.5234648" lon="7.216439"/>
    <trkpt lat="45.5234084" lon="7.2165301"/>
    <trkpt lat="45.523374" lon="7.2166247"/>
    <trkpt lat="45.5233127" lon="7.2166983"/>
    <trkpt lat="45.5232513" lon="7.2168174"/>
    <trkpt lat="45.5232169" lon="7.2169156"/>
    <trkpt lat="45.5231654" lon="7.2170207"/>
    <trkpt lat="45.5231212" lon="7.2171223"/>
    <trkpt lat="45.5230991" lon="7.2172274"/>
    <trkpt lat="45.5230279" lon="7.2173851"/>
    <trkpt lat="45.522996" lon="7.2174832"/>
    <trkpt lat="45.5230205" lon="7.2176128"/>
    <trkpt lat="45.5230033" lon="7.217788"/>
    <trkpt lat="45.5230058" lon="7.2179141"/>
    <trkpt lat="45.5230009" lon="7.2180648"/>
    <trkpt lat="45.5229812" lon="7.2181664"/>
    <trkpt lat="45.522915" lon="7.2182505"/>
    <trkpt lat="45.5228953" lon="7.2183136"/>
    <trkpt lat="45.5228683" lon="7.2183907"/>
    <trkpt lat="45.5228806" lon="7.2185483"/>
    <trkpt lat="45.522861" lon="7.2186429"/>
    <trkpt lat="45.5228217" lon="7.2187375"/>
    <trkpt lat="45.5227922" lon="7.2188462"/>
    <trkpt lat="45.5227603" lon="7.2189162"/>
    <trkpt lat="45.5227186" lon="7.2190354"/>
    <trkpt lat="45.5226719" lon="7.2191615"/>
    <trkpt lat="45.5226106" lon="7.2192841"/>
    <trkpt lat="45.5225222" lon="7.2193472"/>
    <trkpt lat="45.5224731" lon="7.2193998"/>
    <trkpt lat="45.522397" lon="7.2194838"/>
    <trkpt lat="45.5223454" lon="7.2194874"/>
    <trkpt lat="45.5222767" lon="7.2195364"/>
    <trkpt lat="45.5221859" lon="7.2195925"/>
    <trkpt lat="45.5220999" lon="7.219617"/>
    <trkpt lat="45.5220165" lon="7.219659"/>
    <trkpt lat="45.5219306" lon="7.2197046"/>
    <trkpt lat="45.5218913" lon="7.2197501"/>
    <trkpt lat="45.5218446" lon="7.2197396"/>
    <trkpt lat="45.5217661" lon="7.2197256"/>
    <trkpt lat="45.5216973" lon="7.2197186"/>
    <trkpt lat="45.5216286" lon="7.2197186"/>
    <trkpt lat="45.5215548" lon="7.2197093"/>
    <trkpt lat="45.5214862" lon="7.2197396"/>
    <trkpt lat="45.5214396" lon="7.2197361"/>
    <trkpt lat="45.5213463" lon="7.2197852"/>
    <trkpt lat="45.521195" lon="7.2198624"/>
    <trkpt lat="45.5211914" lon="7.2199826"/>
    <trkpt lat="45.5212029" lon="7.2200681"/>
    <trkpt lat="45.5211599" lon="7.2201893"/>
    <trkpt lat="45.5211443" lon="7.2202832"/>
    <trkpt lat="45.5210966" lon="7.2203642"/>
    <trkpt lat="45.5210734" lon="7.2204747"/>
    <trkpt lat="45.5210514" lon="7.2205552"/>
    <trkpt lat="45.5209986" lon="7.2206501"/>
    <trkpt lat="45.5209314" lon="7.2208889"/>
    <trkpt lat="45.5209069" lon="7.2209835"/>
    <trkpt lat="45.520843" lon="7.2210886"/>
    <trkpt lat="45.5207718" lon="7.2212112"/>
    <trkpt lat="45.5207031" lon="7.2212918"/>
    <trkpt lat="45.5206565" lon="7.2213233"/>
    <trkpt lat="45.5205583" lon="7.2213899"/>
    <trkpt lat="45.5204576" lon="7.221453"/>
    <trkpt lat="45.5203545" lon="7.2214845"/>
    <trkpt lat="45.5202612" lon="7.2215406"/>
    <trkpt lat="45.5201826" lon="7.2216247"/>
    <trkpt lat="45.5201186" lon="7.2217038"/>
    <trkpt lat="45.5200832" lon="7.2217907"/>
    <trkpt lat="45.5200341" lon="7.2219056"/>
    <trkpt lat="45.5199733" lon="7.2220065"/>
    <trkpt lat="45.5199355" lon="7.2220684"/>
    <trkpt lat="45.5199202" lon="7.2220934"/>
    <trkpt lat="45.5198751" lon="7.2221635"/>
    <trkpt lat="45.5198181" lon="7.2222672"/>
    <trkpt lat="45.5197631" lon="7.2223653"/>
    <trkpt lat="45.5196944" lon="7.2224662"/>
    <trkpt lat="45.519659" lon="7.2225138"/>
    <trkpt lat="45.5196197" lon="7.2225951"/>
    <trkpt lat="45.5195805" lon="7.2226848"/>
    <trkpt lat="45.5195098" lon="7.2227773"/>
    <trkpt lat="45.5194351" lon="7.2228502"/>
    <trkpt lat="45.5193428" lon="7.2228951"/>
    <trkpt lat="45.519276" lon="7.2229511"/>
    <trkpt lat="45.5192289" lon="7.2230128"/>
    <trkpt lat="45.5191503" lon="7.2230885"/>
    <trkpt lat="45.5190875" lon="7.2231361"/>
    <trkpt lat="45.5190089" lon="7.2232286"/>
    <trkpt lat="45.5189539" lon="7.2232735"/>
    <trkpt lat="45.5188852" lon="7.2233351"/>
    <trkpt lat="45.5188538" lon="7.2233548"/>
    <trkpt lat="45.5188047" lon="7.2233884"/>
    <trkpt lat="45.5187654" lon="7.2234445"/>
    <trkpt lat="45.5187163" lon="7.2234949"/>
    <trkpt lat="45.5186692" lon="7.2235538"/>
    <trkpt lat="45.5186161" lon="7.2236042"/>
    <trkpt lat="45.5185454" lon="7.2236631"/>
    <trkpt lat="45.5184767" lon="7.2237388"/>
    <trkpt lat="45.5184511" lon="7.2238032"/>
    <trkpt lat="45.518406" lon="7.2238537"/>
    <trkpt lat="45.5183667" lon="7.2239042"/>
    <trkpt lat="45.5183333" lon="7.2239602"/>
    <trkpt lat="45.5182881" lon="7.2240247"/>
    <trkpt lat="45.5182351" lon="7.2241116"/>
    <trkpt lat="45.5181605" lon="7.2242153"/>
    <trkpt lat="45.5181094" lon="7.224291"/>
    <trkpt lat="45.5180799" lon="7.2243582"/>
    <trkpt lat="45.5180191" lon="7.2243919"/>
    <trkpt lat="45.5179582" lon="7.2244031"/>
    <trkpt lat="45.5178894" lon="7.2244536"/>
    <trkpt lat="45.5178403" lon="7.2245208"/>
    <trkpt lat="45.517803" lon="7.2245713"/>
    <trkpt lat="45.5177696" lon="7.2246133"/>
    <trkpt lat="45.5177087" lon="7.224675"/>
    <trkpt lat="45.5176675" lon="7.2247283"/>
    <trkpt lat="45.5176262" lon="7.2247955"/>
    <trkpt lat="45.5175791" lon="7.2248852"/>
    <trkpt lat="45.5175457" lon="7.2249833"/>
    <trkpt lat="45.5174966" lon="7.2250282"/>
    <trkpt lat="45.5174613" lon="7.2250983"/>
    <trkpt lat="45.517418" lon="7.2251515"/>
    <trkpt lat="45.5173709" lon="7.225202"/>
    <trkpt lat="45.517312" lon="7.2252328"/>
    <trkpt lat="45.5172688" lon="7.2252552"/>
    <trkpt lat="45.5171941" lon="7.2253225"/>
    <trkpt lat="45.5171156" lon="7.2253645"/>
    <trkpt lat="45.5170547" lon="7.2254178"/>
    <trkpt lat="45.5170351" lon="7.2254458"/>
    <trkpt lat="45.5169683" lon="7.2255047"/>
    <trkpt lat="45.5169113" lon="7.225572"/>
    <trkpt lat="45.5168681" lon="7.2256252"/>
    <trkpt lat="45.5168386" lon="7.2256729"/>
    <trkpt lat="45.5167797" lon="7.2256841"/>
    <trkpt lat="45.5167561" lon="7.2257486"/>
    <trkpt lat="45.5167228" lon="7.2258158"/>
    <trkpt lat="45.5166619" lon="7.2258383"/>
    <trkpt lat="45.5165951" lon="7.2258607"/>
    <trkpt lat="45.5165263" lon="7.2258887"/>
    <trkpt lat="45.5164792" lon="7.2259224"/>
    <trkpt lat="45.5163928" lon="7.22597"/>
    <trkpt lat="45.516326" lon="7.226012"/>
    <trkpt lat="45.5162337" lon="7.2260499"/>
    <trkpt lat="45.5161669" lon="7.2261017"/>
    <trkpt lat="45.5160825" lon="7.2261242"/>
    <trkpt lat="45.5159941" lon="7.2261634"/>
    <trkpt lat="45.5159391" lon="7.2261634"/>
    <trkpt lat="45.5158487" lon="7.2262027"/>
    <trkpt lat="45.5157996" lon="7.2262139"/>
    <trkpt lat="45.5157289" lon="7.2262167"/>
    <trkpt lat="45.5156562" lon="7.2261914"/>
    <trkpt lat="45.515617" lon="7.2261718"/>
    <trkpt lat="45.5155345" lon="7.2260793"/>
    <trkpt lat="45.5154991" lon="7.2260765"/>
    <trkpt lat="45.5154048" lon="7.225998"/>
    <trkpt lat="45.5153439" lon="7.2259364"/>
    <trkpt lat="45.5152948" lon="7.2258747"/>
    <trkpt lat="45.5151397" lon="7.2257682"/>
    <trkpt lat="45.5150611" lon="7.2256813"/>
    <trkpt lat="45.5150336" lon="7.2256168"/>
    <trkpt lat="45.5149118" lon="7.2254935"/>
    <trkpt lat="45.5148745" lon="7.2254683"/>
    <trkpt lat="45.5148392" lon="7.2253898"/>
    <trkpt lat="45.5148215" lon="7.2253169"/>
    <trkpt lat="45.5147881" lon="7.2253141"/>
    <trkpt lat="45.5146997" lon="7.2253449"/>
    <trkpt lat="45.5146015" lon="7.2253533"/>
    <trkpt lat="45.5145642" lon="7.2253702"/>
    <trkpt lat="45.5145602" lon="7.2254402"/>
    <trkpt lat="45.514519" lon="7.2254823"/>
    <trkpt lat="45.5144601" lon="7.2255075"/>
    <trkpt lat="45.514462" lon="7.2255916"/>
    <trkpt lat="45.5144856" lon="7.2256841"/>
    <trkpt lat="45.5144876" lon="7.2257514"/>
    <trkpt lat="45.514466" lon="7.2258355"/>
    <trkpt lat="45.5144522" lon="7.2259448"/>
    <trkpt lat="45.5144188" lon="7.2259952"/>
    <trkpt lat="45.5143815" lon="7.2260345"/>
    <trkpt lat="45.5143599" lon="7.226169"/>
    <trkpt lat="45.5143285" lon="7.2262223"/>
    <trkpt lat="45.5142676" lon="7.2262671"/>
    <trkpt lat="45.5142499" lon="7.2263288"/>
    <trkpt lat="45.5142519" lon="7.226511"/>
    <trkpt lat="45.5142774" lon="7.2265867"/>
    <trkpt lat="45.5142912" lon="7.2266511"/>
    <trkpt lat="45.5142185" lon="7.2267829"/>
    <trkpt lat="45.5142224" lon="7.2268502"/>
    <trkpt lat="45.5142145" lon="7.226909"/>
    <trkpt lat="45.5140947" lon="7.2270155"/>
    <trkpt lat="45.5139985" lon="7.22708"/>
    <trkpt lat="45.5140005" lon="7.2271921"/>
    <trkpt lat="45.514026" lon="7.2273435"/>
    <trkpt lat="45.5140201" lon="7.2274052"/>
    <trkpt lat="45.5139926" lon="7.2274752"/>
    <trkpt lat="45.5139965" lon="7.2275369"/>
    <trkpt lat="45.5140181" lon="7.2275649"/>
    <trkpt lat="45.5139769" lon="7.2276771"/>
    <trkpt lat="45.5139651" lon="7.2277892"/>
    <trkpt lat="45.5139455" lon="7.2278677"/>
    <trkpt lat="45.5138944" lon="7.2279209"/>
    <trkpt lat="45.5138139" lon="7.2279714"/>
    <trkpt lat="45.5137333" lon="7.2280667"/>
    <trkpt lat="45.5137039" lon="7.2281284"/>
    <trkpt lat="45.5135389" lon="7.2282769"/>
    <trkpt lat="45.5134898" lon="7.2283414"/>
    <trkpt lat="45.5133837" lon="7.2284395"/>
    <trkpt lat="45.5133169" lon="7.2285152"/>
    <trkpt lat="45.5132207" lon="7.2286413"/>
    <trkpt lat="45.5131598" lon="7.2286946"/>
    <trkpt lat="45.5131087" lon="7.2286946"/>
    <trkpt lat="45.5130085" lon="7.2286413"/>
    <trkpt lat="45.5129221" lon="7.2286385"/>
    <trkpt lat="45.5128514" lon="7.2286749"/>
    <trkpt lat="45.5128081" lon="7.2286969"/>
    <trkpt lat="45.5126747" lon="7.2289417"/>
    <trkpt lat="45.512578" lon="7.2291652"/>
    <trkpt lat="45.5125153" lon="7.2293101"/>
    <trkpt lat="45.5124335" lon="7.2295903"/>
    <trkpt lat="45.512447" lon="7.2296253"/>
    <trkpt lat="45.5124526" lon="7.229669"/>
    <trkpt lat="45.5124437" lon="7.2297265"/>
    <trkpt lat="45.5124461" lon="7.2297862"/>
    <trkpt lat="45.5124617" lon="7.2298147"/>
    <trkpt lat="45.5125277" lon="7.229794"/>
    <trkpt lat="45.5125342" lon="7.2298722"/>
    <trkpt lat="45.5125535" lon="7.2298929"/>
    <trkpt lat="45.512597" lon="7.2299273"/>
    <trkpt lat="45.5125928" lon="7.2300147"/>
    <trkpt lat="45.5125688" lon="7.2303272"/>
    <trkpt lat="45.5125454" lon="7.230438"/>
    <trkpt lat="45.5124667" lon="7.2307857"/>
  </trkseg></trk></gpx>